name,type,mainDepartment,county,province,religion,registrationTime,registrationAuthority,registrationCertificateNumber,category,unifiedSocialCreditCode,address,city,phoneNumber,manager,postalCode,id,website
萧山区佛教协会,协会,ZJ-RELIGIOUSVENUE-GOV-12,萧山区,浙江省,佛教,1997/1/23,ZJ-RELIGIOUSGROUP-GOV-67,社证字第216号,县团体,51330109502098626T,浙江省杭州市萧山区萧然南路387号,杭州市,0571-82712139,ZJ-RELIGIOUSGROUP-PEOPLE-220,300201,萧山区佛教协会,
东阳市天主教爱国会,协会,ZJ-RELIGIOUSVENUE-GOV-70,东阳市,浙江省,天主教,1985/11/1,ZJ-RELIGIOUSGROUP-GOV-99,浙东社证字第62号,县团体,51330783MJ9678511Y,浙江省金华市东阳市横店镇新荷庄小区,金华市,13588625096,ZJ-RELIGIOUSGROUP-PEOPLE-244,322100,东阳市天主教爱国会,
普陀区佛教协会,协会,ZJ-RELIGIOUSVENUE-GOV-92,普陀区,浙江省,佛教,1995/4/20,ZJ-RELIGIOUSGROUP-GOV-41,舟普民社证字103号,县团体,513000000000000000,浙江省舟山市普陀区沈家门街道北安路88号,舟山市,0580-3065075,ZJ-RELIGIOUSGROUP-PEOPLE-229,316100,普陀区佛教协会,
临海市基督教三自爱国运动委员会,协会,ZJ-RELIGIOUSVENUE-GOV-48,临海市,浙江省,基督教,1986/1/1,ZJ-RELIGIOUSGROUP-GOV-5,浙临民社证字第020020,县团体,5133108250262071X4,浙江省台州市临海市古城街道四顾巷38号,台州市,0576-85112593,ZJ-RELIGIOUSGROUP-PEOPLE-195,317000,临海市基督教三自爱国运动委员会,
杭州市基督教协会,协会,ZJ-RELIGIOUSVENUE-GOV-108,330101,浙江省,基督教,1986/9/1,ZJ-RELIGIOUSGROUP-GOV-15,244,市团体,513000000000000000,浙江省杭州市解放路132号,杭州市,0571-87014766,ZJ-RELIGIOUSGROUP-PEOPLE-275,310009,杭州市基督教协会,
临安区基督教协会,协会,ZJ-RELIGIOUSVENUE-GOV-50,临安区,浙江省,基督教,1993/12/1,ZJ-RELIGIOUSGROUP-GOV-30,临社证字第0270号,县团体,5133018559955640X4,浙江省杭州市临安区锦北街道保锦路281号福音堂,杭州市,0571-63738096,ZJ-RELIGIOUSGROUP-PEOPLE-35,311300,临安区基督教协会,
丽水市佛教协会,协会,ZJ-RELIGIOUSVENUE-GOV-188,331101,浙江省,佛教,2005/7/1,ZJ-RELIGIOUSGROUP-GOV-37,丽市社证字第171号,市团体,51331100787725223H,丽水市莲都区天宁工业区311号,丽水市,13735901198,ZJ-RELIGIOUSGROUP-PEOPLE-43,323000,丽水市佛教协会,
绍兴市基督教三自爱国运动委员会,协会,ZJ-RELIGIOUSVENUE-GOV-41,越城区,浙江省,基督教,2004/2/9,ZJ-RELIGIOUSGROUP-GOV-66,绍社证字第630号,市团体,51330600502305218D,浙江省绍兴市东街81号,绍兴市,0575-85135269,ZJ-RELIGIOUSGROUP-PEOPLE-82,312000,绍兴市基督教三自爱国运动委员会,
遂昌县基督教三自爱国运动委员会,协会,ZJ-RELIGIOUSVENUE-GOV-62,遂昌县,浙江省,基督教,1988/12/1,ZJ-RELIGIOUSGROUP-GOV-25,EJ7452991,县团体,51331123A99165093P,浙江省丽水市遂昌县妙高街道西街81号,丽水市,18705886330,ZJ-RELIGIOUSGROUP-PEOPLE-226,323300,遂昌县基督教三自爱国运动委员会,
仙居县基督教三自爱国运动委员会,协会,ZJ-RELIGIOUSVENUE-GOV-59,仙居县,浙江省,基督教,1985/3/1,ZJ-RELIGIOUSGROUP-GOV-9,浙仙新证64001,县团体,513000000000000000,浙江省台州市仙居县城关耶稣堂巷15号,台州市,18958579236,ZJ-RELIGIOUSGROUP-PEOPLE-26,317300,仙居县基督教三自爱国运动委员会,
慈溪市基督教三自爱国运动委员会,协会,ZJ-RELIGIOUSVENUE-GOV-60,慈溪市,浙江省,基督教,1994/5/3,ZJ-RELIGIOUSGROUP-GOV-43,330282—084254,县团体,51330282MJ9073627C,浙江省宁波市慈溪市宗汉街道兴园路29号,宁波市,0574-63810839,ZJ-RELIGIOUSGROUP-PEOPLE-287,315300,慈溪市基督教三自爱国运动委员会,
婺城区佛教协会,协会,ZJ-RELIGIOUSVENUE-GOV-86,婺城区,浙江省,佛教,2011/5/27,ZJ-RELIGIOUSGROUP-GOV-36,浙金婺社证字第080089号,县团体,51330702579333348T,浙江省金华市婺城区汤溪镇九峰寺,金华市,0579-82658301,ZJ-RELIGIOUSGROUP-PEOPLE-265,321071,婺城区佛教协会,
江山市天主教爱国会,协会,ZJ-RELIGIOUSVENUE-GOV-95,江山市,浙江省,天主教,1990/1/1,ZJ-RELIGIOUSGROUP-GOV-23,江社证字第4015号,县团体,51330881084271712N,浙江省衢州市江山市环城西路192号,衢州市,13867009536,ZJ-RELIGIOUSGROUP-PEOPLE-36,324100,江山市天主教爱国会,
金东区基督教三自爱国运动委员会,协会,ZJ-RELIGIOUSVENUE-GOV-47,金东区,浙江省,基督教,2001/4/1,ZJ-RELIGIOUSGROUP-GOV-45,浙金东民社证字第210006号,县团体,513000000000000000,浙江省金华市金东区傅村镇,金华市,13757962563,ZJ-RELIGIOUSGROUP-PEOPLE-313,321015,金东区基督教三自爱国运动委员会,
金东区佛教协会,协会,ZJ-RELIGIOUSVENUE-GOV-47,金东区,浙江省,佛教,2002/12/1,ZJ-RELIGIOUSGROUP-GOV-45,浙金东民社证字第210031号,县团体,513000000000000000,浙江省金华市金东区孝顺镇中柔村龙盘寺,金华市,13819983666,ZJ-RELIGIOUSGROUP-PEOPLE-300,321015,金东区佛教协会,
海盐县佛教协会,协会,ZJ-RELIGIOUSVENUE-GOV-80,海盐县,浙江省,佛教,2010/1/7,ZJ-RELIGIOUSGROUP-GOV-12,浙盐社证字210022号,县团体,51330424MJ9388979N,浙江省嘉兴市海盐县武原街道新天地广场内,嘉兴市,0573-86020433,ZJ-RELIGIOUSGROUP-PEOPLE-14,314300,海盐县佛教协会,
杭州市富阳区基督教协会,协会,ZJ-RELIGIOUSVENUE-GOV-49,富阳区,浙江省,基督教,2016/3/23,ZJ-RELIGIOUSGROUP-GOV-88,0119号,县团体,513000000000000000,浙江省杭州市富阳区鹳山路12号,杭州市,0571-63324146,ZJ-RELIGIOUSGROUP-PEOPLE-168,311400,杭州市富阳区基督教协会,
萧山区天主教爱国会,协会,ZJ-RELIGIOUSVENUE-GOV-12,萧山区,浙江省,天主教,2016/11/16,ZJ-RELIGIOUSGROUP-GOV-67,,县团体,51330109502100407K,浙江省杭州市萧山区城厢街道萧然南路387号,杭州市,0571-82228909,ZJ-RELIGIOUSGROUP-PEOPLE-240,311201,萧山区天主教爱国会,
衢江区基督教协会,协会,ZJ-RELIGIOUSVENUE-GOV-61,衢江区,浙江省,基督教,1900/1/1,,,县团体,51330803MJ97267049,浙江省衢州市衢江开发区仙岩路沈家教堂,衢州市,13362019201,ZJ-RELIGIOUSGROUP-PEOPLE-79,324000,衢江区基督教协会,
东阳市道教协会,协会,ZJ-RELIGIOUSVENUE-GOV-70,东阳市,浙江省,道教,2017/9/21,ZJ-RELIGIOUSGROUP-GOV-87,,县团体,51330783MJ9679047F,浙江省东阳市千祥镇三联王门村东900米（东阳市太清观内）,金华市,15905897700,ZJ-RELIGIOUSGROUP-PEOPLE-127,322124,东阳市道教协会,
淳安县基督教协会,协会,ZJ-RELIGIOUSVENUE-GOV-35,淳安县,浙江省,基督教,1999/12/1,ZJ-RELIGIOUSGROUP-GOV-26,社政字第143号,县团体,51330127502090405J,浙江省杭州市淳安县千岛湖镇排岭北路15号,杭州市,0571-65063435,ZJ-RELIGIOUSGROUP-PEOPLE-282,311700,淳安县基督教协会,
浙江省佛教协会,协会,,,,,,,,,,,,,,,浙江省佛教协会,
宁波市海曙区佛教协会,协会,,海曙区,浙江省,佛教,2005/5/18,ZJ-RELIGIOUSGROUP-GOV-97,社证字第255号,县团体,51330203MJ896097XW,浙江省宁波市海曙区新典路528弄18号,宁波市,0574-87139033,ZJ-RELIGIOUSGROUP-PEOPLE-335,315000,宁波市海曙区佛教协会,
余杭区基督教三自爱国运动委员会,协会,ZJ-RELIGIOUSVENUE-GOV-15,余杭区,浙江省,基督教,1999/4/12,ZJ-RELIGIOUSGROUP-GOV-81,312,县团体,513000000000000000,浙江省杭州市余杭区南苑金座新远金座3号楼1412室,杭州市,0571-86224214,ZJ-RELIGIOUSGROUP-PEOPLE-113,311100,余杭区基督教三自爱国运动委员会,
仙居县道教协会,协会,ZJ-RELIGIOUSVENUE-GOV-59,仙居县,浙江省,道教,2015/4/27,ZJ-RELIGIOUSGROUP-GOV-9,浙仙社证字第62102号,县团体,513000000000000000,台州市仙居县下各镇羊棚头村,台州市,15858639077,ZJ-RELIGIOUSGROUP-PEOPLE-180,317321,仙居县道教协会,
湖州市佛教协会,协会,ZJ-RELIGIOUSVENUE-GOV-73,330501,浙江省,佛教,2000/2/1,ZJ-RELIGIOUSGROUP-GOV-47,浙湖社字第150号,市团体,51330500502274976C,浙江省湖州市吴兴区南华路东湖家园2幢3单元105室,湖州市,0572-2032694,ZJ-RELIGIOUSGROUP-PEOPLE-56,313000,湖州市佛教协会,
江山市佛教协会,协会,ZJ-RELIGIOUSVENUE-GOV-95,江山市,浙江省,佛教,2003/12/1,ZJ-RELIGIOUSGROUP-GOV-23,江社证字第4060号,县团体,51330881079703998Y,浙江省衢州市江山市云宾路18号,衢州市,13905701933,ZJ-RELIGIOUSGROUP-PEOPLE-100,324100,江山市佛教协会,
吴兴区道教协会,协会,ZJ-RELIGIOUSVENUE-GOV-32,吴兴区,浙江省,道教,2004/5/1,ZJ-RELIGIOUSGROUP-GOV-16,社证字第0005,县团体,51330502761346196L,浙江省湖州市吴兴区汇豪名都502室,湖州市,0572-2374339,ZJ-RELIGIOUSGROUP-PEOPLE-18,313000,吴兴区道教协会,
玉环市基督教三自爱国运动委员会,协会,ZJ-RELIGIOUSVENUE-GOV-101,玉环市,浙江省,基督教,1987/9/19,ZJ-RELIGIOUSGROUP-GOV-1,玉社证字第92096号,县团体,51331021502666814B,浙江省台州市玉环市玉城街道玉潭路29号,台州市,57680722000,ZJ-RELIGIOUSGROUP-PEOPLE-21,317600,玉环市基督教三自爱国运动委员会,
海宁市基督教协会,协会,ZJ-RELIGIOUSVENUE-GOV-88,海宁市,浙江省,基督教,2000/4/1,ZJ-RELIGIOUSGROUP-GOV-95,浙海社证字第210007号,县团体,51330481A960293015,浙江省嘉兴市海宁市海昌南路119号,嘉兴市,0573-87041214,ZJ-RELIGIOUSGROUP-PEOPLE-350,314400,海宁市基督教协会,
诸暨市佛教协会,协会,ZJ-RELIGIOUSVENUE-GOV-54,诸暨市,浙江省,佛教,1991/12/30,ZJ-RELIGIOUSGROUP-GOV-34,诸30044,县团体,5133068178567299XT,浙江省绍兴市诸暨市浣纱北路54幢101室,绍兴市,0575-88106735,ZJ-RELIGIOUSGROUP-PEOPLE-40,311800,诸暨市佛教协会,
永康市基督教协会,协会,ZJ-RELIGIOUSVENUE-GOV-45,永康市,浙江省,基督教,1987/11/27,ZJ-RELIGIOUSGROUP-GOV-29,永社证字第044号,县团体,51330784A97239503L,浙江省金华市永康市丽州北路275号基督教堂,金华市,0579-87165224,ZJ-RELIGIOUSGROUP-PEOPLE-212,321300,永康市基督教协会,
江东区佛教协会,协会,ZJ-RELIGIOUSVENUE-GOV-142,鄞州区,浙江省,佛教,2005/8/1,ZJ-RELIGIOUSGROUP-GOV-107,社证字第800075,县团体,51330204MJ8970385P,浙江省宁波市江东区百丈路183号,宁波市,0574-87755368,ZJ-RELIGIOUSGROUP-PEOPLE-219,315040,江东区佛教协会,
文成县佛教协会,协会,ZJ-RELIGIOUSVENUE-GOV-56,文成县,浙江省,佛教,2014/12/18,ZJ-RELIGIOUSGROUP-GOV-20,社证字第0528480号,县团体,51330328321694189J,浙江省文成县大峃镇七甲净慧寺,温州市,13868409524,ZJ-RELIGIOUSGROUP-PEOPLE-153,325300,文成县佛教协会,
临安区佛教协会,协会,ZJ-RELIGIOUSVENUE-GOV-50,330185,浙江省,佛教,1997/1/18,ZJ-RELIGIOUSGROUP-GOV-103,社政字第0261号,县团体,51330185785311641G,浙江省杭州市临安区衣锦街太庙山31幢天松楼一楼,杭州市,0571-63721780,ZJ-RELIGIOUSGROUP-PEOPLE-199,311300,临安区佛教协会,
莲都区佛教协会,协会,ZJ-RELIGIOUSVENUE-GOV-100,莲都区,浙江省,佛教,1987/1/1,ZJ-RELIGIOUSGROUP-GOV-83,丽莲社证字第0021号,县团体,51331102087392632R,浙江省丽水市莲都区岩泉街道灵山寺,丽水市,13506825262,ZJ-RELIGIOUSGROUP-PEOPLE-116,323000,莲都区佛教协会,
天台山道教协会,协会,ZJ-RELIGIOUSVENUE-GOV-39,天台县,浙江省,道教,1996/1/31,ZJ-RELIGIOUSGROUP-GOV-79,72077,县团体,51331023062044164U,浙江省台州市天台县赤城街道峧头粮库,台州市,13736630585,ZJ-RELIGIOUSGROUP-PEOPLE-243,317200,天台山道教协会,
龙港市道教协会,协会,ZJ-RELIGIOUSVENUE-GOV-42,龙港市,浙江省,道教,2020/7/7,ZJ-RELIGIOUSGROUP-GOV-84,51330383MJ9134768P,县团体,51330383MJ9134768P,浙江省龙港市利民社区陈宅112号元光道观,温州市,0577-68611808,ZJ-RELIGIOUSGROUP-PEOPLE-330,325802,龙港市道教协会,
天主教杭州教区,协会,ZJ-RELIGIOUSVENUE-GOV-108,330101,浙江省,天主教,1900/1/1,ZJ-RELIGIOUSGROUP-GOV-35,,市团体,51330000501870821L,,杭州市,,ZJ-RELIGIOUSGROUP-PEOPLE-216,,天主教杭州教区,
金华市佛教协会,协会,ZJ-RELIGIOUSVENUE-GOV-112,330701,浙江省,佛教,2003/8/12,ZJ-RELIGIOUSGROUP-GOV-52,浙金市社证字第200285号,市团体,513000000000000000,浙江省金华市婺城区罗店镇智者寺内,金华市,0579-82146103,ZJ-RELIGIOUSGROUP-PEOPLE-293,321000,金华市佛教协会,
江山市基督教三自爱国运动委员会,协会,ZJ-RELIGIOUSVENUE-GOV-95,江山市,浙江省,基督教,1985/1/1,ZJ-RELIGIOUSGROUP-GOV-23,江社证字第4014号,县团体,51330881A98141276F,浙江省衢州市江山市环城西路61号,衢州市,13646700669,ZJ-RELIGIOUSGROUP-PEOPLE-235,324100,江山市基督教三自爱国运动委员会,
鄞州区基督教三自爱国运动委员会,协会,ZJ-RELIGIOUSVENUE-GOV-1,鄞州区,浙江省,基督教,1982/10/6,ZJ-RELIGIOUSGROUP-GOV-55,110049,县团体,51330212MJ90090273,浙江省宁波市鄞州区康泰中路215号南裕二村2幢101-102室,宁波市,0574-88112144,ZJ-RELIGIOUSGROUP-PEOPLE-68,315194,鄞州区基督教三自爱国运动委员会,
金华市天主教爱国会,协会,ZJ-RELIGIOUSVENUE-GOV-112,330701,浙江省,天主教,1999/11/20,ZJ-RELIGIOUSGROUP-GOV-52,浙金市200136,市团体,51330700MJ9568662B,浙江省金华市将军路石狮子头8号,金华市,18957923815,ZJ-RELIGIOUSGROUP-PEOPLE-62,321000,金华市天主教爱国会,
富阳市天主教爱国会,协会,ZJ-RELIGIOUSVENUE-GOV-49,富阳区,浙江省,天主教,1999/1/29,ZJ-RELIGIOUSGROUP-GOV-109,0116号,县团体,51330111583211829N,浙江省杭州市富阳市富春街道东山路30号,杭州市,0571-63371536,ZJ-RELIGIOUSGROUP-PEOPLE-254,311400,富阳市天主教爱国会,
黄岩区道教协会,协会,ZJ-RELIGIOUSVENUE-GOV-31,黄岩区,浙江省,道教,1987/3/24,ZJ-RELIGIOUSGROUP-GOV-39,42049,县团体,5133100350262805XW,浙江省台州市黄岩区西江华庭7幢301室,台州市,0576-84023589,ZJ-RELIGIOUSGROUP-PEOPLE-169,318020,黄岩区道教协会,
仙居县佛教协会,协会,ZJ-RELIGIOUSVENUE-GOV-59,仙居县,浙江省,佛教,1994/3/1,ZJ-RELIGIOUSGROUP-GOV-9,浙仙社证字第62035号,县团体,51331024502643153T,浙江省台州市仙居县城关解放街48号,台州市,0576-87783092,ZJ-RELIGIOUSGROUP-PEOPLE-10,317300,仙居县佛教协会,
嵊泗县佛教协会,协会,ZJ-RELIGIOUSVENUE-GOV-102,嵊泗县,浙江省,佛教,1997/7/1,ZJ-RELIGIOUSGROUP-GOV-82,浙嵊民社证字第030号,县团体,51330922741034507N,浙江省舟山市嵊泗县菜园镇东海路61号三楼,舟山市,0580-5084141,ZJ-RELIGIOUSGROUP-PEOPLE-142,202450,嵊泗县佛教协会,
萧山区道教协会,协会,ZJ-RELIGIOUSVENUE-GOV-12,萧山区,浙江省,道教,2006/7/25,ZJ-RELIGIOUSGROUP-GOV-67,社证字第565号,县团体,513000000000000000,浙江省杭州市萧山区萧然南路387号,杭州市,0571-83715127,ZJ-RELIGIOUSGROUP-PEOPLE-95,311201,萧山区道教协会,
嘉兴市基督教三自爱国运动委员会,协会,ZJ-RELIGIOUSVENUE-GOV-125,330401,浙江省,基督教,1987/8/1,ZJ-RELIGIOUSGROUP-GOV-63,浙嘉社证第210027号,市团体,51330400502205997D,浙江省嘉兴市翠柳路63号,嘉兴市,13819411193,ZJ-RELIGIOUSGROUP-PEOPLE-253,314000,嘉兴市基督教三自爱国运动委员会,
海盐县基督教三自爱国运动委员会,协会,ZJ-RELIGIOUSVENUE-GOV-80,海盐县,浙江省,基督教,1900/1/1,ZJ-RELIGIOUSGROUP-GOV-12,,县团体,51330424MJ938947XF,浙江省嘉兴市海盐县武原街道新天地广场,嘉兴市,,ZJ-RELIGIOUSGROUP-PEOPLE-84,,海盐县基督教三自爱国运动委员会,
玉环市道教协会,协会,ZJ-RELIGIOUSVENUE-GOV-101,玉环市,浙江省,道教,1987/7/17,ZJ-RELIGIOUSGROUP-GOV-1,玉社证字第92032号,县团体,51331021502666689N,浙江省台州市玉环市玉城街道长兴路149号（三楼）,台州市,57687219212,ZJ-RELIGIOUSGROUP-PEOPLE-1,317600,玉环市道教协会,
定海区天主教爱国会,协会,ZJ-RELIGIOUSVENUE-GOV-81,定海区,浙江省,天主教,1989/1/9,ZJ-RELIGIOUSGROUP-GOV-101,浙社证020,县团体,513000000000000000,浙江省舟山市定海区气象台路131号,舟山市,0580-2550247,ZJ-RELIGIOUSGROUP-PEOPLE-298,316000,定海区天主教爱国会,
苍南县佛教协会,协会,ZJ-RELIGIOUSVENUE-GOV-34,苍南县,浙江省,佛教,1985/5/1,ZJ-RELIGIOUSGROUP-GOV-11,浙温苍社证字052号,县团体,5133032750217238XB,浙江省温州市苍南县灵溪镇河滨西路113-16号（祥云禅寺内）,温州市,0577-68709183,ZJ-RELIGIOUSGROUP-PEOPLE-143,325800,苍南县佛教协会,www.wzcnfj.cn
龙泉市天主教爱国会（未登记）,协会,ZJ-RELIGIOUSVENUE-GOV-58,龙泉市,浙江省,天主教,2016/12/30,ZJ-RELIGIOUSGROUP-GOV-62,,县团体,,浙江省丽水市龙泉市中山西路74号,丽水市,13757832666,ZJ-RELIGIOUSGROUP-PEOPLE-323,323700,龙泉市天主教爱国会（未登记）,
岱山县天主教爱国会,协会,ZJ-RELIGIOUSVENUE-GOV-29,岱山县,浙江省,天主教,2000/7/1,ZJ-RELIGIOUSGROUP-GOV-60,浙岱社证字第78号,县团体,51330921502509851W,浙江省舟山市岱山县高亭镇文明路176号,舟山市,18768004455,ZJ-RELIGIOUSGROUP-PEOPLE-136,316200,岱山县天主教爱国会,
永嘉县基督教协会,协会,ZJ-RELIGIOUSVENUE-GOV-16,永嘉县,浙江省,基督教,1986/8/1,ZJ-RELIGIOUSGROUP-GOV-59,永社证字第（A）08号,县团体,51330324502153154U,浙江省温州市永嘉县上塘镇码道中街投招标幢202室,温州市,0577-67229307,ZJ-RELIGIOUSGROUP-PEOPLE-271,325100,永嘉县基督教协会,
绍兴市越城区基督教三自爱国运动委员会,协会,ZJ-RELIGIOUSVENUE-GOV-52,越城区,浙江省,基督教,2019/12/18,ZJ-RELIGIOUSGROUP-GOV-49,51330602MJ9499273C,县团体,51330602MJ9499273C,绍兴市越城区东浦街道环北路3-1东浦基督教堂302室,绍兴市,13858444462,ZJ-RELIGIOUSGROUP-PEOPLE-341,312000,绍兴市越城区基督教三自爱国运动委员会,
东钱湖旅游度假区基督教三自爱国运动委员会,协会,ZJ-RELIGIOUSVENUE-GOV-154,330256,浙江省,基督教,2007/10/1,ZJ-RELIGIOUSGROUP-GOV-113,甬东旅经发（2007）54号,县团体,51330200MJ89479949,浙江省宁波市东钱湖度假区东钱湖镇莫枝教堂,宁波市,13081992105,ZJ-RELIGIOUSGROUP-PEOPLE-348,315121,东钱湖旅游度假区基督教三自爱国运动委员会,
天台县基督教三自爱国运动委员会,协会,ZJ-RELIGIOUSVENUE-GOV-39,天台县,浙江省,基督教,1980/1/1,ZJ-RELIGIOUSGROUP-GOV-79,720708,县团体,51331023064186502J,浙江省台州市天台县四方塘路2号,台州市,13586224183/13566695560,ZJ-RELIGIOUSGROUP-PEOPLE-285,317200,天台县基督教三自爱国运动委员会,
青田县基督教三自爱国运动委员会,协会,ZJ-RELIGIOUSVENUE-GOV-67,青田县,浙江省,基督教,2002/3/1,ZJ-RELIGIOUSGROUP-GOV-71,浙青社证字第2002002号,县团体,51331121MJ99285844,浙江省丽水市青田县鹤城镇后街63号,丽水市,0578-6821311,ZJ-RELIGIOUSGROUP-PEOPLE-268,323900,青田县基督教三自爱国运动委员会,
苍南县基督教三自爱国运动委员会,协会,ZJ-RELIGIOUSVENUE-GOV-34,苍南县,浙江省,基督教,1985/11/1,ZJ-RELIGIOUSGROUP-GOV-11,浙温苍社证字055号,县团体,51330327A95384731F,浙江省温州市苍南县灵溪镇塘北路永生堂,温州市,13706871019,ZJ-RELIGIOUSGROUP-PEOPLE-310,325800,苍南县基督教三自爱国运动委员会,
桐庐县基督教三自爱国运动委员会,协会,ZJ-RELIGIOUSVENUE-GOV-77,桐庐县,浙江省,基督教,1999/1/1,ZJ-RELIGIOUSGROUP-GOV-13,浙桐社登字第0150号,县团体,5133012267396690XC,浙江省杭州市桐庐县城南街道大奇山路397号,杭州市,0571-64212150,ZJ-RELIGIOUSGROUP-PEOPLE-15,311501,桐庐县基督教三自爱国运动委员会,
桐庐县天主教爱国会,协会,ZJ-RELIGIOUSVENUE-GOV-77,桐庐县,浙江省,天主教,1999/1/1,ZJ-RELIGIOUSGROUP-GOV-13,浙桐社登字第0248号,县团体,51330122694596039M,浙江省杭州市桐庐县桐君街道洋塘新村3幢401室,杭州市,15968133868,ZJ-RELIGIOUSGROUP-PEOPLE-316,311500,桐庐县天主教爱国会,
柯城区基督教协会（未登记）,协会,ZJ-RELIGIOUSVENUE-GOV-75,柯城区,浙江省,基督教,2016/12/30,ZJ-RELIGIOUSGROUP-GOV-2,,县团体,,浙江省衢州市柯城区新河沿171-179号二楼,衢州市,0570-8633267,ZJ-RELIGIOUSGROUP-PEOPLE-267,324000,柯城区基督教协会（未登记）,
天台县基督教协会,协会,ZJ-RELIGIOUSVENUE-GOV-39,天台县,浙江省,基督教,1987/1/1,ZJ-RELIGIOUSGROUP-GOV-79,72078,县团体,51331023064186502J,浙江省台州市天台县赤城街道四方塘路2号,台州市,13586224183/13566695560,ZJ-RELIGIOUSGROUP-PEOPLE-108,317200,天台县基督教协会,
洞头区基督教三自爱国运动委员会,协会,ZJ-RELIGIOUSVENUE-GOV-36,洞头区,浙江省,基督教,2000/7/4,ZJ-RELIGIOUSGROUP-GOV-10,浙洞民社证字第68号,县团体,51330305502137584J,浙江省温州市洞头区北岙街道三盘大岙村基督教两会办公楼,温州市,0577-63438593,ZJ-RELIGIOUSGROUP-PEOPLE-259,325700,洞头区基督教三自爱国运动委员会,
金东区基督教协会,协会,ZJ-RELIGIOUSVENUE-GOV-47,金东区,浙江省,基督教,2001/4/1,ZJ-RELIGIOUSGROUP-GOV-45,浙金东民社证字第210007号,县团体,51330703MJ96022186,浙江省金华市金东区孝顺镇,金华市,13750985830,ZJ-RELIGIOUSGROUP-PEOPLE-149,321015,金东区基督教协会,
路桥区基督教三自爱国运动委员会,协会,ZJ-RELIGIOUSVENUE-GOV-20,路桥区,浙江省,基督教,1995/7/1,ZJ-RELIGIOUSGROUP-GOV-31,4024,县团体,51331004502632753Y,浙江省台州市路桥区商城街625号,台州市,0576-82448213,ZJ-RELIGIOUSGROUP-PEOPLE-37,318050,路桥区基督教三自爱国运动委员会,
普陀区基督教协会,协会,ZJ-RELIGIOUSVENUE-GOV-92,普陀区,浙江省,基督教,1988/9/29,ZJ-RELIGIOUSGROUP-GOV-41,舟普民社证字第168号,县团体,51330903A98492017W,浙江省舟山市普陀区沈家门北安路88号,舟山市,0580-3051041,ZJ-RELIGIOUSGROUP-PEOPLE-165,316100,普陀区基督教协会,
兰溪市基督教协会,协会,ZJ-RELIGIOUSVENUE-GOV-14,兰溪市,浙江省,基督教,1987/1/1,ZJ-RELIGIOUSGROUP-GOV-64,兰民证字第070号,县团体,513000000000000000,浙江省金华市兰溪市兰溪基督教会,金华市,0579-83080568,ZJ-RELIGIOUSGROUP-PEOPLE-317,321100,兰溪市基督教协会,
绍兴市天主教爱国会,协会,ZJ-RELIGIOUSVENUE-GOV-41,330601,浙江省,天主教,2003/6/30,ZJ-RELIGIOUSGROUP-GOV-66,社证字第628号,市团体,513000000000000000,浙江省绍兴市越城区蕺山街道八字桥直街24号,绍兴市,0575-88656236,ZJ-RELIGIOUSGROUP-PEOPLE-334,312000,绍兴市天主教爱国会,
浙江省天主教教务委员会,协会,ZJ-RELIGIOUSVENUE-GOV-171,拱墅区,浙江省,天主教,2013/6/30,ZJ-RELIGIOUSGROUP-GOV-35,浙社证字第22009号,省团体,513000000000000000,浙江省杭州市中山北路415号,杭州市,0571-85151587,ZJ-RELIGIOUSGROUP-PEOPLE-331,310003,浙江省天主教教务委员会,http://www.cczj.org/
海曙区基督教三自爱国会,协会,,海曙区,浙江省,基督教,2018/3/21,ZJ-RELIGIOUSGROUP-GOV-97,浙甬海社证字第110348号,县团体,51330203MJ8961235X,浙江省宁波市长春路122号,宁波市,0574-88081614,ZJ-RELIGIOUSGROUP-PEOPLE-167,315000,海曙区基督教三自爱国会,
洞头区道教协会,协会,ZJ-RELIGIOUSVENUE-GOV-36,洞头区,浙江省,道教,1995/5/13,ZJ-RELIGIOUSGROUP-GOV-10,浙洞民社证字第056号,县团体,51330305A95193126B,浙江省温州市洞头区东屏街道东龙路24号,温州市,15057390991,ZJ-RELIGIOUSGROUP-PEOPLE-11,325700,洞头区道教协会,
滨江区基督教协会,协会,ZJ-RELIGIOUSVENUE-GOV-160,滨江区,浙江省,基督教,2007/11/8,ZJ-RELIGIOUSGROUP-GOV-3,2007--032,县团体,51330108668037292P,浙江省杭州市滨江区西兴街道西兴教堂内,杭州市,13588766202,ZJ-RELIGIOUSGROUP-PEOPLE-28,310051,滨江区基督教协会,
鹿城区基督教协会,协会,ZJ-RELIGIOUSVENUE-GOV-21,鹿城区,浙江省,基督教,2003/12/1,ZJ-RELIGIOUSGROUP-GOV-100,5.13E+17,县团体,513000000000000000,浙江省温州市江滨西路丽都大厦306室,温州市,0577-88988311,ZJ-RELIGIOUSGROUP-PEOPLE-343,325000,鹿城区基督教协会,
天主教温州教区,协会,ZJ-RELIGIOUSVENUE-GOV-40,330301,浙江省,天主教,2018/2/13,ZJ-RELIGIOUSGROUP-GOV-35,宗场证字（浙）T030000001,市团体,51330000MJ87014767,温州市周宅祠巷38号天主教堂,温州市,13736337870,ZJ-RELIGIOUSGROUP-PEOPLE-223,325000,天主教温州教区,http://www.tzjwzjq.com/
路桥区基督教协会,协会,ZJ-RELIGIOUSVENUE-GOV-20,路桥区,浙江省,基督教,1995/7/17,ZJ-RELIGIOUSGROUP-GOV-31,4025,县团体,513000000000000000,浙江省台州市路桥商城街625号,台州市,0576-82448213,ZJ-RELIGIOUSGROUP-PEOPLE-251,318050,路桥区基督教协会,
余姚市佛教协会,协会,ZJ-RELIGIOUSVENUE-GOV-22,余姚市,浙江省,佛教,1999/9/1,ZJ-RELIGIOUSGROUP-GOV-27,浙余社证字第48026号,县团体,51330281MJ9055568E,浙江省宁波市余姚市阳明街道龙泉寺内,宁波市,0574-62641959,ZJ-RELIGIOUSGROUP-PEOPLE-67,315400,余姚市佛教协会,
杭州市道教协会,协会,ZJ-RELIGIOUSVENUE-GOV-108,330101,浙江省,道教,1985/4/1,ZJ-RELIGIOUSGROUP-GOV-15,社证字0075,市团体,51330100501892203R,浙江省杭州市西湖区葛岭抱朴道院,杭州市,0571-87981201,ZJ-RELIGIOUSGROUP-PEOPLE-78,310007,杭州市道教协会,
衢州市基督教协会,协会,ZJ-RELIGIOUSVENUE-GOV-11,330801,浙江省,基督教,1993/1/1,ZJ-RELIGIOUSGROUP-GOV-70,浙社证字第4012号,市团体,513000000000000000,浙江省衢州市宁绍巷14号宗教有礼园,衢州市,13646700669,ZJ-RELIGIOUSGROUP-PEOPLE-93,324000,衢州市基督教协会,
北仑区佛教协会,协会,ZJ-RELIGIOUSVENUE-GOV-63,北仑区,浙江省,佛教,2000/12/1,ZJ-RELIGIOUSGROUP-GOV-51,浙甬仑社证字第058号,县团体,51330206MJ8985536R,浙江省宁波市北仑区新碶中河路28号,宁波市,0574-86139599,ZJ-RELIGIOUSGROUP-PEOPLE-319,315800,北仑区佛教协会,
黄岩区基督教协会,协会,ZJ-RELIGIOUSVENUE-GOV-31,黄岩区,浙江省,基督教,1987/6/23,ZJ-RELIGIOUSGROUP-GOV-39,42048,县团体,51331003502628068W,浙江省台州市黄岩区西城迎春小区教堂大院内,台州市,0576-84238847,ZJ-RELIGIOUSGROUP-PEOPLE-135,318020,黄岩区基督教协会,
浙江省伊斯兰教协会,协会,ZJ-RELIGIOUSVENUE-GOV-171,上城区,浙江省,伊斯兰教,2011/10/27,ZJ-RELIGIOUSGROUP-GOV-35,浙社证字第22347号,省团体,513000000000000000,杭州市劳动路涌金饭店3号楼,杭州市,0571-28816688,ZJ-RELIGIOUSGROUP-PEOPLE-152,310009,浙江省伊斯兰教协会,www.zjislam.org
德清县佛教协会,协会,ZJ-RELIGIOUSVENUE-GOV-18,德清县,浙江省,佛教,1991/6/20,ZJ-RELIGIOUSGROUP-GOV-77,24,县团体,51330521307624440K,浙江省湖州市德清县武康镇千秋村正道禅寺内,湖州市,18057280309,ZJ-RELIGIOUSGROUP-PEOPLE-349,313200,德清县佛教协会,
镇海区基督教三自爱国运动委员会,协会,ZJ-RELIGIOUSVENUE-GOV-74,镇海区,浙江省,基督教,1991/9/4,ZJ-RELIGIOUSGROUP-GOV-65,镇社证字第55号,县团体,51330211MJ8997932H,浙江省宁波市镇海区招宝山街道中山路8号,宁波市,0574-86273360,ZJ-RELIGIOUSGROUP-PEOPLE-80,315200,镇海区基督教三自爱国运动委员会,
杭州市富阳区基督教三自爱国运动委员会,协会,ZJ-RELIGIOUSVENUE-GOV-49,富阳区,浙江省,基督教,2016/3/23,ZJ-RELIGIOUSGROUP-GOV-88,0117号,县团体,513000000000000000,杭州富阳区富春街道鹳山路12,杭州市,13456719197,ZJ-RELIGIOUSGROUP-PEOPLE-129,311400,杭州市富阳区基督教三自爱国运动委员会,
温州市基督教三自爱国运动委员会,协会,ZJ-RELIGIOUSVENUE-GOV-40,330301,浙江省,基督教,1991/8/1,ZJ-RELIGIOUSGROUP-GOV-6,温社证字第153号,市团体,513000000000000000,浙江省温州市沧河巷116号,温州市,0577-88293463,ZJ-RELIGIOUSGROUP-PEOPLE-294,325000,温州市基督教三自爱国运动委员会,
秀洲区基督教三自爱国运动委员会,协会,ZJ-RELIGIOUSVENUE-GOV-96,秀洲区,浙江省,基督教,1991/7/31,ZJ-RELIGIOUSGROUP-GOV-46,秀洲社证字第410027号,县团体,51330411076205424W,浙江省嘉兴市秀洲区洪合镇民和路小木桥61号,嘉兴市,13732586327,ZJ-RELIGIOUSGROUP-PEOPLE-54,314023,秀洲区基督教三自爱国运动委员会,
洞头区基督教协会,协会,ZJ-RELIGIOUSVENUE-GOV-36,洞头区,浙江省,基督教,2002/10/21,ZJ-RELIGIOUSGROUP-GOV-10,浙洞民社证字第74号,县团体,51330305502137592D,浙江省温州市洞头区北岙街道三盘大岙村基督教两会办公楼,温州市,0577-63438693,ZJ-RELIGIOUSGROUP-PEOPLE-175,325700,洞头区基督教协会,
遂昌县佛教协会,协会,ZJ-RELIGIOUSVENUE-GOV-62,遂昌县,浙江省,佛教,2018/11/6,ZJ-RELIGIOUSGROUP-GOV-25,,县团体,51331123MJ9949967M,遂昌县千佛山未来寺,丽水市,13867080106,ZJ-RELIGIOUSGROUP-PEOPLE-30,323300,遂昌县佛教协会,
余杭区天主教爱国会,协会,ZJ-RELIGIOUSVENUE-GOV-15,余杭区,浙江省,天主教,2000/1/1,ZJ-RELIGIOUSGROUP-GOV-81,403,县团体,51330110MJ88568309,浙江省杭州市余杭区临平东湖南路125号,杭州市,0571-86227447,ZJ-RELIGIOUSGROUP-PEOPLE-312,311100,余杭区天主教爱国会,
衢州市天主教爱国会,协会,ZJ-RELIGIOUSVENUE-GOV-11,330801,浙江省,天主教,1999/12/1,ZJ-RELIGIOUSGROUP-GOV-70,浙社政字第4020号,市团体,51330800749842592Y,浙江省衢州市宁绍巷14号宗教有礼园,衢州市,13615709839,ZJ-RELIGIOUSGROUP-PEOPLE-351,324000,衢州市天主教爱国会,
西湖区佛教协会,协会,ZJ-RELIGIOUSVENUE-GOV-71,西湖区,浙江省,佛教,2012/11/12,ZJ-RELIGIOUSGROUP-GOV-24,浙杭西社证字第0251,县团体,51330106056706344J,浙江省杭州市西湖区西溪路杨家牌楼永兴寺内,杭州市,0571-85227922,ZJ-RELIGIOUSGROUP-PEOPLE-29,310023,西湖区佛教协会,
金华市道教协会,协会,ZJ-RELIGIOUSVENUE-GOV-112,330701,浙江省,道教,2005/12/10,ZJ-RELIGIOUSGROUP-GOV-52,浙金市社证字第200243号,市团体,51330700782948823H,浙江省金华市旌孝街65号三清宫,金华市,0579-82301104,ZJ-RELIGIOUSGROUP-PEOPLE-236,321000,金华市道教协会,
岱山县基督教协会,协会,ZJ-RELIGIOUSVENUE-GOV-29,岱山县,浙江省,基督教,2000/8/1,ZJ-RELIGIOUSGROUP-GOV-60,浙岱社证字第80号,县团体,51330921502509878L,浙江省舟山市岱山县衢山镇岛斗村林场岗墩,舟山市,18967238901,ZJ-RELIGIOUSGROUP-PEOPLE-73,316200,岱山县基督教协会,
遂昌县基督教协会,协会,ZJ-RELIGIOUSVENUE-GOV-62,遂昌县,浙江省,基督教,2019/6/3,ZJ-RELIGIOUSGROUP-GOV-25,,县团体,51331123MJ9950052Q,浙江省丽水市遂昌县妙高街道西街81号,丽水市,13185786081,ZJ-RELIGIOUSGROUP-PEOPLE-272,323300,遂昌县基督教协会,
临海市天主教爱国会,协会,ZJ-RELIGIOUSVENUE-GOV-48,临海市,浙江省,天主教,1983/10/29,ZJ-RELIGIOUSGROUP-GOV-5,浙临民社证字第020021,县团体,51331082502620752L,浙江省台州市临海市古城街道赵巷49号,台州市,0576-85224964,ZJ-RELIGIOUSGROUP-PEOPLE-173,317000,临海市天主教爱国会,
丽水市基督教三自爱国运动委员会,协会,ZJ-RELIGIOUSVENUE-GOV-188,331101,浙江省,基督教,2009/12/29,ZJ-RELIGIOUSGROUP-GOV-37,丽市社证字第234号,市团体,51331100670276209A,浙江省丽水市丽阳街581-3号,丽水市,18957088069,ZJ-RELIGIOUSGROUP-PEOPLE-103,323000,丽水市基督教三自爱国运动委员会,
缙云县基督教三自爱国运动委员会,协会,ZJ-RELIGIOUSVENUE-GOV-27,缙云县,浙江省,基督教,1998/3/12,ZJ-RELIGIOUSGROUP-GOV-54,浙缙社证字第32号,县团体,51331122323002019R,浙江省丽水市缙云县基督教五云教堂,丽水市,18957070206,ZJ-RELIGIOUSGROUP-PEOPLE-360,321400,缙云县基督教三自爱国运动委员会,
椒江区基督教协会,协会,ZJ-RELIGIOUSVENUE-GOV-7,椒江区,浙江省,基督教,1986/12/1,ZJ-RELIGIOUSGROUP-GOV-14,台椒民社证字第82016号,县团体,51331002502613659N,浙江省台州市椒江区云西路18号,台州市,0576-88226072,ZJ-RELIGIOUSGROUP-PEOPLE-257,318000,椒江区基督教协会,
平湖市天主教爱国会,协会,ZJ-RELIGIOUSVENUE-GOV-83,平湖市,浙江省,天主教,1993/3/8,ZJ-RELIGIOUSGROUP-GOV-21,平社字091号,县团体,513000000000000000,浙江省嘉兴市平湖市钟埭街道兴平路37号,嘉兴市,0573-85090024,ZJ-RELIGIOUSGROUP-PEOPLE-24,314200,平湖市天主教爱国会,
慈溪市佛教协会,协会,ZJ-RELIGIOUSVENUE-GOV-60,慈溪市,浙江省,佛教,1985/3/31,ZJ-RELIGIOUSGROUP-GOV-43,浙慈社证字第027号,县团体,51330282MJ9073600L,浙江省宁波市慈溪市观海卫镇石湫头下院路23号,宁波市,0574-63678438,ZJ-RELIGIOUSGROUP-PEOPLE-51,315316,慈溪市佛教协会,
上虞区基督教协会,协会,ZJ-RELIGIOUSVENUE-GOV-89,330682,浙江省,基督教,2008/6/30,ZJ-RELIGIOUSGROUP-GOV-33,5023-2509,县团体,51330604502325104K,浙江省绍兴市上虞区百官街道人民东路315号,绍兴市,0575-82187018,ZJ-RELIGIOUSGROUP-PEOPLE-55,312300,上虞区基督教协会,
温岭市佛教协会,协会,ZJ-RELIGIOUSVENUE-GOV-17,温岭市,浙江省,佛教,1991/7/22,ZJ-RELIGIOUSGROUP-GOV-48,社证字第52015号,县团体,513000000000000000,浙江省台州市温岭市太平街道方城路58号（老市政府四幢）,台州市,0576-86028238,ZJ-RELIGIOUSGROUP-PEOPLE-57,317500,温岭市佛教协会,
景宁畲族自治县基督教协会,协会,ZJ-RELIGIOUSVENUE-GOV-84,景宁畲族自治县,浙江省,基督教,1987/12/1,ZJ-RELIGIOUSGROUP-GOV-110,景社证字第027号,县团体,51331127MJ9970387M,浙江省丽水市景宁畲族自治县鹤溪街道桥底弄8呈,丽水市,13757827424,ZJ-RELIGIOUSGROUP-PEOPLE-261,323500,景宁畲族自治县基督教协会,
新昌县佛教协会,协会,ZJ-RELIGIOUSVENUE-GOV-69,新昌县,浙江省,佛教,2005/9/21,ZJ-RELIGIOUSGROUP-GOV-96,浙新社证字1280号,县团体,513000000000000000,浙江省绍兴市新昌县大佛寺内,绍兴市,0575-86224988,ZJ-RELIGIOUSGROUP-PEOPLE-160,312500,新昌县佛教协会,
黄岩区佛教协会,协会,ZJ-RELIGIOUSVENUE-GOV-31,黄岩区,浙江省,佛教,1985/12/24,ZJ-RELIGIOUSGROUP-GOV-39,42050,县团体,513000000000000000,浙江省台州市黄岩区方山路63弄10号,台州市,0576-81643081,ZJ-RELIGIOUSGROUP-PEOPLE-299,318000,黄岩区佛教协会,
东阳市佛教协会,协会,ZJ-RELIGIOUSVENUE-GOV-70,东阳市,浙江省,佛教,1991/11/1,ZJ-RELIGIOUSGROUP-GOV-99,浙东社证第56号,县团体,51330783502417914X,浙江省金华市东阳市吴宁街道南寺塔,金华市,0579-86889031,ZJ-RELIGIOUSGROUP-PEOPLE-178,322100,东阳市佛教协会,
奉化区基督教协会,协会,ZJ-RELIGIOUSVENUE-GOV-43,330283,浙江省,基督教,1991/7/27,ZJ-RELIGIOUSGROUP-GOV-74,社证字第200013号,县团体,51330283MJ91038816,浙江省宁波市奉化区城基路13号五楼,宁波市,15258202970,ZJ-RELIGIOUSGROUP-PEOPLE-304,315500,奉化区基督教协会,
南湖区基督教三自爱国运动委员会,协会,ZJ-RELIGIOUSVENUE-GOV-85,南湖区,浙江省,基督教,2013/9/27,ZJ-RELIGIOUSGROUP-GOV-106,浙嘉南民社证字第410067号,县团体,513000000000000000,浙江省嘉兴市南湖区凤桥镇网舍里1号,嘉兴市,0573-83188884,ZJ-RELIGIOUSGROUP-PEOPLE-211,314007,南湖区基督教三自爱国运动委员会,
婺城区天主教爱国会,协会,ZJ-RELIGIOUSVENUE-GOV-86,婺城区,浙江省,天主教,2000/9/26,ZJ-RELIGIOUSGROUP-GOV-36,浙金婺社证字第080015号,县团体,51330702MJ95913365,浙江省金华市将军路石狮子头8号,金华市,18957923815,ZJ-RELIGIOUSGROUP-PEOPLE-42,321000,婺城区天主教爱国会,
普陀区天主教爱国会,协会,ZJ-RELIGIOUSVENUE-GOV-92,普陀区,浙江省,天主教,1991/1/15,ZJ-RELIGIOUSGROUP-GOV-41,舟普民社字第160号,县团体,51330903502502422H,浙江省舟山市普陀区沈家门街道龙眼路35号,舟山市,0580-3012789,ZJ-RELIGIOUSGROUP-PEOPLE-225,316100,普陀区天主教爱国会,
南浔区道教协会,协会,ZJ-RELIGIOUSVENUE-GOV-55,南浔区,浙江省,道教,2004/8/1,ZJ-RELIGIOUSGROUP-GOV-42,湖浔社证字第009号,县团体,51330503763925319L,浙江省湖州市南浔区双林镇塘北路,湖州市,0572-3979742,ZJ-RELIGIOUSGROUP-PEOPLE-50,313012,南浔区道教协会,
绍兴市道教协会,协会,ZJ-RELIGIOUSVENUE-GOV-41,330601,浙江省,道教,2016/11/30,ZJ-RELIGIOUSGROUP-GOV-66,,市团体,51330600MJ9480759K,浙江省绍兴市越城区二环东路1288号,绍兴市,,ZJ-RELIGIOUSGROUP-PEOPLE-227,312000,绍兴市道教协会,
上虞区基督教三自爱国运动委员会,协会,ZJ-RELIGIOUSVENUE-GOV-89,上虞区,浙江省,基督教,2008/6/30,ZJ-RELIGIOUSGROUP-GOV-111,5023-2509,县团体,51330604502325091X,浙江省绍兴市上虞区百官街道人民东路315号,绍兴市,0575-82187018,ZJ-RELIGIOUSGROUP-PEOPLE-307,312300,上虞区基督教三自爱国运动委员会,
舟山市佛教协会,协会,ZJ-RELIGIOUSVENUE-GOV-76,330901,浙江省,佛教,2002/8/5,ZJ-RELIGIOUSGROUP-GOV-75,浙舟（市）社证字第0190号,市团体,513000000000000000,浙江省舟山市定海区石柱弄30号,舟山市,0580-2032276,ZJ-RELIGIOUSGROUP-PEOPLE-156,316004,舟山市佛教协会,
椒江区基督教三自爱国运动委员会,协会,ZJ-RELIGIOUSVENUE-GOV-7,椒江区,浙江省,基督教,1982/12/1,ZJ-RELIGIOUSGROUP-GOV-14,台椒民社证字第82017号,县团体,51331002502613667H,浙江省台州市椒江区云西路18号,台州市,0576-88226072,ZJ-RELIGIOUSGROUP-PEOPLE-311,318000,椒江区基督教三自爱国运动委员会,
东阳市基督教三自爱国运动委员会,协会,ZJ-RELIGIOUSVENUE-GOV-70,东阳市,浙江省,基督教,1982/1/1,ZJ-RELIGIOUSGROUP-GOV-99,330783-026820,县团体,51330783502417893D,浙江省金华市东阳市吴宁街道东街95号,金华市,0579-86629497,ZJ-RELIGIOUSGROUP-PEOPLE-234,322100,东阳市基督教三自爱国运动委员会,
平湖市佛教协会,协会,ZJ-RELIGIOUSVENUE-GOV-83,平湖市,浙江省,佛教,2004/11/24,ZJ-RELIGIOUSGROUP-GOV-21,浙社证字第119号,县团体,51330482502233859B,浙江省嘉兴市平湖市当湖街道宝塔路宝塔圩,嘉兴市,0573-85110189,ZJ-RELIGIOUSGROUP-PEOPLE-326,314200,平湖市佛教协会,
金东区佛教居士林（已注销）,协会,ZJ-RELIGIOUSVENUE-GOV-47,婺城区,浙江省,佛教,1998/10/1,ZJ-RELIGIOUSGROUP-GOV-45,浙金东民社证字第210095号,县团体,,浙江省金华市三嘴头98号,金华市,0579-82470372,ZJ-RELIGIOUSGROUP-PEOPLE-65,321000,金东区佛教居士林（已注销）,www.jhjsl.org
永康市佛教协会,协会,ZJ-RELIGIOUSVENUE-GOV-45,永康市,浙江省,佛教,1984/7/2,ZJ-RELIGIOUSGROUP-GOV-29,永社证字第047号,县团体,51330784A972350782,浙江省金华市永康市江南街道山后卢村白云风景区南都禅寺,金华市,0579-89292828,ZJ-RELIGIOUSGROUP-PEOPLE-34,321300,永康市佛教协会,
柯桥区佛教协会,协会,ZJ-RELIGIOUSVENUE-GOV-105,330621,浙江省,佛教,2000/5/30,ZJ-RELIGIOUSGROUP-GOV-69,绍县社证字第410号,县团体,51330603502317171R,浙江省绍兴市柯桥区安昌镇环镇南路58号,绍兴市,0575-84128455,ZJ-RELIGIOUSGROUP-PEOPLE-182,312080,柯桥区佛教协会,
义乌市佛教协会,协会,ZJ-RELIGIOUSVENUE-GOV-37,义乌市,浙江省,佛教,1993/6/30,ZJ-RELIGIOUSGROUP-GOV-38,义证字101号,县团体,51330782502410560Y,浙江省义乌市佛堂镇双林禅寺欢喜地,金华市,13735373999,ZJ-RELIGIOUSGROUP-PEOPLE-248,322000,义乌市佛教协会,
宁波市基督教三自爱国运动委员会,协会,ZJ-RELIGIOUSVENUE-GOV-3,330201,浙江省,基督教,1991/6/1,ZJ-RELIGIOUSGROUP-GOV-92,社证字第110170,市团体,51330200MJ89365314,浙江省宁波市槐树路121号,宁波市,0574-87468769,ZJ-RELIGIOUSGROUP-PEOPLE-346,315020,宁波市基督教三自爱国运动委员会,
嘉兴市天主教爱国会,协会,ZJ-RELIGIOUSVENUE-GOV-125,330401,浙江省,天主教,1988/1/1,ZJ-RELIGIOUSGROUP-GOV-63,210045,市团体,513000000000000000,浙江省嘉兴市紫阳街55号,嘉兴市,13957309081,ZJ-RELIGIOUSGROUP-PEOPLE-76,314000,嘉兴市天主教爱国会,
云和县基督教协会,协会,ZJ-RELIGIOUSVENUE-GOV-28,云和县,浙江省,基督教,1998/1/1,ZJ-RELIGIOUSGROUP-GOV-61,云民社证字第2001002,县团体,5133112573199757XR,浙江省丽水市云和县新民路85号,丽水市,13754261620,ZJ-RELIGIOUSGROUP-PEOPLE-74,323600,云和县基督教协会,
温州市佛教协会,协会,,,,,,,,,,,,,,,温州市佛教协会,
安吉县佛教协会,协会,ZJ-RELIGIOUSVENUE-GOV-57,安吉县,浙江省,佛教,1996/6/1,ZJ-RELIGIOUSGROUP-GOV-76,安社证字第2006003号,县团体,513000000000000000,浙江省湖州市安吉县递铺镇开发区灵峰社区,湖州市,0572-5338656,ZJ-RELIGIOUSGROUP-PEOPLE-102,313300,安吉县佛教协会,
海宁市天主教爱国会,协会,ZJ-RELIGIOUSVENUE-GOV-88,海宁市,浙江省,天主教,2000/4/1,ZJ-RELIGIOUSGROUP-GOV-95,浙海社证字第210029号,县团体,51330481MJ9395933K,浙江省嘉兴市海宁市硖石街道东山北路38号,嘉兴市,0573-87026515,ZJ-RELIGIOUSGROUP-PEOPLE-238,314400,海宁市天主教爱国会,
宁波雪窦山佛教协会,协会,ZJ-RELIGIOUSVENUE-GOV-43,奉化区,浙江省,佛教,1900/1/1,ZJ-RELIGIOUSGROUP-GOV-105,,县团体,51330283MJ91044462,宁波市奉化区溪口镇雪窦寺,宁波市,,ZJ-RELIGIOUSGROUP-PEOPLE-210,,宁波雪窦山佛教协会,
舟山市天主教爱国会,协会,ZJ-RELIGIOUSVENUE-GOV-76,330901,浙江省,天主教,1995/9/1,ZJ-RELIGIOUSGROUP-GOV-75,浙社证229,市团体,513000000000000000,浙江省舟山市气象台路131号,舟山市,0580-2550247,ZJ-RELIGIOUSGROUP-PEOPLE-101,316000,舟山市天主教爱国会,
常山县天主教爱国会,协会,ZJ-RELIGIOUSVENUE-GOV-26,常山县,浙江省,天主教,2000/1/1,ZJ-RELIGIOUSGROUP-GOV-17,浙衢常社证字第4006号,县团体,51330822MJ9730906P,浙江省衢州市常山县天马街道天马路285号,衢州市,18957005756,ZJ-RELIGIOUSGROUP-PEOPLE-19,324200,常山县天主教爱国会,
平湖市基督教协会,协会,ZJ-RELIGIOUSVENUE-GOV-83,平湖市,浙江省,基督教,2004/1/19,ZJ-RELIGIOUSGROUP-GOV-21,平社证字第（112）号,县团体,51330482502233779P,浙江省嘉兴市平湖市当湖街道松枫港路,嘉兴市,0573-85019702,ZJ-RELIGIOUSGROUP-PEOPLE-352,314200,平湖市基督教协会,
云和县基督教三自爱国运动委员会,协会,ZJ-RELIGIOUSVENUE-GOV-28,云和县,浙江省,基督教,1998/1/1,ZJ-RELIGIOUSGROUP-GOV-61,云民社证字第2001002,县团体,,浙江省丽水市云和县城西路507,丽水市,15967283067,ZJ-RELIGIOUSGROUP-PEOPLE-96,323600,云和县基督教三自爱国运动委员会,
平阳县基督教三自爱国运动委员会,协会,ZJ-RELIGIOUSVENUE-GOV-25,平阳县,浙江省,基督教,1982/7/1,ZJ-RELIGIOUSGROUP-GOV-7,平民社证字第33032603080号,县团体,513000000000000000,浙江省温州市平阳县鳌江镇园林路248号,温州市,13506774981,ZJ-RELIGIOUSGROUP-PEOPLE-303,325401,平阳县基督教三自爱国运动委员会,
滨江区基督教三自爱国运动委员会,协会,ZJ-RELIGIOUSVENUE-GOV-160,滨江区,浙江省,基督教,2021/3/31,ZJ-RELIGIOUSGROUP-GOV-3,浙江省基督教两会,县团体,51330108MJ8829445M,杭州市滨江区丹枫路377号,杭州市,15355053851,ZJ-RELIGIOUSGROUP-PEOPLE-3,310051,滨江区基督教三自爱国运动委员会,
奉化区天主教爱国会,协会,ZJ-RELIGIOUSVENUE-GOV-43,奉化区,浙江省,天主教,1989/10/1,ZJ-RELIGIOUSGROUP-GOV-74,社证字第200003号,县团体,51330283MJ9103785W,浙江省宁波市奉化区小路街31号,宁波市,0574-88982601,ZJ-RELIGIOUSGROUP-PEOPLE-140,315500,奉化区天主教爱国会,
镇海区基督教协会,协会,ZJ-RELIGIOUSVENUE-GOV-74,镇海区,浙江省,基督教,1991/9/4,ZJ-RELIGIOUSGROUP-GOV-65,55,县团体,51330211MJ8997924N,浙江省宁波市镇海区招宝山街道中山路8号,宁波市,0574-86273360,ZJ-RELIGIOUSGROUP-PEOPLE-213,315200,镇海区基督教协会,
江北区基督教协会,协会,ZJ-RELIGIOUSVENUE-GOV-79,江北区,浙江省,基督教,1999/12/1,ZJ-RELIGIOUSGROUP-GOV-53,社政字第99025,县团体,,浙江省宁波市江北区中马路526号,宁波市,0574-87232394,ZJ-RELIGIOUSGROUP-PEOPLE-63,315020,江北区基督教协会,
余姚市基督教协会,协会,ZJ-RELIGIOUSVENUE-GOV-22,余姚市,浙江省,基督教,1990/2/1,ZJ-RELIGIOUSGROUP-GOV-27,浙余社证字第48005号,县团体,51330281MJ9055437J,浙江省宁波市余姚市凤山街道丹凤小区15幢店8,宁波市,0574-62640230,ZJ-RELIGIOUSGROUP-PEOPLE-222,315400,余姚市基督教协会,
天主教台州教区,协会,ZJ-RELIGIOUSVENUE-GOV-173,331001,浙江省,天主教,1900/1/1,ZJ-RELIGIOUSGROUP-GOV-19,,市团体,,,台州市,,ZJ-RELIGIOUSGROUP-PEOPLE-44,,天主教台州教区,
天主教宁波教区,协会,ZJ-RELIGIOUSVENUE-GOV-3,330201,浙江省,天主教,1900/1/1,ZJ-RELIGIOUSGROUP-GOV-35,,市团体,51330000501878831F,,宁波市,,ZJ-RELIGIOUSGROUP-PEOPLE-159,,天主教宁波教区,
普陀区基督教三自爱国运动委员会,协会,ZJ-RELIGIOUSVENUE-GOV-92,普陀区,浙江省,基督教,1984/11/29,ZJ-RELIGIOUSGROUP-GOV-41,舟普民社证字第159号,县团体,5131010750113009X6,浙江省舟山市普陀区沈家门北安路88号,舟山市,0580-3051041,ZJ-RELIGIOUSGROUP-PEOPLE-49,316100,普陀区基督教三自爱国运动委员会,
宁海县佛教协会,协会,ZJ-RELIGIOUSVENUE-GOV-46,宁海县,浙江省,佛教,2000/6/28,ZJ-RELIGIOUSGROUP-GOV-4,社证字第480005,县团体,51330226MJ9039170Q,浙江省宁波市宁海县跃龙街道解放南路128弄6号,宁波市,0574-65512107,ZJ-RELIGIOUSGROUP-PEOPLE-128,315600,宁海县佛教协会,
临海市佛教协会,协会,ZJ-RELIGIOUSVENUE-GOV-48,临海市,浙江省,佛教,1989/5/14,ZJ-RELIGIOUSGROUP-GOV-5,浙临民社证字第020031号,县团体,51331082502620349J,浙江省台州市临海市大洋街道三峰路718号（三峰禅寺内）,台州市,18958657607,ZJ-RELIGIOUSGROUP-PEOPLE-171,317000,临海市佛教协会,
诸暨市基督教协会,协会,ZJ-RELIGIOUSVENUE-GOV-54,诸暨市,浙江省,基督教,1992/4/10,ZJ-RELIGIOUSGROUP-GOV-34,诸30034,县团体,51330681307464360U,浙江省绍兴市诸暨市暨阳街道金鸡坞村苎萝东路15号,绍兴市,0575-87225445,ZJ-RELIGIOUSGROUP-PEOPLE-176,311800,诸暨市基督教协会,
岱山县佛教协会,协会,ZJ-RELIGIOUSVENUE-GOV-29,岱山县,浙江省,佛教,2004/6/1,ZJ-RELIGIOUSGROUP-GOV-60,浙岱社证字第103号,县团体,513000000000000000,浙江省舟山市岱山县高亭镇人民路134——6号,舟山市,0580-4487007,ZJ-RELIGIOUSGROUP-PEOPLE-262,316200,岱山县佛教协会,
龙湾区天主教爱国会,协会,ZJ-RELIGIOUSVENUE-GOV-51,龙湾区,浙江省,天主教,2002/8/13,ZJ-RELIGIOUSGROUP-GOV-32,组代管330303-081053,县团体,51330303502125815C,浙江省温州市龙湾区永中街道沧头下53号,温州市,0577-86885173,ZJ-RELIGIOUSGROUP-PEOPLE-38,325024,龙湾区天主教爱国会,
台州市基督教协会,协会,ZJ-RELIGIOUSVENUE-GOV-173,331001,浙江省,基督教,1989/12/1,ZJ-RELIGIOUSGROUP-GOV-19,12005,市团体,51331000502607574U,浙江省台州市椒江区岙里缪小区东边山脚下台州人民防空办公室一号楼,台州市,0576-88880130,ZJ-RELIGIOUSGROUP-PEOPLE-270,318000,台州市基督教协会,
海宁市基督教三自爱国运动委员会,协会,ZJ-RELIGIOUSVENUE-GOV-88,海宁市,浙江省,基督教,2000/4/1,ZJ-RELIGIOUSGROUP-GOV-95,海社证字第210007号,县团体,51330481A960293015,浙江省嘉兴市海昌南路119号,嘉兴市,0573-87041214,ZJ-RELIGIOUSGROUP-PEOPLE-197,314400,海宁市基督教三自爱国运动委员会,
温州市道教协会,协会,ZJ-RELIGIOUSVENUE-GOV-40,330301,浙江省,道教,1986/12/1,ZJ-RELIGIOUSGROUP-GOV-6,温社证字第188号,市团体,51330300502106120J,浙江省温州市西山东路234号,温州市,0577-88529772,ZJ-RELIGIOUSGROUP-PEOPLE-6,325005,温州市道教协会,
宁波市天主教爱国会,协会,ZJ-RELIGIOUSVENUE-GOV-3,330201,浙江省,天主教,1957/8/29,ZJ-RELIGIOUSGROUP-GOV-92,浙甬社证字第800245号,市团体,51330200MJ8936558U,浙江省宁波市中马路2号,宁波市,0574-63890642,ZJ-RELIGIOUSGROUP-PEOPLE-185,315000,宁波市天主教爱国会,
新昌县基督教三自爱国运动委员会,协会,ZJ-RELIGIOUSVENUE-GOV-69,新昌县,浙江省,基督教,2013/12/31,ZJ-RELIGIOUSGROUP-GOV-96,50233953-0,县团体,51330624502339530L,浙江省绍兴市新昌县南明街道红色路36号,绍兴市,86032130,ZJ-RELIGIOUSGROUP-PEOPLE-162,312500,新昌县基督教三自爱国运动委员会,
衢州市伊斯兰教协会,协会,ZJ-RELIGIOUSVENUE-GOV-11,330801,浙江省,伊斯兰教,2007/1/1,ZJ-RELIGIOUSGROUP-GOV-70,衢市社证字第4042号,市团体,51330800662868941M,浙江省衢州市宁绍巷14号宗教有礼园,衢州市,0570-3020783,ZJ-RELIGIOUSGROUP-PEOPLE-188,324000,衢州市伊斯兰教协会,
松阳县基督教三自爱国运动委员会（未登记）,协会,ZJ-RELIGIOUSVENUE-GOV-53,松阳县,浙江省,基督教,2016/12/30,ZJ-RELIGIOUSGROUP-GOV-78,浙丽松社证字第095号,县团体,,浙江省丽水市松阳县西屏街道耶稣堂弄16号,丽水市,0578-8983538,ZJ-RELIGIOUSGROUP-PEOPLE-194,323400,松阳县基督教三自爱国运动委员会（未登记）,
椒江区道教协会,协会,ZJ-RELIGIOUSVENUE-GOV-7,椒江区,浙江省,道教,1987/5/1,ZJ-RELIGIOUSGROUP-GOV-14,台椒民社证字第82015号,县团体,51331002502613640R,浙江省台州市椒江区望江花园2幢3单元205室,台州市,0576-88895551,ZJ-RELIGIOUSGROUP-PEOPLE-237,318000,椒江区道教协会,
苍南县天主教爱国会,协会,ZJ-RELIGIOUSVENUE-GOV-34,苍南县,浙江省,天主教,1999/1/1,ZJ-RELIGIOUSGROUP-GOV-11,,县团体,51330327MJ92357378,浙江省温州市苍南县灵溪镇双垟天主堂,温州市,13355772088,ZJ-RELIGIOUSGROUP-PEOPLE-359,325800,苍南县天主教爱国会,
瑞安市佛教协会,协会,ZJ-RELIGIOUSVENUE-GOV-2,瑞安市,浙江省,佛教,1991/1/1,ZJ-RELIGIOUSGROUP-GOV-98,组代管330381-049806-1,县团体,513000000000000000,浙江省温州市瑞安市安阳街道十八家机场路18号,温州市,15355983568,ZJ-RELIGIOUSGROUP-PEOPLE-249,325200,瑞安市佛教协会,http://www.rafjxh.net/
兰溪市佛教协会,协会,ZJ-RELIGIOUSVENUE-GOV-14,兰溪市,浙江省,佛教,1999/12/1,ZJ-RELIGIOUSGROUP-GOV-64,兰社证字第016号,县团体,51330781770709251B,浙江省金华市兰溪市卯竹园村,金华市,13858990949,ZJ-RELIGIOUSGROUP-PEOPLE-77,321100,兰溪市佛教协会,
柯桥区基督教协会,协会,ZJ-RELIGIOUSVENUE-GOV-105,柯桥区,浙江省,基督教,2016/12/7,ZJ-RELIGIOUSGROUP-GOV-69,,县团体,51330603MJ95071493,浙江省绍兴市柯桥区柯桥永进路,绍兴市,0575-84076338,ZJ-RELIGIOUSGROUP-PEOPLE-92,312030,柯桥区基督教协会,
建德市佛教协会,协会,ZJ-RELIGIOUSVENUE-GOV-64,建德市,浙江省,佛教,2001/10/26,ZJ-RELIGIOUSGROUP-GOV-72,建民社证字第14号,县团体,51330182056735954P,浙江省建德市洋溪街道一江春水揽月阁1号108室,杭州市,0571-64718406,ZJ-RELIGIOUSGROUP-PEOPLE-189,311607,建德市佛教协会,
嘉兴市基督教协会,协会,ZJ-RELIGIOUSVENUE-GOV-125,330401,浙江省,基督教,1987/8/1,ZJ-RELIGIOUSGROUP-GOV-63,浙嘉社证字第210024号,市团体,513000000000000000,浙江省嘉兴市禾兴南路122弄16号,嘉兴市,13819089576,ZJ-RELIGIOUSGROUP-PEOPLE-356,314000,嘉兴市基督教协会,
平阳县道教协会,协会,ZJ-RELIGIOUSVENUE-GOV-25,平阳县,浙江省,道教,1988/7/1,ZJ-RELIGIOUSGROUP-GOV-7,平民社证字第33032603007号,县团体,51330326A953362975,浙江省温州市平阳县昆阳镇坡南东岳观,温州市,13506775212,ZJ-RELIGIOUSGROUP-PEOPLE-8,325400,平阳县道教协会,
台州市天主教爱国会,协会,ZJ-RELIGIOUSVENUE-GOV-173,331001,浙江省,天主教,1994/4/16,ZJ-RELIGIOUSGROUP-GOV-19,12097,市团体,51331000502607486D,浙江省台州市椒江区西门路2号,台州市,0576-88226527,ZJ-RELIGIOUSGROUP-PEOPLE-22,318000,台州市天主教爱国会,
慈溪市基督教协会,协会,ZJ-RELIGIOUSVENUE-GOV-60,慈溪市,浙江省,基督教,2019/6/14,ZJ-RELIGIOUSGROUP-GOV-43,浙慈社证字第000049号,县团体,51330282MJ9073782Q,浙江省宁波市慈溪市宗汉街道兴园路29号,宁波市,0574-63810648,ZJ-RELIGIOUSGROUP-PEOPLE-132,315300,慈溪市基督教协会,
椒江区佛教协会,协会,ZJ-RELIGIOUSVENUE-GOV-7,椒江区,浙江省,佛教,1986/10/1,ZJ-RELIGIOUSGROUP-GOV-14,台椒民社证字第82001号,县团体,5133100250261351XT,浙江省台州市椒江区葭芷街道高坎村万兴寺内,台州市,0576-88318898,ZJ-RELIGIOUSGROUP-PEOPLE-16,318000,椒江区佛教协会,
定海区基督教协会（未登记）,协会,ZJ-RELIGIOUSVENUE-GOV-81,定海区,浙江省,基督教,2016/12/30,,,县团体,,浙江省舟山市定海区昌国街道,舟山市,0580-2587263,ZJ-RELIGIOUSGROUP-PEOPLE-247,316000,定海区基督教协会（未登记）,
南湖区基督教协会,协会,ZJ-RELIGIOUSVENUE-GOV-85,南湖区,浙江省,基督教,2013/9/27,ZJ-RELIGIOUSGROUP-GOV-106,浙嘉南民社证字第410066号,县团体,5133040250221050X2,浙江省嘉兴市南湖区南湖街道滨河路320号,嘉兴市,0573-83188884,ZJ-RELIGIOUSGROUP-PEOPLE-217,314007,南湖区基督教协会,
龙游县基督教协会,协会,ZJ-RELIGIOUSVENUE-GOV-97,龙游县,浙江省,基督教,2003/1/1,ZJ-RELIGIOUSGROUP-GOV-104,浙龙社证字第003号,县团体,51330825MJ9742472P,浙江省衢州市龙游县东华街道后山巷56号,衢州市,0570-7919193,ZJ-RELIGIOUSGROUP-PEOPLE-278,324400,龙游县基督教协会,
嘉兴市（节点）,协会,ZJ-RELIGIOUSVENUE-GOV-125,330401,浙江省,道教,1900/1/1,,,市团体,,,嘉兴市,,,,嘉兴市（节点）,
玉环市基督教协会,协会,ZJ-RELIGIOUSVENUE-GOV-101,玉环市,浙江省,基督教,1983/9/17,ZJ-RELIGIOUSGROUP-GOV-1,玉社证字第92096号,县团体,51331021MJ9838773B,浙江省台州市玉环市玉城街道玉潭路29号,台州市,13665784947,ZJ-RELIGIOUSGROUP-PEOPLE-89,317600,玉环市基督教协会,
庆元县佛教协会,协会,ZJ-RELIGIOUSVENUE-GOV-78,庆元县,浙江省,佛教,2012/6/1,ZJ-RELIGIOUSGROUP-GOV-91,浙庆社证字第0131号,县团体,513000000000000000,浙江省丽水市庆元县屏都街道安禅寺内,丽水市,15957816450,ZJ-RELIGIOUSGROUP-PEOPLE-137,323800,庆元县佛教协会,
青田县道教协会,协会,ZJ-RELIGIOUSVENUE-GOV-67,青田县,浙江省,道教,2001/3/1,ZJ-RELIGIOUSGROUP-GOV-71,浙青社证字第025号,县团体,513000000000000000,浙江省丽水市青田县鹤城镇东岳宫,丽水市,13857095092,ZJ-RELIGIOUSGROUP-PEOPLE-94,323900,青田县道教协会,
泰顺县基督教协会,协会,ZJ-RELIGIOUSVENUE-GOV-9,泰顺县,浙江省,基督教,2014/1/20,ZJ-RELIGIOUSGROUP-GOV-80,泰社证字第2014－003号,县团体,51330329502190035Q,浙江省温州市泰顺县罗阳镇东大街五弄东门基督教堂,温州市,13567734544,ZJ-RELIGIOUSGROUP-PEOPLE-277,325500,泰顺县基督教协会,
嵊州市基督教三自爱国运动委员会,协会,ZJ-RELIGIOUSVENUE-GOV-10,嵊州市,浙江省,基督教,1997/7/7,ZJ-RELIGIOUSGROUP-GOV-57,浙嵊5028,县团体,513000000000000000,浙江省绍兴市嵊州市剡湖街道孝子坊路8号,绍兴市,0575-83013232,ZJ-RELIGIOUSGROUP-PEOPLE-70,312400,嵊州市基督教三自爱国运动委员会,
桐庐县佛教协会,协会,ZJ-RELIGIOUSVENUE-GOV-77,桐庐县,浙江省,佛教,1999/1/1,ZJ-RELIGIOUSGROUP-GOV-13,139,县团体,51330122501940332Q,浙江省杭州市桐庐县桐君街道康乐路16号,杭州市,18857191748,ZJ-RELIGIOUSGROUP-PEOPLE-106,311500,桐庐县佛教协会,
镇海区佛教协会,协会,ZJ-RELIGIOUSVENUE-GOV-74,镇海区,浙江省,佛教,1991/9/4,ZJ-RELIGIOUSGROUP-GOV-65,镇社证字第47号,县团体,51330211MJ8997916U,浙江省宁波市镇海区中山路8号,宁波市,0574-86273232,ZJ-RELIGIOUSGROUP-PEOPLE-295,315200,镇海区佛教协会,
龙泉市道教协会,协会,ZJ-RELIGIOUSVENUE-GOV-58,龙泉市,浙江省,道教,2016/12/23,ZJ-RELIGIOUSGROUP-GOV-28,,县团体,51331181MJ9975591R,龙泉市兰巨乡大巨村,丽水市,,ZJ-RELIGIOUSGROUP-PEOPLE-314,323714,龙泉市道教协会,
秀洲区基督教协会,协会,ZJ-RELIGIOUSVENUE-GOV-96,秀洲区,浙江省,基督教,1991/6/3,ZJ-RELIGIOUSGROUP-GOV-46,秀洲社证字第410028号,县团体,513000000000000000,浙江省嘉兴市秀洲区洪合镇民和路小木桥61号,嘉兴市,13819089576,ZJ-RELIGIOUSGROUP-PEOPLE-141,314023,秀洲区基督教协会,
苍南县道教协会,协会,ZJ-RELIGIOUSVENUE-GOV-34,苍南县,浙江省,道教,1985/1/1,ZJ-RELIGIOUSGROUP-GOV-11,浙温苍社证字第053号,县团体,51330327502171352D,浙江省温州市苍南县灵溪镇02小区9幢1单元302室,温州市,0577-64776386,ZJ-RELIGIOUSGROUP-PEOPLE-12,325800,苍南县道教协会,
绍兴市佛教协会,协会,ZJ-RELIGIOUSVENUE-GOV-41,330601,浙江省,佛教,1991/9/18,ZJ-RELIGIOUSGROUP-GOV-66,51330600502303079w,市团体,51330600502303079W,浙江省绍兴市越城区稽山街道香炉峰炉峰禅寺内,绍兴市,0575-8513687885114879,ZJ-RELIGIOUSGROUP-PEOPLE-118,312000,绍兴市佛教协会,
湖州市天主教爱国会,协会,ZJ-RELIGIOUSVENUE-GOV-73,南浔区,浙江省,天主教,1998/8/1,ZJ-RELIGIOUSGROUP-GOV-47,浙湖社证字第226号,市团体,51330500502273906X,浙江省湖州市南浔镇浔东村天主教堂,湖州市,0572-3915219,ZJ-RELIGIOUSGROUP-PEOPLE-206,313009,湖州市天主教爱国会,
吴兴区佛教协会,协会,ZJ-RELIGIOUSVENUE-GOV-32,吴兴区,浙江省,佛教,2014/10/22,ZJ-RELIGIOUSGROUP-GOV-16,2,县团体,51330502757054668Q,浙江省湖州市吴兴区织里镇织里中路288号,湖州市,0572-2039958,ZJ-RELIGIOUSGROUP-PEOPLE-263,313000,吴兴区佛教协会,
乐清市道教协会,协会,ZJ-RELIGIOUSVENUE-GOV-6,乐清市,浙江省,道教,1986/1/1,ZJ-RELIGIOUSGROUP-GOV-68,社证第47号,县团体,513000000000000000,浙江省温州市乐清市乐成街道清远路国贸大厦B幢230-231室,温州市,0577-62555801,ZJ-RELIGIOUSGROUP-PEOPLE-290,325600,乐清市道教协会,
秀洲区佛教协会,协会,ZJ-RELIGIOUSVENUE-GOV-96,秀洲区,浙江省,佛教,1994/9/10,ZJ-RELIGIOUSGROUP-GOV-46,秀洲社证字第210017号,县团体,51330411502218253G,浙江省嘉兴市秀洲区新塍镇蓬莱路832号,嘉兴市,0573-83403274,ZJ-RELIGIOUSGROUP-PEOPLE-258,314015,秀洲区佛教协会,
鹿城区基督教三自爱国运动委员会,协会,ZJ-RELIGIOUSVENUE-GOV-21,鹿城区,浙江省,基督教,2005/12/1,ZJ-RELIGIOUSGROUP-GOV-100,5.13E+17,县团体,513000000000000000,浙江省温州市江滨西路丽都大厦306室,温州市,0577-88988322,ZJ-RELIGIOUSGROUP-PEOPLE-214,325000,鹿城区基督教三自爱国运动委员会,
青田县佛教协会,协会,ZJ-RELIGIOUSVENUE-GOV-67,青田县,浙江省,佛教,2019/9/10,ZJ-RELIGIOUSGROUP-GOV-71,51331121MJ99292534,县团体,51331121MJ99292534,浙江省丽水市青田县鹤城街道太鹤山环翠寺,丽水市,13905884884,ZJ-RELIGIOUSGROUP-PEOPLE-107,323900,青田县佛教协会,
长兴县基督教三自爱国运动委员会,协会,ZJ-RELIGIOUSVENUE-GOV-33,长兴县,浙江省,基督教,2000/4/1,ZJ-RELIGIOUSGROUP-GOV-22,长社证字第051号,县团体,5133052250228746XF,浙江省湖州市长兴县龙山街道画溪湿地公园内,湖州市,15967243777,ZJ-RELIGIOUSGROUP-PEOPLE-357,313100,长兴县基督教三自爱国运动委员会,
岱山县基督教三自爱国运动委员会,协会,ZJ-RELIGIOUSVENUE-GOV-29,岱山县,浙江省,基督教,2000/8/1,ZJ-RELIGIOUSGROUP-GOV-60,浙岱社证字第79号,县团体,5133092150250986XL,浙江省舟山市岱山县衢山镇里高涂村平阳弄16号,舟山市,18967238901,ZJ-RELIGIOUSGROUP-PEOPLE-148,316289,岱山县基督教三自爱国运动委员会,
龙湾区道教协会,协会,ZJ-RELIGIOUSVENUE-GOV-51,龙湾区,浙江省,道教,1995/5/1,ZJ-RELIGIOUSGROUP-GOV-32,组代管330303-081635,县团体,51330303502125735Q,浙江省温州市龙湾区永中街道刘宅村伯温路,温州市,0577-86920509,ZJ-RELIGIOUSGROUP-PEOPLE-145,325024,龙湾区道教协会,
湖州市基督教协会,协会,ZJ-RELIGIOUSVENUE-GOV-73,330501,浙江省,基督教,1991/4/1,ZJ-RELIGIOUSGROUP-GOV-47,社证字148号,市团体,51330500502274888X,浙江省湖州市衣裳街双井巷24号,湖州市,0572-2054874,ZJ-RELIGIOUSGROUP-PEOPLE-85,313000,湖州市基督教协会,
普陀山佛教协会,协会,ZJ-RELIGIOUSVENUE-GOV-76,普陀区,浙江省,佛教,2003/1/1,ZJ-RELIGIOUSGROUP-GOV-75,50248465-8,县团体,513000000000000000,浙江省舟山市普陀山香华街15号,舟山市,0580-6091371,ZJ-RELIGIOUSGROUP-PEOPLE-269,316107,普陀山佛教协会,
温州市基督教协会,协会,ZJ-RELIGIOUSVENUE-GOV-40,330301,浙江省,基督教,1991/8/1,ZJ-RELIGIOUSGROUP-GOV-6,温社证字第154号,市团体,513000000000000000,浙江省温州市沧河巷116号,温州市,0577-88290015/88290115,ZJ-RELIGIOUSGROUP-PEOPLE-111,325000,温州市基督教协会,
浦江县基督教三自爱国运动委员会,协会,ZJ-RELIGIOUSVENUE-GOV-44,浦江县,浙江省,基督教,1982/12/1,ZJ-RELIGIOUSGROUP-GOV-86,浦江县社证字第074009号,县团体,513000000000000000,浙江省金华市浦江县仙华街道大许五区94号,金华市,15325927481,ZJ-RELIGIOUSGROUP-PEOPLE-347,322200,浦江县基督教三自爱国运动委员会,
湖州市基督教三自爱国运动委员会,协会,ZJ-RELIGIOUSVENUE-GOV-73,330501,浙江省,基督教,1991/4/20,ZJ-RELIGIOUSGROUP-GOV-47,社证字第147号,市团体,51330500502274896Q,浙江省湖州市衣裳街双井巷24号,湖州市,0572-2054874,ZJ-RELIGIOUSGROUP-PEOPLE-288,313000,湖州市基督教三自爱国运动委员会,
慈溪市天主教爱国会,协会,ZJ-RELIGIOUSVENUE-GOV-60,慈溪市,浙江省,天主教,1994/9/15,ZJ-RELIGIOUSGROUP-GOV-43,社证字第050号,县团体,51330282MJ9073790K,浙江省宁波市慈溪市古塘街道教场山路,宁波市,15857412707,ZJ-RELIGIOUSGROUP-PEOPLE-318,315300,慈溪市天主教爱国会,
开化县佛教协会,协会,ZJ-RELIGIOUSVENUE-GOV-19,开化县,浙江省,佛教,2021/8/19,ZJ-RELIGIOUSGROUP-GOV-89,浙开社证字第822号,县团体,51330824313636333G,浙江省衢州市开化县城关镇灵山路69号,衢州市,0570－6161176,ZJ-RELIGIOUSGROUP-PEOPLE-130,324300,开化县佛教协会,
柯城区基督教三自爱国运动委员会（未登记）,协会,ZJ-RELIGIOUSVENUE-GOV-75,柯城区,浙江省,基督教,2016/12/30,ZJ-RELIGIOUSGROUP-GOV-2,,县团体,,浙江省衢州市柯城区新河沿171-179号二楼,衢州市,0570-8633267,ZJ-RELIGIOUSGROUP-PEOPLE-2,324000,柯城区基督教三自爱国运动委员会（未登记）,
诸暨市基督教三自爱国运动委员会,协会,ZJ-RELIGIOUSVENUE-GOV-54,诸暨市,浙江省,基督教,1992/4/10,ZJ-RELIGIOUSGROUP-GOV-34,诸30035,县团体,51330681782910729J,浙江省绍兴市诸暨市暨阳街道金鸡坞村苎萝东路15号,绍兴市,0575-87225445,ZJ-RELIGIOUSGROUP-PEOPLE-358,311800,诸暨市基督教三自爱国运动委员会,
宁波市基督教协会,协会,ZJ-RELIGIOUSVENUE-GOV-3,330201,浙江省,基督教,1984/9/1,ZJ-RELIGIOUSGROUP-GOV-92,社证字第110171,市团体,51330200MJ893654XU,浙江省宁波市槐树路121号,宁波市,0574-87468769,ZJ-RELIGIOUSGROUP-PEOPLE-139,315020,宁波市基督教协会,
杭州市天主教爱国会,协会,ZJ-RELIGIOUSVENUE-GOV-108,330101,浙江省,天主教,1955/10/1,ZJ-RELIGIOUSGROUP-GOV-15,76,市团体,5133010050189214XQ,浙江省杭州市中山北路415号,杭州市,0571-85101364,ZJ-RELIGIOUSGROUP-PEOPLE-192,310003,杭州市天主教爱国会,
浦江县佛教协会,协会,ZJ-RELIGIOUSVENUE-GOV-44,浦江县,浙江省,佛教,2005/1/22,ZJ-RELIGIOUSGROUP-GOV-86,浙浦县社证字第0740011号,县团体,51330726787724917M,浙江省金华市浦江县浦阳街道善庆村佑岩禅寺,金华市,13906516333,ZJ-RELIGIOUSGROUP-PEOPLE-125,322201,浦江县佛教协会,
温州市天主教爱国会,协会,ZJ-RELIGIOUSVENUE-GOV-40,330301,浙江省,天主教,2012/8/17,ZJ-RELIGIOUSGROUP-GOV-6,温社证字第204号,市团体,51330300502111827K,浙江省温州市鹿城区周宅祠巷38号,温州市,0577-88232230,ZJ-RELIGIOUSGROUP-PEOPLE-296,325000,温州市天主教爱国会,
温岭市基督教协会,协会,ZJ-RELIGIOUSVENUE-GOV-17,温岭市,浙江省,基督教,1983/1/1,ZJ-RELIGIOUSGROUP-GOV-48,社证字第52061,县团体,51331081502636156K,浙江省台州市温岭市太平街道兴华路89号,台州市,0576-86223452,ZJ-RELIGIOUSGROUP-PEOPLE-289,317500,温岭市基督教协会,
宁海县基督教三自爱国运动委员会,协会,ZJ-RELIGIOUSVENUE-GOV-46,宁海县,浙江省,基督教,1991/8/10,ZJ-RELIGIOUSGROUP-GOV-4,社证字第480001号,县团体,51330226MJ90391543,浙江省宁波市宁海县跃龙街道县前街18号,宁波市,0574-65501758,ZJ-RELIGIOUSGROUP-PEOPLE-233,315600,宁海县基督教三自爱国运动委员会,
缙云县佛教协会,协会,ZJ-RELIGIOUSVENUE-GOV-27,缙云县,浙江省,佛教,1950/1/1,ZJ-RELIGIOUSGROUP-GOV-54,23,县团体,51331122562395083A,浙江省丽水市缙云县壶镇镇九松寺,丽水市,13457803833,ZJ-RELIGIOUSGROUP-PEOPLE-232,321404,缙云县佛教协会,
湖州市道教协会,协会,ZJ-RELIGIOUSVENUE-GOV-73,330501,浙江省,道教,1998/6/1,ZJ-RELIGIOUSGROUP-GOV-47,浙湖社证字:220号,市团体,51330500502273818F,浙江省湖州市上北街4号楼府庙,湖州市,0572-2057603,ZJ-RELIGIOUSGROUP-PEOPLE-126,313000,湖州市道教协会,http://www.yanxiaguan.com.cn/hzdj2.htm
乐清市基督教协会,协会,ZJ-RELIGIOUSVENUE-GOV-6,乐清市,浙江省,基督教,1985/1/1,ZJ-RELIGIOUSGROUP-GOV-68,浙乐民社证字第41号,县团体,51330382502145138W,浙江省温州市乐清市乐成新世纪花园南龙居1C,温州市,0577-61581137,ZJ-RELIGIOUSGROUP-PEOPLE-191,325600,乐清市基督教协会,
浙江省道教协会,协会,ZJ-RELIGIOUSVENUE-GOV-171,上城区,浙江省,道教,2013/8/13,ZJ-RELIGIOUSGROUP-GOV-35,社证字第22246号,省团体,51330000501876246F,浙江省杭州市上城区大资福庙前路90-1号,杭州市,0571-87961790,ZJ-RELIGIOUSGROUP-PEOPLE-321,310007,浙江省道教协会,http://www.zjdjxh.org/homePage
宁海县基督教协会,协会,ZJ-RELIGIOUSVENUE-GOV-46,宁海县,浙江省,基督教,1991/8/10,ZJ-RELIGIOUSGROUP-GOV-4,浙证字第480002,县团体,51330226MJ9039162X,浙江省宁波市宁海县跃龙街道县前街18号,宁波市,0574-65501758,ZJ-RELIGIOUSGROUP-PEOPLE-4,315600,宁海县基督教协会,
瓯海区佛教协会,协会,ZJ-RELIGIOUSVENUE-GOV-5,瓯海区,浙江省,佛教,1990/11/5,ZJ-RELIGIOUSGROUP-GOV-56,温瓯社证字第25号,县团体,51330304502132185C,浙江省温州市瓯海区梧田街道南堡村龙船住宅区汇8栋304室,温州市,0577-88515892,ZJ-RELIGIOUSGROUP-PEOPLE-355,325014,瓯海区佛教协会,www.wzohfj.org
温岭市道教协会,协会,ZJ-RELIGIOUSVENUE-GOV-17,温岭市,浙江省,道教,1981/10/17,ZJ-RELIGIOUSGROUP-GOV-48,社证字第52014号,县团体,513000000000000000,浙江省台州市温岭市太平街道方城路58号,台州市,0576-86028239,ZJ-RELIGIOUSGROUP-PEOPLE-208,317500,温岭市道教协会,
宁波市佛教协会,协会,ZJ-RELIGIOUSVENUE-GOV-3,330201,浙江省,佛教,1951/3/8,ZJ-RELIGIOUSGROUP-GOV-92,110168,市团体,51330200MJ89365239,浙江省宁波市海曙区解放南路12号,宁波市,0574-87322383,ZJ-RELIGIOUSGROUP-PEOPLE-218,301501,宁波市佛教协会,www.nbsfjxh.com
庆元县基督教协会（未登记）,协会,ZJ-RELIGIOUSVENUE-GOV-78,庆元县,浙江省,基督教,2016/12/30,ZJ-RELIGIOUSGROUP-GOV-91,132,县团体,,浙江省丽水市庆元县环城南路庆元教堂内,丽水市,13157897331,ZJ-RELIGIOUSGROUP-PEOPLE-309,323800,庆元县基督教协会（未登记）,
台州市道教协会,协会,ZJ-RELIGIOUSVENUE-GOV-173,331001,浙江省,道教,1991/3/20,ZJ-RELIGIOUSGROUP-GOV-19,台社证字第12048号,市团体,51331000502607339U,浙江省台州市经济开发区泾云路88号（市防空办1号楼）,台州市,0576-88506795,ZJ-RELIGIOUSGROUP-PEOPLE-64,318000,台州市道教协会,
衢州市基督教三自爱国运动委员会,协会,ZJ-RELIGIOUSVENUE-GOV-11,330801,浙江省,基督教,1987/2/1,ZJ-RELIGIOUSGROUP-GOV-70,浙社证字第4012号,市团体,513000000000000000,浙江省衢州市宁绍巷14号宗教有礼园,衢州市,0570-3021202,ZJ-RELIGIOUSGROUP-PEOPLE-205,324000,衢州市基督教三自爱国运动委员会,
杭州市余杭区佛教协会,协会,ZJ-RELIGIOUSVENUE-GOV-15,余杭区,浙江省,佛教,1998/1/24,ZJ-RELIGIOUSGROUP-GOV-81,杭余民社证字第203号,县团体,51330110502075838M,浙江省杭州市余杭区东湖街道星光街褚厢庙内,杭州市,0571-86135140,ZJ-RELIGIOUSGROUP-PEOPLE-183,311100,杭州市余杭区佛教协会,
越城区佛教协会,协会,ZJ-RELIGIOUSVENUE-GOV-52,越城区,浙江省,佛教,2003/9/17,ZJ-RELIGIOUSGROUP-GOV-49,越民社证字第104号,县团体,5133060250231339XJ,浙江省绍兴市越城区都泗门46号龙华寺内,绍兴市,18905750999,ZJ-RELIGIOUSGROUP-PEOPLE-58,312000,越城区佛教协会,
兰溪市基督教三自爱国运动委员会,协会,ZJ-RELIGIOUSVENUE-GOV-14,兰溪市,浙江省,基督教,1981/1/1,ZJ-RELIGIOUSGROUP-GOV-64,71,县团体,51330781090955600D,浙江省金华市兰溪市兰溪基督教堂,金华市,13665890163,ZJ-RELIGIOUSGROUP-PEOPLE-286,321100,兰溪市基督教三自爱国运动委员会,
乐清市佛教协会,协会,ZJ-RELIGIOUSVENUE-GOV-6,乐清市,浙江省,佛教,2015/7/9,ZJ-RELIGIOUSGROUP-GOV-68,乐社证字第122号,县团体,513000000000000000,浙江省温州市乐清市乐成街道景贤路26-28号（白鹤寺内）,温州市,13706604108,ZJ-RELIGIOUSGROUP-PEOPLE-301,325604,乐清市佛教协会,
龙游县佛教协会,协会,ZJ-RELIGIOUSVENUE-GOV-97,龙游县,浙江省,佛教,2007/11/8,ZJ-RELIGIOUSGROUP-GOV-104,浙社证字第177号,县团体,513000000000000000,浙江省衢州市龙游县小南海竹林禅寺内,衢州市,0570-7051171,ZJ-RELIGIOUSGROUP-PEOPLE-204,324400,龙游县佛教协会,
金华市基督教协会,协会,ZJ-RELIGIOUSVENUE-GOV-112,330701,浙江省,基督教,2000/12/20,ZJ-RELIGIOUSGROUP-GOV-52,浙金市证200159号,市团体,51330700MJ9568515R,浙江省金华市婺城区酒坊巷98号,金华市,0579-85381678,ZJ-RELIGIOUSGROUP-PEOPLE-255,321000,金华市基督教协会,
江山市基督教协会,协会,ZJ-RELIGIOUSVENUE-GOV-95,江山市,浙江省,基督教,1985/1/1,ZJ-RELIGIOUSGROUP-GOV-23,江社证字第4014号,县团体,,浙江省衢州市江山市环城西路61号,衢州市,13646700669,ZJ-RELIGIOUSGROUP-PEOPLE-27,324100,江山市基督教协会,
南湖区佛教协会,协会,ZJ-RELIGIOUSVENUE-GOV-85,南湖区,浙江省,佛教,2005/8/9,ZJ-RELIGIOUSGROUP-GOV-106,浙嘉南民社证字第410010号,县团体,513000000000000000,浙江省嘉兴市南湖区新兴街道三塔路547号,嘉兴市,0573-82193240,ZJ-RELIGIOUSGROUP-PEOPLE-264,314001,南湖区佛教协会,
磐安县基督教三自爱国运动委员会（未登记）,协会,ZJ-RELIGIOUSVENUE-GOV-68,磐安县,浙江省,基督教,2016/12/30,ZJ-RELIGIOUSVENUE-GOV-112,,县团体,,浙江省金华市磐安县安文镇西山街20号,金华市,0579-84667797,ZJ-RELIGIOUSGROUP-PEOPLE-342,322300,磐安县基督教三自爱国运动委员会（未登记）,
鹿城区佛教协会,协会,ZJ-RELIGIOUSVENUE-GOV-21,鹿城区,浙江省,佛教,2000/11/1,ZJ-RELIGIOUSGROUP-GOV-100,温鹿民社证字第0081号,县团体,51330302502115561X,浙江省温州市鹿城区南汇街道惠民路六和寺内,温州市,0577-88852983,ZJ-RELIGIOUSGROUP-PEOPLE-187,325000,鹿城区佛教协会,
乐清市天主教爱国会,协会,ZJ-RELIGIOUSVENUE-GOV-6,乐清市,浙江省,天主教,1999/11/1,ZJ-RELIGIOUSGROUP-GOV-68,乐政49号,县团体,513000000000000000,浙江省温州市乐清市人民路乐清市行政管理中心第二办公区,温州市,13968786121,ZJ-RELIGIOUSGROUP-PEOPLE-245,325600,乐清市天主教爱国会,
舟山市基督教三自爱国运动委员会,协会,ZJ-RELIGIOUSVENUE-GOV-76,330901,浙江省,基督教,1987/1/1,ZJ-RELIGIOUSGROUP-GOV-75,浙舟（市）社证字第0980号,市团体,513000000000000000,浙江省舟山市定海区昌国路232号409,舟山市,0580-2587263,ZJ-RELIGIOUSGROUP-PEOPLE-121,316000,舟山市基督教三自爱国运动委员会,
瓯海区天主教爱国会,协会,ZJ-RELIGIOUSVENUE-GOV-5,瓯海区,浙江省,天主教,1999/11/15,ZJ-RELIGIOUSGROUP-GOV-56,温瓯民社证字第28号,县团体,51330304502132214P,浙江省温州市瓯海区瞿溪街道天主教堂,温州市,15158687298,ZJ-RELIGIOUSGROUP-PEOPLE-119,325016,瓯海区天主教爱国会,
安吉县基督教三自爱国运动委员会,协会,ZJ-RELIGIOUSVENUE-GOV-57,安吉县,浙江省,基督教,2010/2/5,ZJ-RELIGIOUSGROUP-GOV-58,,县团体,,浙江省湖州市安吉县云鸿路安吉基督教堂,湖州市,0572-5862990,ZJ-RELIGIOUSGROUP-PEOPLE-71,313300,安吉县基督教三自爱国运动委员会,
文成县道教协会,协会,ZJ-RELIGIOUSVENUE-GOV-56,文成县,浙江省,道教,2005/10/1,ZJ-RELIGIOUSGROUP-GOV-20,社证字第0528404,县团体,51330328782938457G,浙江省温州市文成县大峃镇太阴宫,温州市,13968927310,ZJ-RELIGIOUSGROUP-PEOPLE-134,325300,文成县道教协会,
德清县基督教三自爱国运动委员会,协会,ZJ-RELIGIOUSVENUE-GOV-18,德清县,浙江省,基督教,1992/2/17,ZJ-RELIGIOUSGROUP-GOV-77,浙德民社证字第023号,县团体,513000000000000000,浙江省湖州市德清县乾元镇南郊路德清教堂内,湖州市,18957257234,ZJ-RELIGIOUSGROUP-PEOPLE-104,313200,德清县基督教三自爱国运动委员会,
舟山市基督教协会,协会,ZJ-RELIGIOUSVENUE-GOV-76,330901,浙江省,基督教,2018/4/4,ZJ-RELIGIOUSGROUP-GOV-75,浙舟社证字第000593号,市团体,51330900MJ9755839B,舟山市定海区昌国路232号409,舟山市,0580-2582177,ZJ-RELIGIOUSGROUP-PEOPLE-252,316000,舟山市基督教协会,
青田县基督教协会,协会,ZJ-RELIGIOUSVENUE-GOV-67,青田县,浙江省,基督教,2002/3/1,ZJ-RELIGIOUSGROUP-GOV-71,浙青社证字第2002003号,县团体,51331121MJ9928592Y,浙江省丽水市青田县鹤城镇后街63号,丽水市,0578-6821311,ZJ-RELIGIOUSGROUP-PEOPLE-308,323900,青田县基督教协会,
苍南县基督教协会,协会,ZJ-RELIGIOUSVENUE-GOV-34,苍南县,浙江省,基督教,1985/11/1,ZJ-RELIGIOUSGROUP-GOV-11,浙温苍社证字54号,县团体,51330327A95384723L,浙江省温州市苍南县灵溪镇塘北路永生堂,温州市,0577-64780360,ZJ-RELIGIOUSGROUP-PEOPLE-224,325800,苍南县基督教协会,
嘉兴市佛教协会,协会,ZJ-RELIGIOUSVENUE-GOV-125,330401,浙江省,佛教,1992/1/1,ZJ-RELIGIOUSGROUP-GOV-63,浙加社证字第210014,市团体,513000000000000000,浙江省嘉兴市广场路1号嘉兴市行政中心5号楼4楼,嘉兴市,18868330313,ZJ-RELIGIOUSGROUP-PEOPLE-333,314000,嘉兴市佛教协会,
龙港市佛教协会,协会,ZJ-RELIGIOUSVENUE-GOV-42,龙港市,浙江省,佛教,2020/10/15,ZJ-RELIGIOUSGROUP-GOV-84,51330383MJ9134848B,县团体,51330383MJ9134848B,龙港市东新街519号福胜寺内,温州市,13868856008/64290575,ZJ-RELIGIOUSGROUP-PEOPLE-123,325802,龙港市佛教协会,
江北区佛教协会,协会,ZJ-RELIGIOUSVENUE-GOV-79,江北区,浙江省,佛教,2001/9/6,ZJ-RELIGIOUSGROUP-GOV-53,甬北社证字第2001B号,县团体,51330205MJ89774724,浙江省宁波市江北区庄桥街道颜家村宝庆讲寺,宁波市,0574-87582645,ZJ-RELIGIOUSGROUP-PEOPLE-276,315032,江北区佛教协会,
玉环市天主教爱国会,协会,ZJ-RELIGIOUSVENUE-GOV-101,玉环市,浙江省,天主教,1999/7/19,ZJ-RELIGIOUSGROUP-GOV-1,玉社证字第92031号,县团体,51331021502666902R,浙江省台州市玉环市坎门街道坎门天主教堂,台州市,13857605345,ZJ-RELIGIOUSGROUP-PEOPLE-280,317602,玉环市天主教爱国会,
平阳县天主教爱国会,协会,ZJ-RELIGIOUSVENUE-GOV-25,平阳县,浙江省,天主教,1999/11/1,ZJ-RELIGIOUSGROUP-GOV-7,平民社证字第33032600101号,县团体,513000000000000000,浙江省温州市平阳县鳌江镇钱仓天主堂,温州市,13868561062,ZJ-RELIGIOUSGROUP-PEOPLE-7,325401,平阳县天主教爱国会,
鹿城区道教协会,协会,ZJ-RELIGIOUSVENUE-GOV-21,鹿城区,浙江省,道教,2000/9/16,ZJ-RELIGIOUSGROUP-GOV-100,温鹿民社证字第0080号,县团体,513000000000000000,浙江省温州市鹿城区西山东路383号A幢2楼,温州市,0577-88552822,ZJ-RELIGIOUSGROUP-PEOPLE-179,325000,鹿城区道教协会,http://www.wzdjxh.com/index.asp
龙泉市佛教协会,协会,ZJ-RELIGIOUSVENUE-GOV-58,龙泉市,浙江省,佛教,2007/12/28,ZJ-RELIGIOUSGROUP-GOV-28,龙民社证字066号,县团体,51331181MJ9974855U,浙江省丽水市龙泉市陵园路125号,丽水市,0578-7120090,ZJ-RELIGIOUSGROUP-PEOPLE-33,323700,龙泉市佛教协会,
缙云县基督教协会,协会,ZJ-RELIGIOUSVENUE-GOV-27,缙云县,浙江省,基督教,1999/12/1,ZJ-RELIGIOUSGROUP-GOV-54,浙缙社证字第32号,县团体,51331122323002019R,浙江省丽水市缙云县五云街道大桥南路309号,丽水市,13106284717,ZJ-RELIGIOUSGROUP-PEOPLE-66,321400,缙云县基督教协会,
海宁市道教协会（已撤销）,协会,ZJ-RELIGIOUSVENUE-GOV-88,海宁市,浙江省,道教,2009/2/1,ZJ-RELIGIOUSGROUP-GOV-95,浙海社证字第210055号,县团体,513000000000000000,浙江省嘉兴市海宁市盐官镇（盐官度假区）,嘉兴市,0573-87617535,ZJ-RELIGIOUSGROUP-PEOPLE-158,314411,海宁市道教协会（已撤销）,
象山县佛教协会,协会,ZJ-RELIGIOUSVENUE-GOV-24,象山县,浙江省,佛教,1996/1/1,ZJ-RELIGIOUSGROUP-GOV-18,象社团登2003006,县团体,51330225MJ9026986X,浙江省宁波市象山县丹东街道建设路275号,宁波市,0574-65710381,ZJ-RELIGIOUSGROUP-PEOPLE-174,315700,象山县佛教协会,
绍兴市越城区基督教协会,协会,ZJ-RELIGIOUSVENUE-GOV-52,越城区,浙江省,基督教,2019/2/18,ZJ-RELIGIOUSGROUP-GOV-49,51330602MJ9499273C,县团体,51330602MJ9499273C,绍兴市越城区东浦街道环北路3-1东浦基督教堂301室,绍兴市,15857597393,ZJ-RELIGIOUSGROUP-PEOPLE-122,312000,绍兴市越城区基督教协会,
瑞安市道教协会,协会,ZJ-RELIGIOUSVENUE-GOV-2,瑞安市,浙江省,道教,1992/1/1,ZJ-RELIGIOUSGROUP-GOV-98,组代管330381-054860-1,县团体,513000000000000000,浙江省温州市瑞安市玉海街道沿江社区外滩佳园3幢43号,温州市,13806846389,ZJ-RELIGIOUSGROUP-PEOPLE-283,325200,瑞安市道教协会,
嵊泗县基督教三自爱国运动委员会,协会,ZJ-RELIGIOUSVENUE-GOV-102,嵊泗县,浙江省,基督教,2014/8/20,ZJ-RELIGIOUSGROUP-GOV-82,浙嵊民社证字第114201号,县团体,513000000000000000,浙江省舟山市嵊泗县菜园镇东海社区天弓路120号,舟山市,0580-5085999,ZJ-RELIGIOUSGROUP-PEOPLE-114,202450,嵊泗县基督教三自爱国运动委员会,
长兴县基督教协会,协会,ZJ-RELIGIOUSVENUE-GOV-33,长兴县,浙江省,基督教,2009/9/1,ZJ-RELIGIOUSGROUP-GOV-22,长社证字第166号,县团体,51330522693852061A,浙江省湖州市长兴县龙山街道画溪湿地公园内,湖州市,13395823022,ZJ-RELIGIOUSGROUP-PEOPLE-25,313100,长兴县基督教协会,
吴兴区基督教三自爱国运动委员会,协会,ZJ-RELIGIOUSVENUE-GOV-32,吴兴区,浙江省,基督教,2016/9/1,ZJ-RELIGIOUSGROUP-GOV-16,51330502MJ9438307C,县团体,51330502MJ9438307C,浙江省湖州市吴兴区织里镇轧村基督教堂内,湖州市,13706524867,ZJ-RELIGIOUSGROUP-PEOPLE-115,313002,吴兴区基督教三自爱国运动委员会,
台州市基督教三自爱国运动委员会,协会,ZJ-RELIGIOUSVENUE-GOV-173,331001,浙江省,基督教,1989/12/1,ZJ-RELIGIOUSGROUP-GOV-19,12006,市团体,51331000502607582N,浙江省台州市椒江区岙里缪小区东边山脚下台州人民防空办公室一号楼,台州市,0576-88880130,ZJ-RELIGIOUSGROUP-PEOPLE-291,318000,台州市基督教三自爱国运动委员会,
淳安县基督教三自爱国运动委员会,协会,ZJ-RELIGIOUSVENUE-GOV-35,淳安县,浙江省,基督教,2009/4/2,ZJ-RELIGIOUSGROUP-GOV-26,社证字第235号,县团体,51330127685825784R,浙江省杭州市淳安县千岛湖镇排岭北路15号,杭州市,0571-65063435,ZJ-RELIGIOUSGROUP-PEOPLE-320,311700,淳安县基督教三自爱国运动委员会,
乐清市基督教三自爱国运动委员会,协会,ZJ-RELIGIOUSVENUE-GOV-6,乐清市,浙江省,基督教,1955/12/1,ZJ-RELIGIOUSGROUP-GOV-68,浙乐民社证字第07号,县团体,51330382781809135L,浙江省温州市乐清市乐成新世纪花园南龙居1C,温州市,0577-61581137,ZJ-RELIGIOUSGROUP-PEOPLE-91,325600,乐清市基督教三自爱国运动委员会,
北仑区基督教三自爱国运动委员会,协会,ZJ-RELIGIOUSVENUE-GOV-63,北仑区,浙江省,基督教,1987/12/30,ZJ-RELIGIOUSGROUP-GOV-51,浙甬仑社证字第110040号,县团体,51330206MJ8985528Y,浙江省宁波市北仑区新碶中河路28号,宁波市,0574-86867863,ZJ-RELIGIOUSGROUP-PEOPLE-60,315800,北仑区基督教三自爱国运动委员会,
建德市基督教协会,协会,ZJ-RELIGIOUSVENUE-GOV-64,建德市,浙江省,基督教,1988/11/1,ZJ-RELIGIOUSGROUP-GOV-72,协会142,县团体,513000000000000000,浙江省杭州市建德市新安江街道江滨路58号,杭州市,13868118378,ZJ-RELIGIOUSGROUP-PEOPLE-97,311600,建德市基督教协会,
龙港市基督教协会,协会,ZJ-RELIGIOUSVENUE-GOV-42,龙港市,浙江省,基督教,1900/1/1,ZJ-RELIGIOUSGROUP-GOV-84,,县团体,51330383MJ91348566,浙江省温州龙港市环河路19－20号主恩堂,温州市,,ZJ-RELIGIOUSGROUP-PEOPLE-163,325802,龙港市基督教协会,
嘉善县基督教三自爱国运动委员会,协会,ZJ-RELIGIOUSVENUE-GOV-30,嘉善县,浙江省,基督教,2008/10/1,ZJ-RELIGIOUSGROUP-GOV-108,浙善社证字210030,县团体,513000000000000000,浙江省嘉兴市嘉善县罗星街道魏塘基督教堂内,嘉兴市,0573-84222743,ZJ-RELIGIOUSGROUP-PEOPLE-305,314100,嘉善县基督教三自爱国运动委员会,
永嘉县天主教爱国会,协会,ZJ-RELIGIOUSVENUE-GOV-16,永嘉县,浙江省,天主教,1999/8/1,ZJ-RELIGIOUSGROUP-GOV-59,永社证字第（A）158,县团体,513000000000000000,浙江省温州市永嘉县江北街道塘头天主教堂,温州市,13605879593,ZJ-RELIGIOUSGROUP-PEOPLE-344,325105,永嘉县天主教爱国会,
建德市基督教三自爱国运动委员会,协会,ZJ-RELIGIOUSVENUE-GOV-64,建德市,浙江省,基督教,1988/11/1,ZJ-RELIGIOUSGROUP-GOV-72,三自021,县团体,513000000000000000,浙江省杭州市建德市新安江街道江滨路58号,杭州市,13186968866,ZJ-RELIGIOUSGROUP-PEOPLE-109,311600,建德市基督教三自爱国运动委员会,
长兴县佛教协会,协会,ZJ-RELIGIOUSVENUE-GOV-33,长兴县,浙江省,佛教,1999/5/1,ZJ-RELIGIOUSGROUP-GOV-22,长社证第071号,县团体,513000000000000000,浙江省湖州市长兴县太湖街道杨湾村（天居寺内）,湖州市,18257259289,ZJ-RELIGIOUSGROUP-PEOPLE-117,313100,长兴县佛教协会,
萧山区基督教协会,协会,ZJ-RELIGIOUSVENUE-GOV-12,萧山区,浙江省,基督教,2016/10/27,ZJ-RELIGIOUSGROUP-GOV-67,,县团体,51330109502099602K,浙江省杭州市萧山区城厢街道萧然南路387号,杭州市,0571-82754393,ZJ-RELIGIOUSGROUP-PEOPLE-337,311201,萧山区基督教协会,
黄岩区天主教爱国会,协会,ZJ-RELIGIOUSVENUE-GOV-31,黄岩区,浙江省,天主教,1994/10/1,ZJ-RELIGIOUSGROUP-GOV-39,42061,县团体,51331003502628500A,浙江省台州市黄岩区青年东路88号,台州市,13706570680,ZJ-RELIGIOUSGROUP-PEOPLE-332,318020,黄岩区天主教爱国会,
桐乡市佛教协会,协会,ZJ-RELIGIOUSVENUE-GOV-8,桐乡市,浙江省,佛教,2003/1/1,ZJ-RELIGIOUSGROUP-GOV-85,浙桐社证字第410012,县团体,51330483732433426Q,浙江省嘉兴市桐乡市梧桐街道振华路373号,嘉兴市,0573-88112255,ZJ-RELIGIOUSGROUP-PEOPLE-124,314500,桐乡市佛教协会,
义乌市基督教三自爱国运动委员会,协会,ZJ-RELIGIOUSVENUE-GOV-37,义乌市,浙江省,基督教,2003/6/30,ZJ-RELIGIOUSGROUP-GOV-38,义证字047号,县团体,51330782A97618378N,浙江省金华市义乌市宗泽东路237号,金华市,0579-85381678,ZJ-RELIGIOUSGROUP-PEOPLE-86,322000,义乌市基督教三自爱国运动委员会,www.ywchurch.com
常山县佛教协会,协会,ZJ-RELIGIOUSVENUE-GOV-26,常山县,浙江省,佛教,1998/1/1,ZJ-RELIGIOUSGROUP-GOV-17,浙衢常社证字第4004号,县团体,513000000000000000,浙江省衢州市常山县天马镇石崆寺,衢州市,0570-5020592,ZJ-RELIGIOUSGROUP-PEOPLE-88,324200,常山县佛教协会,
象山县基督教三自爱国运动委员会,协会,ZJ-RELIGIOUSVENUE-GOV-24,象山县,浙江省,基督教,1998/1/1,ZJ-RELIGIOUSGROUP-GOV-18,48004,县团体,51330225MJ90269783,浙江省宁波市象山县西谷路90号,宁波市,0574-59123382,ZJ-RELIGIOUSGROUP-PEOPLE-20,315700,象山县基督教三自爱国运动委员会,http://xschurch.com/
南浔区佛教协会,协会,ZJ-RELIGIOUSVENUE-GOV-55,南浔区,浙江省,佛教,2008/8/1,ZJ-RELIGIOUSGROUP-GOV-42,湖浔社证字第002号,县团体,51330503753031661K,浙江省湖州市南浔区南浔镇浔东村乌盆兜,湖州市,0572-3933327,ZJ-RELIGIOUSGROUP-PEOPLE-284,313009,南浔区佛教协会,
金东区道教居士林（已注销）,协会,ZJ-RELIGIOUSVENUE-GOV-47,金东区,浙江省,道教,2012/8/1,ZJ-RELIGIOUSGROUP-GOV-45,浙金东民社证字第210098号,县团体,,浙江省金华市金东区孝顺镇鞋塘办事处胡塘村,金华市,13819978111,ZJ-RELIGIOUSGROUP-PEOPLE-53,321036,金东区道教居士林（已注销）,
吴兴区基督教协会,协会,ZJ-RELIGIOUSVENUE-GOV-32,吴兴区,浙江省,基督教,2016/9/1,ZJ-RELIGIOUSGROUP-GOV-16,51330502MJ9438294N,县团体,51330502MJ9438294N,湖州市吴兴区织里镇基督教堂内,湖州市,13905728550,ZJ-RELIGIOUSGROUP-PEOPLE-328,313002,吴兴区基督教协会,
三门县道教协会,协会,ZJ-RELIGIOUSVENUE-GOV-65,三门县,浙江省,道教,2008/1/1,ZJ-RELIGIOUSGROUP-GOV-44,浙三民社证字第82048号,县团体,51331022502658099T,浙江省台州市三门县海游街道天后宫,台州市,0576-83230053,ZJ-RELIGIOUSGROUP-PEOPLE-274,317100,三门县道教协会,
定海区佛教协会,协会,ZJ-RELIGIOUSVENUE-GOV-81,定海区,浙江省,佛教,1997/7/23,ZJ-RELIGIOUSGROUP-GOV-101,浙舟定社证字第021号,县团体,513000000000000000,浙江省舟山市定海区西大街195号,舟山市,0580-2054936,ZJ-RELIGIOUSGROUP-PEOPLE-184,316000,定海区佛教协会,
黄岩区基督教三自爱国运动委员会,协会,ZJ-RELIGIOUSVENUE-GOV-31,黄岩区,浙江省,基督教,1984/12/28,ZJ-RELIGIOUSGROUP-GOV-39,42047,县团体,51331003A996126822,浙江省台州市黄岩区西城迎春小区教堂大院内,台州市,0576-84238847,ZJ-RELIGIOUSGROUP-PEOPLE-46,318020,黄岩区基督教三自爱国运动委员会,
临海市道教协会,协会,ZJ-RELIGIOUSVENUE-GOV-48,临海市,浙江省,道教,2002/12/27,ZJ-RELIGIOUSGROUP-GOV-5,浙临民社证字第020028号,县团体,51331082502620269Y,浙江省台州市临海市城隍庙,台州市,13575835600,ZJ-RELIGIOUSGROUP-PEOPLE-5,317000,临海市道教协会,
瑞安市基督教三自爱国运动委员会,协会,ZJ-RELIGIOUSVENUE-GOV-2,瑞安市,浙江省,基督教,1982/1/1,ZJ-RELIGIOUSGROUP-GOV-98,瑞社证字第4102,县团体,5133038150219604XQ,浙江省温州市瑞安市瑞祥大道20栋7号,温州市,0577-65817144,ZJ-RELIGIOUSGROUP-PEOPLE-170,325200,瑞安市基督教三自爱国运动委员会,
嵊州市佛教协会,协会,ZJ-RELIGIOUSVENUE-GOV-10,嵊州市,浙江省,佛教,2007/8/29,ZJ-RELIGIOUSGROUP-GOV-57,浙嵊社证字第5021号,县团体,51330683502331635E,浙江省绍兴市嵊州市剡湖街道百步阶12号,绍兴市,83030903,ZJ-RELIGIOUSGROUP-PEOPLE-181,312400,嵊州市佛教协会,
浦江县基督教协会,协会,ZJ-RELIGIOUSVENUE-GOV-44,浦江县,浙江省,基督教,1982/12/1,ZJ-RELIGIOUSGROUP-GOV-86,浦江县社证字第074009号,县团体,513000000000000000,浙江省金华市浦江县仙华街道大许五区94号,金华市,0579-84191626,ZJ-RELIGIOUSGROUP-PEOPLE-201,322200,浦江县基督教协会,
文成县基督教三自爱国运动委员会,协会,ZJ-RELIGIOUSVENUE-GOV-56,文成县,浙江省,基督教,2014/3/24,ZJ-RELIGIOUSGROUP-GOV-20,文社证字第0528470号,县团体,51330328095166408P,浙江省温州市文成县大峃镇乌垟坑,温州市,13362752955,ZJ-RELIGIOUSGROUP-PEOPLE-23,325300,文成县基督教三自爱国运动委员会,
鄞州区佛教协会,协会,ZJ-RELIGIOUSVENUE-GOV-1,鄞州区,浙江省,佛教,1980/7/7,ZJ-RELIGIOUSGROUP-GOV-55,社证字第110006,县团体,51330212MJ9008323G,浙江省宁波市鄞州区金峨东路760-766号,宁波市,0574-88491979,ZJ-RELIGIOUSGROUP-PEOPLE-133,315104,鄞州区佛教协会,
杭州市佛教协会,协会,ZJ-RELIGIOUSVENUE-GOV-108,330101,浙江省,佛教,1991/2/26,ZJ-RELIGIOUSGROUP-GOV-15,社证字第0066号,市团体,513000000000000000,浙江省杭州市灵隐路法云弄2号,杭州市,0571-87968180,ZJ-RELIGIOUSGROUP-PEOPLE-17,310013,杭州市佛教协会,
泰顺县基督教三自爱国运动委员会,协会,ZJ-RELIGIOUSVENUE-GOV-9,泰顺县,浙江省,基督教,2013/12/19,ZJ-RELIGIOUSGROUP-GOV-80,泰社证字第2013－019号,县团体,513000000000000000,浙江省温州市泰顺县罗阳镇东大街五弄东门基督教堂,温州市,18006687363,ZJ-RELIGIOUSGROUP-PEOPLE-340,325500,泰顺县基督教三自爱国运动委员会,
桐乡市基督教三自爱国运动委员会,协会,ZJ-RELIGIOUSVENUE-GOV-8,桐乡市,浙江省,基督教,2008/1/1,ZJ-RELIGIOUSGROUP-GOV-85,浙桐社证字第410009,县团体,51330483728913961A,浙江省嘉兴市桐乡市梧桐街道茅盾东路66号,嘉兴市,0573-88061709,ZJ-RELIGIOUSGROUP-PEOPLE-327,314500,桐乡市基督教三自爱国运动委员会,
瓯海区基督教三自爱国运动委员会,协会,ZJ-RELIGIOUSVENUE-GOV-5,瓯海区,浙江省,基督教,1992/7/15,ZJ-RELIGIOUSGROUP-GOV-56,温瓯民社证字第（05）号,县团体,513000000000000000,浙江省温州市瓯海区梧田街道站南商贸城C幢309-310室,温州市,0577-86768310,ZJ-RELIGIOUSGROUP-PEOPLE-155,325000,瓯海区基督教三自爱国运动委员会,
衢江区基督教三自爱国运动委员会（未登记）,协会,ZJ-RELIGIOUSVENUE-GOV-61,衢江区,浙江省,基督教,2016/12/30,,,县团体,,浙江省衢州市衢江开发区仙岩路沈家基督教堂,衢州市,15157072633,ZJ-RELIGIOUSGROUP-PEOPLE-161,324022,衢江区基督教三自爱国运动委员会（未登记）,
淳安县佛教协会,协会,ZJ-RELIGIOUSVENUE-GOV-35,淳安县,浙江省,佛教,2003/8/12,ZJ-RELIGIOUSGROUP-GOV-26,社证字第186号,县团体,51330127751725117K,浙江省杭州市淳安县千岛湖镇浪排线内湾老樟树地块,杭州市,13868043446,ZJ-RELIGIOUSGROUP-PEOPLE-31,311700,淳安县佛教协会,
诸暨市道教协会,协会,ZJ-RELIGIOUSVENUE-GOV-54,诸暨市,浙江省,道教,2018/12/17,ZJ-RELIGIOUSGROUP-GOV-34,51330681MJ9539861Q,县团体,51330681MJ9539861Q,浙江省绍兴市诸暨市上海城236号,绍兴市,0575-87017937,ZJ-RELIGIOUSGROUP-PEOPLE-164,311800,诸暨市道教协会,
台州市佛教协会,协会,ZJ-RELIGIOUSVENUE-GOV-173,331001,浙江省,佛教,1988/7/19,ZJ-RELIGIOUSGROUP-GOV-19,台社证字12019,市团体,51331000502605894G,浙江省台州市经济开发区泾云路88号（市防空办1号楼）,台州市,0576-88805396,ZJ-RELIGIOUSGROUP-PEOPLE-241,318000,台州市佛教协会,
玉环市佛教协会,协会,ZJ-RELIGIOUSVENUE-GOV-101,玉环市,浙江省,佛教,1985/12/12,ZJ-RELIGIOUSGROUP-GOV-102,玉社证字第92015号,县团体,51331021502666697H,浙江省台州市玉环市经济开发区漩港北路99号B1幢519-522室,台州市,15888618999,ZJ-RELIGIOUSGROUP-PEOPLE-193,317600,玉环市佛教协会,
永康市基督教三自爱国运动委员会,协会,ZJ-RELIGIOUSVENUE-GOV-45,永康市,浙江省,基督教,1957/4/1,ZJ-RELIGIOUSGROUP-GOV-29,永社证字第043号,县团体,5133078457932808X4,浙江省金华市永康市丽州北路275号基督教堂,金华市,0579-87165224,ZJ-RELIGIOUSGROUP-PEOPLE-281,321300,永康市基督教三自爱国运动委员会,
松阳县基督教协会,协会,ZJ-RELIGIOUSVENUE-GOV-53,松阳县,浙江省,基督教,1989/10/1,ZJ-RELIGIOUSGROUP-GOV-78,浙丽松社证字第095号,县团体,513000000000000000,浙江省丽水市松阳县西屏街道耶稣堂弄16号,丽水市,0578-8983538,ZJ-RELIGIOUSGROUP-PEOPLE-105,323400,松阳县基督教协会,
三门县佛教协会,协会,ZJ-RELIGIOUSVENUE-GOV-65,三门县,浙江省,佛教,1983/1/1,ZJ-RELIGIOUSGROUP-GOV-44,浙三民社证字第82023号,县团体,51331022A99848505M,浙江省台州市三门县海游街道禅月山（观兴禅寺）,台州市,0576-83338125,ZJ-RELIGIOUSGROUP-PEOPLE-198,317100,三门县佛教协会,
武义县基督教三自爱国运动委员会,协会,ZJ-RELIGIOUSVENUE-GOV-66,武义县,浙江省,基督教,2013/1/1,ZJ-RELIGIOUSGROUP-GOV-94,330723-019475-1,县团体,51330723066948486R,浙江省金华市武义县城下福四路横巷13号,金华市,0579-88510012,ZJ-RELIGIOUSGROUP-PEOPLE-260,321200,武义县基督教三自爱国运动委员会,
瓯海区基督教协会,协会,ZJ-RELIGIOUSVENUE-GOV-5,瓯海区,浙江省,基督教,1992/7/15,ZJ-RELIGIOUSGROUP-GOV-56,浙温瓯社证字第06号,县团体,513000000000000000,浙江省温州市瓯海区梧田街道站南商贸城C幢309-310室,温州市,0577-86768310,ZJ-RELIGIOUSGROUP-PEOPLE-69,325014,瓯海区基督教协会,
杭州市伊斯兰教协会,协会,ZJ-RELIGIOUSVENUE-GOV-108,330101,浙江省,伊斯兰教,1980/6/1,ZJ-RELIGIOUSGROUP-GOV-73,288,市团体,513000000000000000,杭州市江干区运河东路301号,杭州市,0571-58110803,ZJ-RELIGIOUSGROUP-PEOPLE-98,310004,杭州市伊斯兰教协会,
奉化区基督教三自爱国会,协会,ZJ-RELIGIOUSVENUE-GOV-43,330283,浙江省,基督教,1991/7/27,ZJ-RELIGIOUSGROUP-GOV-74,社证字第200012,县团体,51330283MJ9103873B,浙江省宁波市奉化区城基路13号,宁波市,0574-88741451,ZJ-RELIGIOUSGROUP-PEOPLE-297,315500,奉化区基督教三自爱国会,
平阳县佛教协会,协会,ZJ-RELIGIOUSVENUE-GOV-25,平阳县,浙江省,佛教,1984/1/1,ZJ-RELIGIOUSGROUP-GOV-7,平民社证字第33032603043号,县团体,51330326A9533630XM,浙江省温州市平阳县三排口东林寺,温州市,0577-63018711,ZJ-RELIGIOUSGROUP-PEOPLE-186,325400,平阳县佛教协会,
浙江省基督教三自爱国运动委员会,协会,ZJ-RELIGIOUSVENUE-GOV-171,上城区,浙江省,基督教,2013/5/15,ZJ-RELIGIOUSGROUP-GOV-35,浙社证字第22012号,省团体,51330000501869783L,浙江省杭州市解放路132号,杭州市,0571-87130125,ZJ-RELIGIOUSGROUP-PEOPLE-279,310009,浙江省基督教三自爱国运动委员会,http://www.zjchurch.com/
上虞区佛教协会,协会,ZJ-RELIGIOUSVENUE-GOV-89,330682,浙江省,佛教,2008/6/30,ZJ-RELIGIOUSGROUP-GOV-33,514,县团体,51330604502324961N,浙江省绍兴市上虞区丰惠镇祝家庄,绍兴市,0575-82154755,ZJ-RELIGIOUSGROUP-PEOPLE-39,312300,上虞区佛教协会,
柯桥区基督教三自爱国运动委员会,协会,ZJ-RELIGIOUSVENUE-GOV-105,柯桥区,浙江省,基督教,2000/5/25,ZJ-RELIGIOUSGROUP-GOV-90,绍县社证字第407号,县团体,51330603502317163Y,浙江省绍兴市柯桥区柯岩街道永进道口柯桥基督教堂,绍兴市,0575-85757368,ZJ-RELIGIOUSGROUP-PEOPLE-131,312030,柯桥区基督教三自爱国运动委员会,
南浔区基督教三自爱国会,协会,ZJ-RELIGIOUSVENUE-GOV-55,南浔区,浙江省,基督教,2008/8/1,ZJ-RELIGIOUSGROUP-GOV-42,浙湖社证字第005号,县团体,51330503754941480C,浙江省湖州市南浔区南浔镇南西街12号,湖州市,0572-3912884,ZJ-RELIGIOUSGROUP-PEOPLE-207,313009,南浔区基督教三自爱国会,
海宁市佛教协会,协会,ZJ-RELIGIOUSVENUE-GOV-88,海宁市,浙江省,佛教,2000/4/1,ZJ-RELIGIOUSGROUP-GOV-95,浙海社证字第210004号,县团体,5133048179857001XQ,浙江省嘉兴市海宁市西山惠力寺内,嘉兴市,0573-87038913,ZJ-RELIGIOUSGROUP-PEOPLE-353,314400,海宁市佛教协会,
椒江区天主教爱国会,协会,ZJ-RELIGIOUSVENUE-GOV-7,椒江区,浙江省,天主教,1982/12/1,ZJ-RELIGIOUSGROUP-GOV-14,台椒民社证字第82019号,县团体,513000000000000000,浙江省台州市椒江西门路2号天主堂,台州市,0576-88226527,ZJ-RELIGIOUSGROUP-PEOPLE-138,318000,椒江区天主教爱国会,
泰顺县佛教协会,协会,ZJ-RELIGIOUSVENUE-GOV-9,泰顺县,浙江省,佛教,1999/1/1,ZJ-RELIGIOUSGROUP-GOV-80,泰社证字第1999-010号,县团体,51330329502190297G,浙江省温州市泰顺县罗阳镇南塔路塔坪寺,温州市,18888663053,ZJ-RELIGIOUSGROUP-PEOPLE-112,325500,泰顺县佛教协会,
宁波市伊斯兰教协会,协会,ZJ-RELIGIOUSVENUE-GOV-3,330201,浙江省,伊斯兰教,1997/9/1,ZJ-RELIGIOUSGROUP-GOV-92,800356,市团体,51330200MJ8936566N,浙江省宁波市海曙区后营巷18号,宁波市,13857853814,ZJ-RELIGIOUSGROUP-PEOPLE-302,315010,宁波市伊斯兰教协会,
仙居县基督教协会,协会,ZJ-RELIGIOUSVENUE-GOV-59,仙居县,浙江省,基督教,1987/1/17,ZJ-RELIGIOUSGROUP-GOV-9,浙仙新证64001,县团体,513000000000000000,浙江省台州市仙居县城关耶稣堂巷15号,台州市,18958579236,ZJ-RELIGIOUSGROUP-PEOPLE-354,317300,仙居县基督教协会,
温岭市天主教爱国会,协会,ZJ-RELIGIOUSVENUE-GOV-17,温岭市,浙江省,天主教,2000/8/15,ZJ-RELIGIOUSGROUP-GOV-48,社证字第52140号,县团体,51331081502636850Q,浙江省台州市温岭市太平街道坊下街26弄105号,台州市,13486895939,ZJ-RELIGIOUSGROUP-PEOPLE-231,317500,温岭市天主教爱国会,
江干区佛教协会,协会,,330104,浙江省,佛教,1900/1/1,ZJ-RELIGIOUSGROUP-GOV-93,,县团体,51330104341921019J,浙江省杭州市江干区千桃园,杭州市,57186970903,ZJ-RELIGIOUSGROUP-PEOPLE-146,,江干区佛教协会,
武义县佛教协会,协会,ZJ-RELIGIOUSVENUE-GOV-66,武义县,浙江省,佛教,2004/4/10,ZJ-RELIGIOUSGROUP-GOV-94,武民证字第07230039号,县团体,51330723MJ9608230R,浙江省金华市武义县城花园殿巷74号,金华市,0579-87663021,ZJ-RELIGIOUSGROUP-PEOPLE-154,321200,武义县佛教协会,
温岭市基督教三自爱国运动委员会,协会,ZJ-RELIGIOUSVENUE-GOV-17,温岭市,浙江省,基督教,1983/1/1,ZJ-RELIGIOUSGROUP-GOV-48,社证字第52061,县团体,51331081502636156K,浙江省台州市温岭市太平街道兴华路89号,台州市,0576-86223633,ZJ-RELIGIOUSGROUP-PEOPLE-61,317500,温岭市基督教三自爱国运动委员会,
萧山区基督教三自爱国运动委员会,协会,ZJ-RELIGIOUSVENUE-GOV-12,萧山区,浙江省,基督教,2019/5/5,ZJ-RELIGIOUSGROUP-GOV-67,,县团体,51330109MJ8833954T,浙江省杭州市萧山区城厢街道萧然南路387号,杭州市,0571-82754393,ZJ-RELIGIOUSGROUP-PEOPLE-83,311201,萧山区基督教三自爱国运动委员会,
东钱湖旅游度假区佛教协会,协会,ZJ-RELIGIOUSVENUE-GOV-154,330293,浙江省,佛教,2007/3/17,ZJ-RELIGIOUSGROUP-GOV-8,社证字第800001,县团体,51330200MJ8948110E,浙江省宁波市东钱湖福泉山大慈禅寺,宁波市,0574-88375200,ZJ-RELIGIOUSGROUP-PEOPLE-9,315134,东钱湖旅游度假区佛教协会,
婺城区基督教协会,协会,ZJ-RELIGIOUSVENUE-GOV-86,婺城区,浙江省,基督教,1997/6/10,ZJ-RELIGIOUSGROUP-GOV-36,浙金婺社证字第080016号,县团体,51330702MJ95913440,浙江省金华市酒坊巷98号,金华市,0579-82300664,ZJ-RELIGIOUSGROUP-PEOPLE-147,321000,婺城区基督教协会,
金华市基督教三自爱国运动委员会,协会,ZJ-RELIGIOUSVENUE-GOV-112,330701,浙江省,基督教,2000/12/20,ZJ-RELIGIOUSGROUP-GOV-52,浙金市证200170号,市团体,51330700MJ95684949,浙江省金华市婺城区沙畈乡周村,金华市,0579-85381678,ZJ-RELIGIOUSGROUP-PEOPLE-81,321000,金华市基督教三自爱国运动委员会,
宁海县天主教爱国会,协会,ZJ-RELIGIOUSVENUE-GOV-46,宁海县,浙江省,天主教,2000/12/16,ZJ-RELIGIOUSGROUP-GOV-4,480006,县团体,51330226MJ9039189M,浙江省宁波市宁海县跃龙街道白石路8弄1号,宁波市,18858065171,ZJ-RELIGIOUSGROUP-PEOPLE-13,315600,宁海县天主教爱国会,
余姚市基督教三自爱国运动委员会,协会,ZJ-RELIGIOUSVENUE-GOV-22,余姚市,浙江省,基督教,1957/2/1,ZJ-RELIGIOUSGROUP-GOV-27,浙余社证字第48004号,县团体,51330281MJ9055429P,浙江省宁波市余姚市凤山街道丹凤新村15幢店8,宁波市,0574-62640230,ZJ-RELIGIOUSGROUP-PEOPLE-32,315400,余姚市基督教三自爱国运动委员会,
路桥区佛教协会,协会,ZJ-RELIGIOUSVENUE-GOV-20,路桥区,浙江省,佛教,1995/6/17,ZJ-RELIGIOUSGROUP-GOV-31,台路社证字04026,县团体,51331004502633027P,浙江省台州市路桥街道石浜隧道洞口,台州市,0576-82442415,ZJ-RELIGIOUSGROUP-PEOPLE-110,318050,路桥区佛教协会,
瑞安市天主教爱国会,协会,ZJ-RELIGIOUSVENUE-GOV-2,瑞安市,浙江省,天主教,1999/1/1,ZJ-RELIGIOUSGROUP-GOV-98,瑞社证字第3141,县团体,5133038173602999XK,浙江省温州市瑞安市凤山小区17幢102号,温州市,13758786286,ZJ-RELIGIOUSGROUP-PEOPLE-324,325200,瑞安市天主教爱国会,
衢江区佛教协会,协会,ZJ-RELIGIOUSVENUE-GOV-61,衢江区,浙江省,佛教,2009/4/1,ZJ-RELIGIOUSGROUP-GOV-40,衢江社证字第2015号,县团体,51330803502446782W,浙江省衢州市衢江区东迹大道757-775号2楼,衢州市,15325207209,ZJ-RELIGIOUSGROUP-PEOPLE-48,324000,衢江区佛教协会,
德清县道教协会,协会,ZJ-RELIGIOUSVENUE-GOV-18,德清县,浙江省,道教,2019/7/31,ZJ-RELIGIOUSGROUP-GOV-77,,县团体,51330521MJ9451931C,浙江省湖州市德清县武康镇烟霞观内,湖州市,0572-8289506,ZJ-RELIGIOUSGROUP-PEOPLE-325,313200,德清县道教协会,
平湖市基督教三自爱国运动委员会,协会,ZJ-RELIGIOUSVENUE-GOV-83,平湖市,浙江省,基督教,1993/2/20,ZJ-RELIGIOUSGROUP-GOV-21,平社证字第（089）号,县团体,5133048250223355X8,浙江省嘉兴市平湖市当湖街道松枫港路,嘉兴市,0573-85019702,ZJ-RELIGIOUSGROUP-PEOPLE-151,314200,平湖市基督教三自爱国运动委员会,
嘉善县佛教协会,协会,ZJ-RELIGIOUSVENUE-GOV-30,嘉善县,浙江省,佛教,2008/12/1,ZJ-RELIGIOUSGROUP-GOV-108,浙善社证字第210032号,县团体,52330421679570009G,浙江省嘉兴市嘉善县干窑镇三仙路龙庄讲寺内,嘉兴市,0573-84612268,ZJ-RELIGIOUSGROUP-PEOPLE-228,314107,嘉善县佛教协会,
丽水市（节点）,协会,ZJ-RELIGIOUSVENUE-GOV-188,331101,浙江省,天主教,1900/1/1,,,市团体,,,丽水市,,,,丽水市（节点）,
永嘉县佛教协会,协会,ZJ-RELIGIOUSVENUE-GOV-16,永嘉县,浙江省,佛教,2006/1/1,ZJ-RELIGIOUSGROUP-GOV-59,永社证字第a07号,县团体,513000000000000000,浙江省温州市永嘉县上塘镇玉莲庵,温州市,0577-67228073,ZJ-RELIGIOUSGROUP-PEOPLE-209,325100,永嘉县佛教协会,
鹿城区天主教爱国会,协会,ZJ-RELIGIOUSVENUE-GOV-21,鹿城区,浙江省,天主教,2001/10/1,ZJ-RELIGIOUSGROUP-GOV-100,温鹿民社证字第0090号,县团体,5133030250211565X9,浙江省温州市江滨中路276号东门天主堂内101室,温州市,0577-88359167,ZJ-RELIGIOUSGROUP-PEOPLE-239,325000,鹿城区天主教爱国会,
三门县基督教协会,协会,ZJ-RELIGIOUSVENUE-GOV-65,三门县,浙江省,基督教,1985/1/1,ZJ-RELIGIOUSGROUP-GOV-44,浙三民社证字第82054号,县团体,513000000000000000,浙江省台州市三门县海游平海路28-30号,台州市,0576-83379077,ZJ-RELIGIOUSGROUP-PEOPLE-52,317100,三门县基督教协会,
浙江省基督教协会,协会,ZJ-RELIGIOUSVENUE-GOV-171,上城区,浙江省,基督教,2013/5/15,ZJ-RELIGIOUSGROUP-GOV-35,,省团体,51330000501869775R,浙江省杭州市解放路132号,杭州市,0571-87130125,ZJ-RELIGIOUSGROUP-PEOPLE-266,316100,浙江省基督教协会,http://www.zjchurch.com/
丽水市道教协会,协会,ZJ-RELIGIOUSVENUE-GOV-188,331101,浙江省,道教,2018/8/1,ZJ-RELIGIOUSGROUP-GOV-37,,市团体,51331100MJ99109660,丽水龙泉市兰巨乡龙祥观,丽水市,13867069888,ZJ-RELIGIOUSGROUP-PEOPLE-242,323714,丽水市道教协会,
龙泉市基督教协会,协会,ZJ-RELIGIOUSVENUE-GOV-58,龙泉市,浙江省,基督教,2003/6/30,ZJ-RELIGIOUSGROUP-GOV-62,浙龙社证字第023号,县团体,51331181MJ9974900W,浙江省丽水市龙泉市中山东路,丽水市,0578-7128562,ZJ-RELIGIOUSGROUP-PEOPLE-75,323700,龙泉市基督教协会,
衢州市道教协会,协会,ZJ-RELIGIOUSVENUE-GOV-11,330801,浙江省,道教,2020/7/2,ZJ-RELIGIOUSGROUP-GOV-70,,市团体,51330800MJ9706324R,浙江省衢州市宁绍巷14号宗教有礼园,衢州市,13282069999,ZJ-RELIGIOUSGROUP-PEOPLE-230,324000,衢州市道教协会,
杭州市基督教三自爱国运动委员会,协会,ZJ-RELIGIOUSVENUE-GOV-108,330101,浙江省,基督教,1956/4/1,ZJ-RELIGIOUSGROUP-GOV-15,243,市团体,51330100501892211L,浙江省杭州市解放路132号,杭州市,0571-870144766,ZJ-RELIGIOUSGROUP-PEOPLE-273,310009,杭州市基督教三自爱国运动委员会,
鄞州区基督教协会,协会,ZJ-RELIGIOUSVENUE-GOV-1,鄞州区,浙江省,基督教,1990/4/12,ZJ-RELIGIOUSGROUP-GOV-55,380048,县团体,51330212MJ90090198,浙江省宁波市鄞州区泰康中路215号南裕二村二幢101-102室,宁波市,0574-88112144,ZJ-RELIGIOUSGROUP-PEOPLE-120,315194,鄞州区基督教协会,
桐庐县基督教协会,协会,ZJ-RELIGIOUSVENUE-GOV-77,桐庐县,浙江省,基督教,1999/1/1,ZJ-RELIGIOUSGROUP-GOV-13,浙桐社登字第0149号,县团体,51330122501940447Y,浙江省杭州市桐庐县城南街道大奇山路397号,杭州市,0571-64212150,ZJ-RELIGIOUSGROUP-PEOPLE-144,311501,桐庐县基督教协会,
常山县基督教协会,协会,ZJ-RELIGIOUSVENUE-GOV-26,常山县,浙江省,基督教,1993/1/1,ZJ-RELIGIOUSGROUP-GOV-17,浙衢常社证字4003号,县团体,51330822MJ97309570,浙江省衢州市常山县天马街道建国路125号,衢州市,13017745843,ZJ-RELIGIOUSGROUP-PEOPLE-90,324200,常山县基督教协会,
路桥区道教协会,协会,ZJ-RELIGIOUSVENUE-GOV-20,路桥区,浙江省,道教,1995/6/17,ZJ-RELIGIOUSGROUP-GOV-31,4017,县团体,5133100468169502XE,浙江省台州市路桥区路桥街道丁岙村,台州市,0576-82443603,ZJ-RELIGIOUSGROUP-PEOPLE-177,318050,路桥区道教协会,
富阳区佛教协会,协会,ZJ-RELIGIOUSVENUE-GOV-49,富阳区,浙江省,佛教,1998/7/5,ZJ-RELIGIOUSGROUP-GOV-88,83,县团体,51330111773572473L,浙江省杭州市富阳区富春街道东山村,杭州市,57163371312,ZJ-RELIGIOUSGROUP-PEOPLE-306,311400,富阳区佛教协会,
瑞安市基督教协会,协会,ZJ-RELIGIOUSVENUE-GOV-2,瑞安市,浙江省,基督教,1982/1/1,ZJ-RELIGIOUSGROUP-GOV-98,瑞社证字第3120号,县团体,51330381A95530153D,浙江省温州市瑞安市瑞祥大道20栋7号,温州市,0577-65817144,ZJ-RELIGIOUSGROUP-PEOPLE-203,325200,瑞安市基督教协会,
平阳县基督教协会,协会,ZJ-RELIGIOUSVENUE-GOV-25,平阳县,浙江省,基督教,1984/7/1,ZJ-RELIGIOUSGROUP-GOV-7,平民社证字第33032603080,县团体,,浙江省温州市平阳县敖江镇园林路248号,温州市,13868573110,ZJ-RELIGIOUSGROUP-PEOPLE-47,325401,平阳县基督教协会,
丽水市基督教协会,协会,ZJ-RELIGIOUSVENUE-GOV-188,331101,浙江省,基督教,2009/12/29,ZJ-RELIGIOUSGROUP-GOV-37,丽市社证字第234号,市团体,51331100670276209A,浙江省丽水市丽阳街581-3号基督教堂,丽水市,13625886265,ZJ-RELIGIOUSGROUP-PEOPLE-157,323000,丽水市基督教协会,
龙湾区佛教协会,协会,ZJ-RELIGIOUSVENUE-GOV-51,龙湾区,浙江省,佛教,1991/10/25,ZJ-RELIGIOUSGROUP-GOV-32,温龙社证第044号,县团体,51330303502125620J,浙江省温州市龙湾区瑶溪街道皇岙村国安禅寺,温州市,13505772653,ZJ-RELIGIOUSGROUP-PEOPLE-336,325024,龙湾区佛教协会,
江北区基督教三自爱国运动委员会,协会,ZJ-RELIGIOUSVENUE-GOV-79,江北区,浙江省,基督教,1999/12/1,ZJ-RELIGIOUSGROUP-GOV-53,99025,县团体,51330205MJ89774649,浙江省宁波市江北区中马路526号,宁波市,0574-87232394,ZJ-RELIGIOUSGROUP-PEOPLE-322,315021,江北区基督教三自爱国运动委员会,
象山县基督教协会,协会,ZJ-RELIGIOUSVENUE-GOV-24,象山县,浙江省,基督教,1998/1/1,ZJ-RELIGIOUSGROUP-GOV-18,28034,县团体,51330225MJ9026994Q,浙江省宁波市象山县丹西街道西谷路90号,宁波市,0574-59123382,ZJ-RELIGIOUSGROUP-PEOPLE-150,315700,象山县基督教协会,http://xschurch.com/
浙江省天主教爱国会,协会,ZJ-RELIGIOUSVENUE-GOV-171,拱墅区,浙江省,天主教,2013/6/26,ZJ-RELIGIOUSGROUP-GOV-35,浙社证字第22008号,省团体,513000000000000000,浙江省杭州市中山北路415号,杭州市,0571-85151587,ZJ-RELIGIOUSGROUP-PEOPLE-221,310003,浙江省天主教爱国会,www.cczj.org
天台山佛教协会,协会,ZJ-RELIGIOUSVENUE-GOV-39,天台县,浙江省,佛教,1992/1/1,ZJ-RELIGIOUSGROUP-GOV-79,72015,县团体,51331023A997722805,浙江省台州市天台县赤城街道峧头,台州市,0576-83985696,ZJ-RELIGIOUSGROUP-PEOPLE-190,317200,天台山佛教协会,
奉化区佛教协会,协会,ZJ-RELIGIOUSVENUE-GOV-43,330283,浙江省,佛教,1988/12/1,ZJ-RELIGIOUSGROUP-GOV-74,社证字第200014,县团体,51330283MJ910389XX,浙江省宁波市奉化区中塔路5号,宁波市,0574-88598915,ZJ-RELIGIOUSGROUP-PEOPLE-99,315500,奉化区佛教协会,
龙湾区基督教协会,协会,ZJ-RELIGIOUSVENUE-GOV-51,龙湾区,浙江省,基督教,1995/8/2,ZJ-RELIGIOUSGROUP-GOV-32,浙龙社证字第025号,县团体,,浙江省温州市龙湾区状元街道前潘路40号,温州市,0577-86355227,ZJ-RELIGIOUSGROUP-PEOPLE-315,325011,龙湾区基督教协会,http://www.wzjdj.cn
义乌市基督教协会,协会,ZJ-RELIGIOUSVENUE-GOV-37,义乌市,浙江省,基督教,2003/6/30,ZJ-RELIGIOUSGROUP-GOV-38,义证字047号,县团体,51330782A97618378N,浙江省金华市义乌市宗泽东路237号,金华市,0579-85381678,ZJ-RELIGIOUSGROUP-PEOPLE-45,322000,义乌市基督教协会,www.ywchurch.com
瓯海区道教协会,协会,ZJ-RELIGIOUSVENUE-GOV-5,瓯海区,浙江省,道教,1993/12/23,ZJ-RELIGIOUSGROUP-GOV-56,浙温瓯民证字第（07）号,县团体,51330304502131983C,浙江省温州市瓯海区西山东路116号弄内,温州市,0577-88532512,ZJ-RELIGIOUSGROUP-PEOPLE-172,325000,瓯海区道教协会,
滨江区佛教协会,协会,ZJ-RELIGIOUSVENUE-GOV-160,滨江区,浙江省,佛教,2013/11/11,ZJ-RELIGIOUSGROUP-GOV-3,区民社证字第2013---047号,县团体,51330108082121390H,浙江省杭州市滨江区长河街道冠山禅寺内,杭州市,0571-86606448,ZJ-RELIGIOUSGROUP-PEOPLE-292,310052,滨江区佛教协会,
绍兴市基督教协会,协会,ZJ-RELIGIOUSVENUE-GOV-41,越城区,浙江省,基督教,2004/2/9,ZJ-RELIGIOUSGROUP-GOV-66,绍社证字第632号,市团体,51330600502305250Q,浙江省绍兴市东街81号,绍兴市,0575-85135269,ZJ-RELIGIOUSGROUP-PEOPLE-246,312000,绍兴市基督教协会,
武义县基督教协会,协会,武义县民族宗教事务局,武义县,浙江省,基督教,2013/1/1,ZJ-RELIGIOUSGROUP-GOV-94,330723-019475-2,县团体,51330723066948486R,浙江省金华市武义县城下福四路横巷13号,金华市,0579-88510012,ZJ-RELIGIOUSGROUP-PEOPLE-361,321200,武义县基督教协会,
新昌县基督教协会,协会,ZJ-RELIGIOUSVENUE-GOV-69,新昌县,浙江省,基督教,2007/6/14,ZJ-RELIGIOUSGROUP-GOV-96,50231225-0,县团体,51330624MJ9527713C,浙江省绍兴市新昌县七星街道坎头村,绍兴市,13967585952,ZJ-RELIGIOUSGROUP-PEOPLE-166,312500,新昌县基督教协会,
永嘉县道教协会,协会,ZJ-RELIGIOUSVENUE-GOV-16,永嘉县,浙江省,道教,1994/1/1,ZJ-RELIGIOUSGROUP-GOV-59,永社证字（A006）号,县团体,5133032450215312X6,浙江省温州市永嘉县上塘殿后山,温州市,0577-67229753,ZJ-RELIGIOUSGROUP-PEOPLE-72,325100,永嘉县道教协会,
衢州市柯城区佛教协会,协会,ZJ-RELIGIOUSVENUE-GOV-75,柯城区,浙江省,佛教,2019/11/22,ZJ-RELIGIOUSGROUP-GOV-2,,县团体,51330802MJ9717306R,浙江省衢州市柯城区九华乡上方村孟高寮38号,衢州市,15725206100,ZJ-RELIGIOUSGROUP-PEOPLE-196,324000,衢州市柯城区佛教协会,
衢州市佛教协会,协会,ZJ-RELIGIOUSVENUE-GOV-11,330801,浙江省,佛教,1997/1/1,ZJ-RELIGIOUSGROUP-GOV-70,浙社政字第4009号,市团体,51330800749830356M,浙江省衢州市宁绍巷14号宗教有礼园,衢州市,0570-3034004,ZJ-RELIGIOUSGROUP-PEOPLE-345,324000,衢州市佛教协会,
海曙区基督教协会,协会,,海曙区,浙江省,基督教,2018/4/9,ZJ-RELIGIOUSGROUP-GOV-97,浙甬海社证字第110349号,县团体,51330203MJ8961243Q,浙江省宁波市长春路122号,宁波市,0574-88081614,ZJ-RELIGIOUSGROUP-PEOPLE-202,315000,海曙区基督教协会,
新城基督教岙山教堂,协会,,定海区,浙江省,基督教,2016/9/1,ZJ-RELIGIOUSVENUE-GOV-76,浙J090000002,,,舟山市新城岙山沙头西边137号,舟山市,,ZJ-RELIGIOUSGROUP-PEOPLE-59,,新城基督教岙山教堂,
婺城区基督教三自爱国运动委员会,协会,ZJ-RELIGIOUSVENUE-GOV-86,婺城区,浙江省,基督教,1998/5/1,ZJ-RELIGIOUSGROUP-GOV-36,浙金婺社证字第080017号,县团体,51330702MJ9591352T,浙江省金华市城区酒坊巷98号,金华市,0579-82300664,ZJ-RELIGIOUSGROUP-PEOPLE-250,321000,婺城区基督教三自爱国运动委员会,
临安区基督教三自爱国运动委员会,协会,ZJ-RELIGIOUSVENUE-GOV-50,临安区,浙江省,基督教,1993/12/1,ZJ-RELIGIOUSGROUP-GOV-30,临社证字第0270号,县团体,51330185776639207D,浙江省杭州市临安区锦城街道保锦路281号福音堂,杭州市,0571-63738096,ZJ-RELIGIOUSGROUP-PEOPLE-256,311300,临安区基督教三自爱国运动委员会,
龙湾区基督教三自爱国运动委员会,协会,ZJ-RELIGIOUSVENUE-GOV-51,龙湾区,浙江省,基督教,1995/8/2,ZJ-RELIGIOUSGROUP-GOV-32,温龙社证字025号,县团体,51330303502125794U,浙江省温州市龙湾区状元街道前潘路40号,温州市,0577-86355227,ZJ-RELIGIOUSGROUP-PEOPLE-329,325011,龙湾区基督教三自爱国运动委员会,http://www.wzjdj.cn
龙港市基督教三自爱国运动委员会,协会,ZJ-RELIGIOUSVENUE-GOV-42,龙港市,浙江省,基督教,2020/10/15,ZJ-RELIGIOUSGROUP-GOV-84,,县团体,51330383MJ91348641,浙江省温州龙港市环河路19－20号主恩堂,温州市,,ZJ-RELIGIOUSGROUP-PEOPLE-200,325802,龙港市基督教三自爱国运动委员会,
洞头区佛教协会,协会,ZJ-RELIGIOUSVENUE-GOV-36,洞头区,浙江省,佛教,2001/8/13,ZJ-RELIGIOUSGROUP-GOV-10,浙洞民社证字第069号,县团体,513000000000000000,浙江省温州市洞头区东屏街道普陀路1号,温州市,0577-621020,ZJ-RELIGIOUSGROUP-PEOPLE-215,325700,洞头区佛教协会,
安吉县基督教协会,协会,ZJ-RELIGIOUSVENUE-GOV-57,安吉县,浙江省,基督教,1900/1/1,ZJ-RELIGIOUSGROUP-GOV-76,,县团体,51330523MJ9472345B,浙江省湖州市安吉县云鸿路基督教堂,湖州市,0572-5862990,ZJ-RELIGIOUSGROUP-PEOPLE-338,313300,安吉县基督教协会,
文成县基督教协会,协会,ZJ-RELIGIOUSVENUE-GOV-56,文成县,浙江省,基督教,2014/3/24,ZJ-RELIGIOUSGROUP-GOV-20,文社证字第0528469号,县团体,513000000000000000,浙江省温州市文成县大峃镇乌垟坑,温州市,15257756635,ZJ-RELIGIOUSGROUP-PEOPLE-87,325300,文成县基督教协会,
中国佛教协会,协会,,,,,,,,,,,,,,,中国佛教协会,
浙江省基督教两会,协会,,,,,,,,,,,,,,,浙江省基督教两会,
