name,type,province,level,address,city,id,phoneNumber
江山最美碗窑景区,旅游景点,浙江省,AAA,浙江省衢州市江山市江山市碗窑乡碗窑村,衢州市,江山最美碗窑景区,
瓯海生命健康小镇景区,旅游景点,浙江省,AAA,浙江省温州市瓯海区南白象街道学府北路,温州市,瓯海生命健康小镇景区,
浙江省遂昌县红星坪温泉度假村有限公司,旅游景点,浙江省,AA,浙江省丽水市遂昌县遂昌县湖山乡红星坪村,丽水市,浙江省遂昌县红星坪温泉度假村有限公司,
浙江舟山跨海大桥展览馆景区,旅游景点,浙江省,AA,浙江省舟山市定海区金塘镇东堠社区,舟山市,浙江舟山跨海大桥展览馆景区,
宁波博物馆景区,旅游景点,浙江省,AAAA,浙江省宁波市鄞州区首南中路1000号,宁波市,宁波博物馆景区,
南北湖风景区,旅游景点,浙江省,AAAA,浙江省嘉兴市海盐县海盐县澉浦镇南浦路685号,嘉兴市,南北湖风景区,
舟山市天鹅山庄,旅游景点,浙江省,A,浙江省舟山市定海区舟山市定海区盐仓街道虹桥钱家,舟山市,舟山市天鹅山庄,
浙江省舟山市岱山县衢山观音山景区,旅游景点,浙江省,AAA,浙江省舟山市岱山县衢山镇,舟山市,浙江省舟山市岱山县衢山观音山景区,
嘉兴市海华武术馆,旅游景点,浙江省,AA,浙江省嘉兴市南湖区青龙街141号,嘉兴市,嘉兴市海华武术馆,
浙江省湖州市长兴县东方梅园景区,旅游景点,浙江省,AAA,浙江省湖州市长兴县龙山街道川步村梅花坞,湖州市,浙江省湖州市长兴县东方梅园景区,5726559777
松阳大木山茶园,旅游景点,浙江省,AAAA,浙江省丽水市松阳县新兴镇,丽水市,松阳大木山茶园,
浙江省金华市磐安县念想双峰景区,旅游景点,浙江省,AAA,浙江省金华市磐安县双峰乡大皿村52号,金华市,浙江省金华市磐安县念想双峰景区,
浙江省金华市永康市方岩风景区,旅游景点,浙江省,AAAA,浙江省金华市永康市方岩镇方岩风景区投资经营有限公司,金华市,浙江省金华市永康市方岩风景区,57987052030
象山影视城开发有限公司,旅游景点,浙江省,AAAA,浙江省宁波市象山县新桥镇,宁波市,象山影视城开发有限公司,
浙江省嘉兴市海盐县万奥农庄景区,旅游景点,浙江省,AAA,浙江省嘉兴市海盐县秦山街道北团大道188号,嘉兴市,浙江省嘉兴市海盐县万奥农庄景区,
浙江省温州市文成县峡谷景廊,旅游景点,浙江省,AAA,浙江省温州市文成县文成县大峃镇靛青山,温州市,浙江省温州市文成县峡谷景廊,
浙江省金华市市辖区寺平古村旅游景区,旅游景点,浙江省,AAA,浙江省金华市市辖区汤溪镇寺平古村,金华市,浙江省金华市市辖区寺平古村旅游景区,
嘉欣丝绸园景区,旅游景点,浙江省,AAA,浙江省嘉兴市秀洲区中山西路2710号嘉欣丝绸园景区,嘉兴市,嘉欣丝绸园景区,
横店影视城5A级景区,旅游景点,浙江省,AAAAA,浙江省金华市东阳市横店镇万盛街58号,金华市,横店影视城5A级景区,
浙江省台州市天台县易经筋景区,旅游景点,浙江省,AAA,浙江省台州市天台县,台州市,浙江省台州市天台县易经筋景区,
浙江省湖州市长兴县中国扬子鳄村景区,旅游景点,浙江省,AAAA,浙江省湖州市长兴县林城镇新星村,湖州市,浙江省湖州市长兴县中国扬子鳄村景区,0572-6832708
山水统里景区,旅游景点,浙江省,AAA,浙江省湖州市安吉县报福镇统里村,湖州市,山水统里景区,
南湖旅游区,旅游景点,浙江省,AAAAA,浙江省嘉兴市南湖区南溪西路1号,嘉兴市,南湖旅游区,
杭州西湖景区,旅游景点,浙江省,AAAAA,浙江省杭州市市辖区,杭州市,杭州西湖景区,
台州金荔泉度假村有限公司,旅游景点,浙江省,AAA,浙江省台州市路桥区金清农垦场内,台州市,台州金荔泉度假村有限公司,
湖州安吉高家堂景区,旅游景点,浙江省,AAA,浙江省湖州市安吉县山川乡高家堂村,湖州市,湖州安吉高家堂景区,13587270316
衢州开化根宫佛国文化旅游区,旅游景点,浙江省,AAAAA,浙江省衢州市开化县根博路1号,衢州市,衢州开化根宫佛国文化旅游区,
浙江省嘉兴市南湖区凌公塘文化主题公园,旅游景点,浙江省,AA,浙江省嘉兴市南湖区凌公塘路,嘉兴市,浙江省嘉兴市南湖区凌公塘文化主题公园,82807598
秀洲区新塍小蓬莱景区,旅游景点,浙江省,AA,浙江省嘉兴市秀洲区新塍镇蓬莱路792号,嘉兴市,秀洲区新塍小蓬莱景区,
达利?丝绸世界,旅游景点,浙江省,AAAA,浙江省绍兴市新昌县南岩高新技术开发区,绍兴市,达利?丝绸世界,
百丈飞瀑风景旅游区,旅游景点,浙江省,AAA,浙江省绍兴市嵊州市嵊州市王院乡金钩村,绍兴市,百丈飞瀑风景旅游区,
浮盖山景区,旅游景点,浙江省,AAAA,浙江省衢州市江山市江山市廿八都镇,衢州市,浮盖山景区,
天烛仙境景区,旅游景点,浙江省,AAA,浙江省绍兴市新昌县天烛湖水库,绍兴市,天烛仙境景区,
上虞二都杨梅生态园,旅游景点,浙江省,AAA,浙江省绍兴市上虞市上虞市驿亭镇政府,绍兴市,上虞二都杨梅生态园,
王十朋故里旅游区,旅游景点,浙江省,AA,浙江省温州市乐清市乐清市淡溪镇,温州市,王十朋故里旅游区,
天柱风景区,旅游景点,浙江省,AA,浙江省温州市龙湾区永中街道郑宅村,温州市,天柱风景区,0577-86821155
衢江区太真洞风景区,旅游景点,浙江省,AA,浙江省衢州市衢江区衢江区太真洞上槽村,衢州市,衢江区太真洞风景区,
海宁和田龙农庄,旅游景点,浙江省,AA,浙江省嘉兴市海宁市海宁南北大道长山河桥北一公里,嘉兴市,海宁和田龙农庄,
浙江省绍兴市柯桥区会稽山千年香榧林景区,旅游景点,浙江省,AAA,浙江省绍兴市柯桥区占岙村,绍兴市,浙江省绍兴市柯桥区会稽山千年香榧林景区,
吴兴驾云山景区,旅游景点,浙江省,AAA,浙江省湖州市吴兴区埭溪镇联山村,湖州市,吴兴驾云山景区,
湖州菰城景区经营管理有限公司,旅游景点,浙江省,AAAA,浙江省湖州市市辖区湖州龙王山路仁皇山风景区（南大门）,湖州市,湖州菰城景区经营管理有限公司,
合村生仙里景区,旅游景点,浙江省,AAA,浙江省杭州市桐庐县合村乡,杭州市,合村生仙里景区,
天台山风景名胜区,旅游景点,浙江省,AAAAA,浙江省台州市天台县天台县境内,台州市,天台山风景名胜区,
浙江省台州市天台县济公故居景区,旅游景点,浙江省,AA,浙江省台州市天台县赤城路449号,台州市,浙江省台州市天台县济公故居景区,
浙江省绍兴市柯桥区龙池山·青陶峡谷旅游景区,旅游景点,浙江省,AA,浙江省绍兴市柯桥区新华村,绍兴市,浙江省绍兴市柯桥区龙池山·青陶峡谷旅游景区,
嵊州市剡溪漂流旅游区,旅游景点,浙江省,AAA,浙江省绍兴市嵊州市甘霖镇施家岙,绍兴市,嵊州市剡溪漂流旅游区,
东阳木雕小镇,旅游景点,浙江省,AAA,浙江省金华市东阳市六石街道木雕小镇,金华市,东阳木雕小镇,
舟山市普陀山风景名胜区管理委会,旅游景点,浙江省,AAAAA,浙江省舟山市市辖区普陀山梅岑路115号,舟山市,舟山市普陀山风景名胜区管理委会,
宁波东钱湖小普陀景区,旅游景点,浙江省,AAA,浙江省宁波市东钱湖旅游度假区,宁波市,宁波东钱湖小普陀景区,
东阳中国木雕城,旅游景点,浙江省,AAAA,浙江省金华市东阳市东阳世贸大道188号,金华市,东阳中国木雕城,
金稼园景区,旅游景点,浙江省,AAA,浙江省嘉兴市平湖市当湖街道金家村晒浜88号,嘉兴市,金稼园景区,
杭州临安太湖源景区,旅游景点,浙江省,AAAA,浙江省杭州市临安区太湖源镇白沙村郑家坪1号,杭州市,杭州临安太湖源景区,13588882050
浙江省温州市平阳县南雁荡山景区,旅游景点,浙江省,AAAA,浙江省温州市平阳县南雁镇,温州市,浙江省温州市平阳县南雁荡山景区,
嘉兴市莲泗荡风景区开发有限公司,旅游景点,浙江省,AAA,浙江省嘉兴市秀洲区秀洲区王江泾镇民主村莲泗荡公园内,嘉兴市,嘉兴市莲泗荡风景区开发有限公司,
新昌中国茶市,旅游景点,浙江省,AAA,浙江省绍兴市新昌县七星街道泰坦大道一号,绍兴市,新昌中国茶市,0575-86281166
遂昌县白马山森林公园,旅游景点,浙江省,AA,浙江省丽水市遂昌县遂昌县白马山,丽水市,遂昌县白马山森林公园,
浙江省台州市仙居县下各新路古渡风情休闲特色村,旅游景点,浙江省,AAA,浙江省台州市仙居县下各镇新路村,台州市,浙江省台州市仙居县下各新路古渡风情休闲特色村,
西塘古镇景区,旅游景点,浙江省,AAAAA,浙江省嘉兴市嘉善县西塘镇南苑路258号,嘉兴市,西塘古镇景区,
安吉江南天池景区,旅游景点,浙江省,AAAA,浙江省湖州市安吉县安吉县天荒坪镇天荒坪电站上库区,湖州市,安吉江南天池景区,
吴镇纪念馆,旅游景点,浙江省,AA,浙江省嘉兴市嘉善县魏塘街道花园路178号,嘉兴市,吴镇纪念馆,0573-84126005
杭州西湖风景名胜区,旅游景点,浙江省,AAAAA,浙江省杭州市市辖区杭州市西湖区龙井路1号,杭州市,杭州西湖风景名胜区,
浙江省绍兴市柯桥区陶元岭-金鱼湾景区,旅游景点,浙江省,AA,浙江省绍兴市柯桥区,绍兴市,浙江省绍兴市柯桥区陶元岭-金鱼湾景区,
天一阁·月湖景区,旅游景点,浙江省,AAAAA,浙江省宁波市海曙区月湖街道长春路92号,宁波市,天一阁·月湖景区,0574-55883721
浙江省衢州市江山市醉美碗窑景区,旅游景点,浙江省,AAA,浙江省衢州市江山市碗窑乡达河村,衢州市,浙江省衢州市江山市醉美碗窑景区,0570-4570251
浙江省嘉兴市南湖区嘉兴马家浜健康食品小镇景区,旅游景点,浙江省,AAA,浙江省嘉兴市南湖区马家浜路368号,嘉兴市,浙江省嘉兴市南湖区嘉兴马家浜健康食品小镇景区,
诸暨市珍珠小镇景区,旅游景点,浙江省,AAAA,浙江省绍兴市诸暨市山下湖镇珍珠产业园区,绍兴市,诸暨市珍珠小镇景区,
超山风景区,旅游景点,浙江省,AAAA,浙江省杭州市余杭区杭州市余杭区塘栖镇超山村,杭州市,超山风景区,
浙江省嘉兴市海盐县通元镇海伦庄园,旅游景点,浙江省,AAA,浙江省嘉兴市海盐县通元镇丰义村友谊组,嘉兴市,浙江省嘉兴市海盐县通元镇海伦庄园,
中共淳安县委旧址景区,旅游景点,浙江省,AA,浙江省杭州市淳安县王阜乡闻家村板桥自然村,杭州市,中共淳安县委旧址景区,
浙江省丽水市景宁畲族自治县畲族博物馆景区,旅游景点,浙江省,AAA,浙江省丽水市景宁畲族自治县人民南路350号,丽水市,浙江省丽水市景宁畲族自治县畲族博物馆景区,
浙江省杭州市富阳区景区名称杭州野生动物世界景区,旅游景点,浙江省,AAAA,浙江省杭州市富阳区杭富路九龙大道1号,杭州市,浙江省杭州市富阳区景区名称杭州野生动物世界景区,58971118
浙江省湖州市安吉县山川乡野大里景区,旅游景点,浙江省,AAA,浙江省湖州市安吉县山川乡大里村,湖州市,浙江省湖州市安吉县山川乡野大里景区,
浙江省台州市仙居县高迁古民居景区,旅游景点,浙江省,AAA,浙江省台州市仙居县高迁村,台州市,浙江省台州市仙居县高迁古民居景区,
劳岭（村）景区,旅游景点,浙江省,AAA,浙江省湖州市德清县莫干山镇劳岭村,湖州市,劳岭（村）景区,
印山越国王陵,旅游景点,浙江省,AA,浙江省绍兴市绍兴县兰亭镇里木栅,绍兴市,印山越国王陵,
浙江省温州市苍南县碗窑景区,旅游景点,浙江省,AAAA,浙江省温州市苍南县桥墩镇碗窑村,温州市,浙江省温州市苍南县碗窑景区,
稽东镇红豆仙霞景区,旅游景点,浙江省,AA,浙江省绍兴市绍兴县稽东镇龙东村,绍兴市,稽东镇红豆仙霞景区,
浙江省舟山市定海区长峙岛如心小镇,旅游景点,浙江省,AAA,浙江省舟山市定海区临城街道长峙岛如心广场688号,舟山市,浙江省舟山市定海区长峙岛如心小镇,0580-8832888
天台后岸乡居旅游景区,旅游景点,浙江省,AAAA,浙江省台州市天台县街头镇后岸村,台州市,天台后岸乡居旅游景区,
台州湾野生动物园景区,旅游景点,浙江省,AAA,浙江省台州市市辖区台州湾大道777-2号,台州市,台州湾野生动物园景区,88892218
浙江省宁波市宁海县宁海智能汽车小镇景区,旅游景点,浙江省,AAA,浙江省宁波市宁海县力洋镇腾飞路1号,宁波市,浙江省宁波市宁海县宁海智能汽车小镇景区,
硅谷小镇景区,旅游景点,浙江省,AAA,浙江省杭州市富阳区银湖街道富闲路9号,杭州市,硅谷小镇景区,
海宁市大缺口休闲农业有限公司,旅游景点,浙江省,AA,浙江省嘉兴市海宁市海宁市丁桥镇海潮村6组,嘉兴市,海宁市大缺口休闲农业有限公司,
黄冈山景区,旅游景点,浙江省,AAA,浙江省衢州市常山县常山县何家乡黄冈村,衢州市,黄冈山景区,
横溪镇风景旅游区,旅游景点,浙江省,AAA,浙江省宁波市鄞州区横溪镇,宁波市,横溪镇风景旅游区,
浙江省台州市仙居县大庄九都风情特色旅游区,旅游景点,浙江省,AAA,浙江省台州市仙居县,台州市,浙江省台州市仙居县大庄九都风情特色旅游区,
桐溪,旅游景点,浙江省,AA,浙江省温州市瑞安市瑞安市陶山镇桐星村,温州市,桐溪,
浙江省丽水市青田县阜山乡清真禅寺景区,旅游景点,浙江省,AAA,浙江省丽水市青田县阜山乡阜山村朱庵自然村188号,丽水市,浙江省丽水市青田县阜山乡清真禅寺景区,
遂昌县湖山森林公园有限公司,旅游景点,浙江省,AA,浙江省丽水市遂昌县遂昌县湖山乡大溪边,丽水市,遂昌县湖山森林公园有限公司,
东阳中国木雕城景区,旅游景点,浙江省,AAAA,浙江省金华市东阳市世贸大道188号,金华市,东阳中国木雕城景区,
诸葛八卦村旅游区,旅游景点,浙江省,AAAA,浙江省金华市兰溪市诸葛镇诸葛村,金华市,诸葛八卦村旅游区,
玉屏公园景区,旅游景点,浙江省,AAA,浙江省衢州市开化县花山路36号,衢州市,玉屏公园景区,
雷峰塔景区,旅游景点,浙江省,AAAA,浙江省杭州市西湖区南山路15号,杭州市,雷峰塔景区,
千岛湖石林景区,旅游景点,浙江省,AAAA,浙江省杭州市淳安县石林镇西岭村,杭州市,千岛湖石林景区,65020160
浙江省湖州市长兴县川步村景区,旅游景点,浙江省,AAA,浙江省湖州市长兴县龙山街道川步村,湖州市,浙江省湖州市长兴县川步村景区,
浙江省温州市瑞安市绿健生态农庄景区,旅游景点,浙江省,AAA,浙江省温州市瑞安市飞云江农场第四分场开发区大道旁,温州市,浙江省温州市瑞安市绿健生态农庄景区,0577-65168899
月老山景区,旅游景点,浙江省,AAA,浙江省温州市文成县温州市文成县西坑镇石垟林场,温州市,月老山景区,
嵊州市十八都江风景旅游区,旅游景点,浙江省,AAA,浙江省绍兴市嵊州市下王镇上店村,绍兴市,嵊州市十八都江风景旅游区,
浙江省金华市市辖区九峰山风景区,旅游景点,浙江省,AA,浙江省金华市市辖区汤溪镇九峰山风景区,金华市,浙江省金华市市辖区九峰山风景区,
天目山,旅游景点,浙江省,AAAA,浙江省杭州市临安市天目山南苑大楼,杭州市,天目山,
方盛农乐园景区,旅游景点,浙江省,AA,浙江省杭州市淳安县姜家镇上玉泉村,杭州市,方盛农乐园景区,
青田中国石雕文化旅游区,旅游景点,浙江省,AAAA,浙江省丽水市青田县涌泉街26号,丽水市,青田中国石雕文化旅游区,
盐官观潮景区,旅游景点,浙江省,AAAA,浙江省嘉兴市海宁市海宁市盐官镇宣德路1号,嘉兴市,盐官观潮景区,
九峰山风景区,旅游景点,浙江省,AA,浙江省金华市婺城区汤溪镇九峰山景区,金华市,九峰山风景区,
浙江省温州市洞头区东岙景区,旅游景点,浙江省,AAA,浙江省温州市洞头区东屏街道东岙村（东岙路140号）,温州市,浙江省温州市洞头区东岙景区,0577-63473233
遂昌千佛山景区有限公司,旅游景点,浙江省,AAAA,浙江省丽水市遂昌县遂昌县石练镇飞石岭,丽水市,遂昌千佛山景区有限公司,
花田荷塘,旅游景点,浙江省,AAA,浙江省衢州市柯城区万田乡荷塘村,衢州市,花田荷塘,
万奥农庄,旅游景点,浙江省,AAA,浙江省嘉兴市海盐县秦山街道北团大道188号,嘉兴市,万奥农庄,
温岭市锦屏公园,旅游景点,浙江省,AAA,浙江省台州市温岭市温岭市人民东路锦屏公园,台州市,温岭市锦屏公园,
浙江省宁波市慈溪市五磊山景区,旅游景点,浙江省,AAA,浙江省宁波市慈溪市观海卫镇禹皇路999号,宁波市,浙江省宁波市慈溪市五磊山景区,0574-63671996
白马岙黄金沙滩景区,旅游景点,浙江省,AA,浙江省台州市玉环县干江镇白马岙村,台州市,白马岙黄金沙滩景区,
钱清西天竺旅游风景区,旅游景点,浙江省,AA,浙江省绍兴市柯桥区钱清镇前梅村,绍兴市,钱清西天竺旅游风景区,
台州市台绣艺术馆,旅游景点,浙江省,AA,浙江省台州市椒江区椒江区云西路157-161号一楼,台州市,台州市台绣艺术馆,
仙居氧吧小镇景区,旅游景点,浙江省,AAAA,浙江省台州市仙居县白塔镇迎仙路1号,台州市,仙居氧吧小镇景区,87018001
庾村景区,旅游景点,浙江省,AAAA,浙江省湖州市德清县庾村集镇育才路1号,湖州市,庾村景区,
上虞盖北野藤葡萄园景区,旅游景点,浙江省,AAA,浙江省绍兴市上虞市上虞市盖北镇政府,绍兴市,上虞盖北野藤葡萄园景区,
海天一洲景区,旅游景点,浙江省,AAAA,浙江省宁波市慈溪市庵东镇虹桥大道一号,宁波市,海天一洲景区,
浙江省金华市浦江县3D罗源景区,旅游景点,浙江省,AAA,浙江省金华市浦江县罗源村,金华市,浙江省金华市浦江县3D罗源景区,
仙居大江南牡丹园,旅游景点,浙江省,AAA,浙江省台州市仙居县仙居台湾农民创业园内,台州市,仙居大江南牡丹园,
浙江省嘉兴市桐乡市野林滩金岛景区,旅游景点,浙江省,AA,浙江省嘉兴市桐乡市,嘉兴市,浙江省嘉兴市桐乡市野林滩金岛景区,
浙江省绍兴市柯桥区绍兴乔波冰雪世界旅游区,旅游景点,浙江省,AAAA,浙江省绍兴市柯桥区柯岩街道柯南大道2168号,绍兴市,浙江省绍兴市柯桥区绍兴乔波冰雪世界旅游区,
中国虫草博物馆,旅游景点,浙江省,AA,浙江省嘉兴市平湖市平湖经济技术开发区新群路1938号,嘉兴市,中国虫草博物馆,
牛头山景区,旅游景点,浙江省,AAAA,浙江省金华市武义县西联乡上田村,金华市,牛头山景区,
百丈漈景区,旅游景点,浙江省,AAAA,浙江省温州市文成县文成县大峃镇建设路315号,温州市,百丈漈景区,
浙江省温州市泰顺县百丈时尚体育小镇景区,旅游景点,浙江省,AAA,浙江省温州市泰顺县百丈镇江园路92号,温州市,浙江省温州市泰顺县百丈时尚体育小镇景区,
新昌智能装备小镇景区,旅游景点,浙江省,AAA,浙江省绍兴市新昌县梅渚镇镇前路48号,绍兴市,新昌智能装备小镇景区,
绍兴县玫瑰休闲山庄,旅游景点,浙江省,AA,浙江省绍兴市绍兴县王坛镇南岸村,绍兴市,绍兴县玫瑰休闲山庄,
平湖莫氏庄园景区,旅游景点,浙江省,AAA,浙江省嘉兴市平湖市当湖街道人民西路39号,嘉兴市,平湖莫氏庄园景区,0573—85022020
济公故居,旅游景点,浙江省,AA,浙江省台州市天台县赤城路449号,台州市,济公故居,
浙西大龙湾景区,旅游景点,浙江省,AAA,浙江省杭州市临安区龙岗镇龙井村,杭州市,浙西大龙湾景区,
浙江省杭州市淳安县姜家镇龙川湾景区,旅游景点,浙江省,AAA,浙江省杭州市淳安县姜家镇狮城路538号,杭州市,浙江省杭州市淳安县姜家镇龙川湾景区,
浙江省宁波市东钱湖旅游度假区马山休闲旅游景区,旅游景点,浙江省,AAAA,浙江省宁波市东钱湖旅游度假区,宁波市,浙江省宁波市东钱湖旅游度假区马山休闲旅游景区,
永康国际会展中心,旅游景点,浙江省,AAA,浙江省金华市永康市五湖路一号,金华市,永康国际会展中心,
浙江省宁波市江北区达人村,旅游景点,浙江省,AAA,浙江省宁波市江北区甬江街道梅竹路达人村村委会,宁波市,浙江省宁波市江北区达人村,
浙江省衢州市常山县黄冈山景区,旅游景点,浙江省,AAA,浙江省衢州市常山县何家乡黄冈村,衢州市,浙江省衢州市常山县黄冈山景区,
绍兴市名人故居管理处（绍兴周恩来纪念馆）,旅游景点,浙江省,AAA,浙江省绍兴市市辖区绍兴市劳动路369号,绍兴市,绍兴市名人故居管理处（绍兴周恩来纪念馆）,
青田县小舟山乡,旅游景点,浙江省,AA,浙江省丽水市青田县小舟山乡,丽水市,青田县小舟山乡,
磐安花溪风景区,旅游景点,浙江省,AAA,浙江省金华市磐安县安文镇花溪村,金华市,磐安花溪风景区,
镇海i设计小镇景区,旅游景点,浙江省,AAA,浙江省宁波市镇海区中官西路777号,宁波市,镇海i设计小镇景区,
浙江省金华市永康市绿地生态农庄,旅游景点,浙江省,AAA,浙江省金华市永康市花街镇大屋绿地生态农庄,金华市,浙江省金华市永康市绿地生态农庄,
柯城中国荆溪围棋谷景区,旅游景点,浙江省,AAA,浙江省衢州市柯城区石室乡荆溪村,衢州市,柯城中国荆溪围棋谷景区,
桐庐县健康小镇景区,旅游景点,浙江省,AAA,浙江省杭州市桐庐县城南街道,杭州市,桐庐县健康小镇景区,
三衢石林景区,旅游景点,浙江省,AAAA,浙江省衢州市常山县常山县辉埠镇路里坑村,衢州市,三衢石林景区,
浙江省台州市玉环市清港大雷山景区,旅游景点,浙江省,AAA,浙江省台州市玉环市,台州市,浙江省台州市玉环市清港大雷山景区,87104601
嘉善孙道临电影艺术馆,旅游景点,浙江省,AA,浙江省嘉兴市嘉善县嘉善县罗星街道人民大道1号,嘉兴市,嘉善孙道临电影艺术馆,
浙江省台州市三门县三门农博园景区,旅游景点,浙江省,AAA,浙江省台州市三门县农博大道1号,台州市,浙江省台州市三门县三门农博园景区,
古堰画乡,旅游景点,浙江省,AAAA,浙江省丽水市莲都区莲都区碧湖镇保定村,丽水市,古堰画乡,
衢州开化古田山风景旅游区,旅游景点,浙江省,AAAA,浙江省衢州市开化县开化县古田山自然保护区,衢州市,衢州开化古田山风景旅游区,
浙江省杭州市临安区湍口温泉旅游景区,旅游景点,浙江省,AAA,浙江省杭州市临安区湍口镇湍泉路1号,杭州市,浙江省杭州市临安区湍口温泉旅游景区,
浙江省嘉兴市海宁市钱君匋艺术研究馆,旅游景点,浙江省,AA,浙江省嘉兴市海宁市西山路493号,嘉兴市,浙江省嘉兴市海宁市钱君匋艺术研究馆,87130192
浙江省嘉兴市海宁市丁桥镇新仓村梁家墩游客中心,旅游景点,浙江省,AAA,浙江省嘉兴市海宁市丁桥镇新仓村梁家墩游客中心,嘉兴市,浙江省嘉兴市海宁市丁桥镇新仓村梁家墩游客中心,13511302244
浙江省绍兴市上虞区上浦镇东山湖景区,旅游景点,浙江省,AAA,浙江省绍兴市上虞区上浦镇东山村东山湖景区,绍兴市,浙江省绍兴市上虞区上浦镇东山湖景区,
柯岩风景区,旅游景点,浙江省,AAAA,浙江省绍兴市柯桥区柯岩大道558号,绍兴市,柯岩风景区,84365566
浙江省台州市临海市浙东休闲家居城,旅游景点,浙江省,AAA,浙江省台州市临海市临海大道1320号,台州市,浙江省台州市临海市浙东休闲家居城,
浙江省舟山市嵊泗县花鸟岛景区,旅游景点,浙江省,AAA,浙江省舟山市嵊泗县花鸟乡连心路98号,舟山市,浙江省舟山市嵊泗县花鸟岛景区,
浙江省绍兴市大禹陵景区,旅游景点,浙江省,AAAA,浙江省绍兴市市辖区,绍兴市,浙江省绍兴市大禹陵景区,
浙江省嘉兴市海盐县海盐核电小镇景区,旅游景点,浙江省,AAA,浙江省嘉兴市海盐县秦山街道核电大道和秦山大道交叉口,嘉兴市,浙江省嘉兴市海盐县海盐核电小镇景区,
浙江英博雁荡山啤酒有限公司旅游区,旅游景点,浙江省,AA,浙江省温州市乐清市乐清市大荆镇荆水路124号,温州市,浙江英博雁荡山啤酒有限公司旅游区,
泰顺廊桥文化园,旅游景点,浙江省,AAAA,浙江省温州市泰顺县泗溪镇,温州市,泰顺廊桥文化园,
马寅初故居,旅游景点,浙江省,AA,浙江省绍兴市嵊州市浦口街道名人路74号,绍兴市,马寅初故居,
嵊州越剧小镇,旅游景点,浙江省,AAA,浙江省绍兴市嵊州市甘霖施家岙问越路1号,绍兴市,嵊州越剧小镇,
渔歌小镇菊园,旅游景点,浙江省,AAA,浙江省金华市金东区孝顺镇低田下马村,金华市,渔歌小镇菊园,
神仙居景区,旅游景点,浙江省,AAAAA,浙江省台州市仙居县白塔镇神仙居景区,台州市,神仙居景区,
仙都景区,旅游景点,浙江省,AAAAA,浙江省丽水市缙云县仙都街道,丽水市,仙都景区,
浙江省台州市三门县栖心谷景区,旅游景点,浙江省,AAA,浙江省台州市三门县沙柳街道板樟山村,台州市,浙江省台州市三门县栖心谷景区,
嘉兴市梅花洲景区,旅游景点,浙江省,AAAA,浙江省嘉兴市南湖区凤桥镇三星路十号,嘉兴市,嘉兴市梅花洲景区,
浙江天使之泪珍珠文化体验园,旅游景点,浙江省,AAA,浙江省绍兴市诸暨市山下湖镇诸山路25号,绍兴市,浙江天使之泪珍珠文化体验园,0575-87687178
风雅陶笛文化创意园,旅游景点,浙江省,AA,浙江省嘉兴市南湖区凤桥工业园三星路18号,嘉兴市,风雅陶笛文化创意园,
浙江省宁波市余姚市四明山森林公园,旅游景点,浙江省,AAA,浙江省宁波市余姚市四明山镇甘竹岭,宁波市,浙江省宁波市余姚市四明山森林公园,
浙江省温州市鹿城区温州米房cei文创园景区,旅游景点,浙江省,AAA,浙江省温州市鹿城区滨江街道瓯江路5255号,温州市,浙江省温州市鹿城区温州米房cei文创园景区,
黄岩大寺基景区,旅游景点,浙江省,AAA,浙江省台州市黄岩大寺基林场,台州市,黄岩大寺基景区,
宁波慈城古县城景区,旅游景点,浙江省,AAAA,浙江省宁波市江北区宁波慈城镇东城沿路88号,宁波市,宁波慈城古县城景区,
浙江省丽水市松阳县箬寮原始林景区,旅游景点,浙江省,AAAA,浙江省丽水市松阳县安民乡李坑村,丽水市,浙江省丽水市松阳县箬寮原始林景区,
浙江省杭州市建德市七里扬帆景区,旅游景点,浙江省,AAAA,浙江省杭州市建德市梅城镇七里扬帆景区,杭州市,浙江省杭州市建德市七里扬帆景区,58312587
浙江省丽水市缙云县河阳古民居景区,旅游景点,浙江省,AAAA,浙江省丽水市缙云县新建镇河阳村,丽水市,浙江省丽水市缙云县河阳古民居景区,
浦江仙华山风景区,旅游景点,浙江省,AAAA,浙江省金华市浦江县仙华山村,金华市,浦江仙华山风景区,
桃园洪福景区,旅游景点,浙江省,AAA,浙江省衢州市江山市塘源口乡洪福村,衢州市,桃园洪福景区,
台州大岩头农业观光园,旅游景点,浙江省,AAA,浙江省台州市温岭市坞根镇蒋山村大岩头,台州市,台州大岩头农业观光园,
浙江省嘉兴市海宁市海宁中国皮革城景区,旅游景点,浙江省,AAAA,浙江省嘉兴市海宁市海州西路201号,嘉兴市,浙江省嘉兴市海宁市海宁中国皮革城景区,
天脊龙门景区,旅游景点,浙江省,AAAA,浙江省衢州市衢江区衢州市衢江区黄坛口乡,衢州市,天脊龙门景区,
桃花源景区,旅游景点,浙江省,AA,浙江省衢州市常山县常山县新桥乡,衢州市,桃花源景区,
浙江省台州市三门县木勺沙滩,旅游景点,浙江省,AA,浙江省台州市三门县,台州市,浙江省台州市三门县木勺沙滩,
伊佳林开心梦工场景区,旅游景点,浙江省,AAA,浙江省嘉兴市平湖市经济开发区兴平四路568号,嘉兴市,伊佳林开心梦工场景区,
千岛湖石林仙人谷漂流风景旅游区,旅游景点,浙江省,AAA,浙江省杭州市淳安县石林镇双西村,杭州市,千岛湖石林仙人谷漂流风景旅游区,
赤城山景区,旅游景点,浙江省,AA,浙江省台州市天台县天台县境内,台州市,赤城山景区,
玲珑湾景区,旅游景点,浙江省,AAA,浙江省湖州市吴兴区妙西镇五星村,湖州市,玲珑湾景区,
漫行大街景区,旅游景点,浙江省,AAA,浙江省衢州市龙游县大街乡贺田村、新槽村、杨村村,衢州市,漫行大街景区,0570-7077500
浙东休闲家居城,旅游景点,浙江省,AA,浙江省台州市临海市临海市临海大道（东）1320号,台州市,浙东休闲家居城,
锦绣天地蚕桑博览园,旅游景点,浙江省,AA,浙江省嘉兴市桐乡市桐乡市高桥镇,嘉兴市,锦绣天地蚕桑博览园,
浙江省温州市泰顺县廊桥文化园景区,旅游景点,浙江省,AAAA,浙江省温州市泰顺县泗溪镇下桥村,温州市,浙江省温州市泰顺县廊桥文化园景区,
义乌何斯路景区,旅游景点,浙江省,AAA,浙江省金华市义乌市城西街道何斯路村,金华市,义乌何斯路景区,
浙江省绍兴市嵊州市百丈飞瀑风景旅游区,旅游景点,浙江省,AAA,浙江省绍兴市嵊州市王院乡金钩村,绍兴市,浙江省绍兴市嵊州市百丈飞瀑风景旅游区,
上旺?岩里乡村休闲旅游区,旅游景点,浙江省,AA,浙江省绍兴市越城区绍兴县富盛镇上旺村,绍兴市,上旺?岩里乡村休闲旅游区,
古田山风景旅游区,旅游景点,浙江省,AAAA,浙江省衢州市开化县苏庄镇古田山风景旅游区,衢州市,古田山风景旅游区,
浙江省绍兴市诸暨市斗岩风景区,旅游景点,浙江省,AAA,浙江省绍兴市诸暨市牌头镇斗岩风景区,绍兴市,浙江省绍兴市诸暨市斗岩风景区,
浙江省丽水市龙泉市白云岩景区,旅游景点,浙江省,AAA,浙江省丽水市龙泉市西街街道下樟村,丽水市,浙江省丽水市龙泉市白云岩景区,
武义大红岩景区,旅游景点,浙江省,AAAA,浙江省金华市武义县武义县白姆乡横山村,金华市,武义大红岩景区,
嘉兴市清园生态农庄有限公司,旅游景点,浙江省,AA,浙江省嘉兴市南湖区新丰镇民丰村,嘉兴市,嘉兴市清园生态农庄有限公司,
浙江省湖州市安吉县浪漫山川景区,旅游景点,浙江省,AAAA,浙江省湖州市安吉县山川乡,湖州市,浙江省湖州市安吉县浪漫山川景区,
海盐县绮园景区投资管理有限公司,旅游景点,浙江省,AAAA,浙江省嘉兴市海盐县武原街道海滨东路37号9室,嘉兴市,海盐县绮园景区投资管理有限公司,
舟山市定海区白泉万锦湖渔庄,旅游景点,浙江省,A,浙江省舟山市定海区白泉镇河东文化园（叶家小塘下）,舟山市,舟山市定海区白泉万锦湖渔庄,0580-8277555
浙江省丽水市青田县太鹤公园,旅游景点,浙江省,AA,浙江省丽水市青田县公园路22号,丽水市,浙江省丽水市青田县太鹤公园,
大陈古村景区,旅游景点,浙江省,AAA,浙江省衢州市江山市大陈乡大陈村273号,衢州市,大陈古村景区,
德清上杨景区,旅游景点,浙江省,AAA,浙江省湖州市德清县下渚湖街道上杨村,湖州市,德清上杨景区,
浙江省杭州市桐庐县智慧安防小镇景区,旅游景点,浙江省,AAA,浙江省杭州市桐庐县洋洲南路199号,杭州市,浙江省杭州市桐庐县智慧安防小镇景区,
淡溪镇四都王十朋故里景区,旅游景点,浙江省,AAA,浙江省温州市乐清市淡溪镇梅溪村,温州市,淡溪镇四都王十朋故里景区,
云岚牧场景区,旅游景点,浙江省,AAA,浙江省温州市泰顺县雅阳镇墩头村高场坪,温州市,云岚牧场景区,
荆溪围棋谷景区,旅游景点,浙江省,AAA,浙江省衢州市柯城区石室乡荆溪村,衢州市,荆溪围棋谷景区,
浙江省台州市玉环市玉环百丈岩景区,旅游景点,浙江省,AAA,浙江省台州市玉环市芦浦镇西塘村百丈东路,台州市,浙江省台州市玉环市玉环百丈岩景区,87144059
浙江省台州市黄岩区柔川景区,旅游景点,浙江省,AAAA,浙江省台州市黄岩区屿头乡沙滩村,台州市,浙江省台州市黄岩区柔川景区,
溪口—滕头景区,旅游景点,浙江省,AAAAA,浙江省宁波市奉化区萧王庙街道滕头村，溪口镇武岭路10号楼,宁波市,溪口—滕头景区,
周恩来纪念馆景区,旅游景点,浙江省,AAA,浙江省绍兴市市辖区劳动路369号,绍兴市,周恩来纪念馆景区,85111664
武义俞源,旅游景点,浙江省,AAA,浙江省金华市武义县金华市武义县俞源乡俞源村,金华市,武义俞源,
浙江省舟山市定海区马岙旅游区,旅游景点,浙江省,AAA,浙江省舟山市定海区马岙街道白马街16号,舟山市,浙江省舟山市定海区马岙旅游区,0580-8173678
浙江省舟山市定海区金塘树弄李子苑,旅游景点,浙江省,A,浙江省舟山市定海区金塘镇山潭村树弄,舟山市,浙江省舟山市定海区金塘树弄李子苑,
刘家塘蜗牛谷景区,旅游景点,浙江省,AAA,浙江省湖州市安吉县上墅乡刘家塘村,湖州市,刘家塘蜗牛谷景区,
杭州余杭运河.塘栖古镇景区,旅游景点,浙江省,AAAA,浙江省杭州市余杭区杭州市余杭区塘栖镇酱园弄9号,杭州市,杭州余杭运河.塘栖古镇景区,
浙江省台州市黄岩区九峰景区,旅游景点,浙江省,AAAA,浙江省台州市黄岩区九峰路295号,台州市,浙江省台州市黄岩区九峰景区,
嵊州市崇仁古镇,旅游景点,浙江省,AA,浙江省绍兴市嵊州市嵊州市崇仁镇玉山公路29号,绍兴市,嵊州市崇仁古镇,
太师山庄,旅游景点,浙江省,AA,浙江省嘉兴市桐乡市乌镇太师桥下,嘉兴市,太师山庄,
宁波海洋世界,旅游景点,浙江省,AAAA,浙江省宁波市江东区宁波市江东区桑田路936号,宁波市,宁波海洋世界,
浙江省金华市兰溪市新天地生态休闲农场,旅游景点,浙江省,AAA,浙江省金华市兰溪市水亭畲族乡下方泉村,金华市,浙江省金华市兰溪市新天地生态休闲农场,
浙江省湖州市长兴县金钉子远古世界景区,旅游景点,浙江省,AAAA,浙江省湖州市长兴县煤山镇槐坎葆青,湖州市,浙江省湖州市长兴县金钉子远古世界景区,
浙江省丽水市庆元县莲湖村景区,旅游景点,浙江省,AAA,浙江省丽水市庆元县,丽水市,浙江省丽水市庆元县莲湖村景区,
商墓潮音庙景区,旅游景点,浙江省,AA,浙江省湖州市南浔区千金镇商墓村,湖州市,商墓潮音庙景区,
浙江省金华市东阳市花园村景区,旅游景点,浙江省,AAAA,浙江省金华市东阳市花园大道66号,金华市,浙江省金华市东阳市花园村景区,
浙江省温州市文成县天顶湖生态农庄景区,旅游景点,浙江省,AAA,浙江省温州市文成县百丈漈镇腾飞小区对面,温州市,浙江省温州市文成县天顶湖生态农庄景区,0577-59025666
浙江省丽水市龙泉市沈广隆铸剑园景区,旅游景点,浙江省,AAA,浙江省丽水市龙泉市广通街88号,丽水市,浙江省丽水市龙泉市沈广隆铸剑园景区,0578-7122257
沈家门接待禅寺旅游景区,旅游景点,浙江省,AA,浙江省舟山市普陀区沈家门街道天打岩路6号,舟山市,沈家门接待禅寺旅游景区,
杭州新安江旅业七里扬帆景区,旅游景点,浙江省,AAAA,浙江省杭州市建德市杭州市建德市梅城镇,杭州市,杭州新安江旅业七里扬帆景区,
浙江省绍兴市新昌县天烛仙境风景旅游,旅游景点,浙江省,AAA,浙江省绍兴市新昌县七星街道天烛湖水库,绍兴市,浙江省绍兴市新昌县天烛仙境风景旅游,13967598292
浙江省杭州市临安区天目山景区,旅游景点,浙江省,AAAA,浙江省杭州市临安区天目山镇天目山景区,杭州市,浙江省杭州市临安区天目山景区,
神龙谷景区,旅游景点,浙江省,AAAA,浙江省丽水市遂昌县垵口乡神龙谷景区,丽水市,神龙谷景区,
安吉竹子博览园,旅游景点,浙江省,AAAA,浙江省湖州市安吉县安吉县城南,湖州市,安吉竹子博览园,
王化·日铸岭旅游景区,旅游景点,浙江省,AA,浙江省绍兴市绍兴县平水镇王化村,绍兴市,王化·日铸岭旅游景区,
天台县南屏旅游景区,旅游景点,浙江省,AAA,浙江省台州市天台县南屏乡,台州市,天台县南屏旅游景区,
龙泉白云岩景区,旅游景点,浙江省,AAA,浙江省丽水市龙泉市,丽水市,龙泉白云岩景区,
浙江省衢州市江山市仙霞关景区,旅游景点,浙江省,AAAA,浙江省衢州市江山市保安乡慕仙路1号附近,衢州市,浙江省衢州市江山市仙霞关景区,
浙江省杭州市钱塘新区杭州医药港小镇,旅游景点,浙江省,AAA,浙江省杭州市钱塘新区下沙街道福城路291号,杭州市,浙江省杭州市钱塘新区杭州医药港小镇,
浙江省金华市兰溪市六洞山风景区,旅游景点,浙江省,AAAA,浙江省金华市兰溪市灵洞乡洞源村,金华市,浙江省金华市兰溪市六洞山风景区,
民俗风情馆,旅游景点,浙江省,AA,浙江省嘉兴市平湖市平湖市环城北路31弄1号,嘉兴市,民俗风情馆,
浙江上虞国际裘皮城,旅游景点,浙江省,AA,浙江省绍兴市上虞市浙江上虞市杭甬高速公路上虞道口,绍兴市,浙江上虞国际裘皮城,
浙江省湖州市长兴县水口乡顾渚村风景区,旅游景点,浙江省,AAA,浙江省湖州市长兴县水口乡顾渚村,湖州市,浙江省湖州市长兴县水口乡顾渚村风景区,
浙江省温州市文成县森林氧吧小镇,旅游景点,浙江省,AAAA,浙江省温州市文成县,温州市,浙江省温州市文成县森林氧吧小镇,
浙江省宁波市镇海区江南第一学堂景区,旅游景点,浙江省,AAA,浙江省宁波市镇海区庄市街道芳辰路22号江南第一学堂,宁波市,浙江省宁波市镇海区江南第一学堂景区,
宁波市天一阁博物馆,旅游景点,浙江省,AAAA,浙江省宁波市海曙区宁波市天一街10号,宁波市,宁波市天一阁博物馆,
浙江省嘉兴市平湖市新仓镇莲塘景区（法华寺）,旅游景点,浙江省,AAA,浙江省嘉兴市平湖市新仓镇眉家路108号,嘉兴市,浙江省嘉兴市平湖市新仓镇莲塘景区（法华寺）,
竺梅枕文化博物馆旅游区,旅游景点,浙江省,AAA,浙江省台州市仙居县艺城中路11号,台州市,竺梅枕文化博物馆旅游区,
宁波梁祝文化园管理有限公司,旅游景点,浙江省,AAAA,浙江省宁波市鄞州区高桥镇梁祝路1号,宁波市,宁波梁祝文化园管理有限公司,
桐乡植物园经营管理有限公司,旅游景点,浙江省,AA,浙江省嘉兴市桐乡市桐乡市梧桐街道振兴东路振东大厦1幢,嘉兴市,桐乡植物园经营管理有限公司,
浙江省金华市东阳市横店影视城,旅游景点,浙江省,AAAAA,浙江省金华市东阳市万盛街58号,金华市,浙江省金华市东阳市横店影视城,
浙江省杭州市临安区云制造小镇景区,旅游景点,浙江省,AAA,浙江省杭州市临安区,杭州市,浙江省杭州市临安区云制造小镇景区,
浙江省台州市市辖区台州无人机航空小镇景区,旅游景点,浙江省,AAA,浙江省台州市集聚区东部新区青龙浦绿廊内,台州市,浙江省台州市市辖区台州无人机航空小镇景区,
浙江省绍兴市嵊州市十八都江风景旅游区,旅游景点,浙江省,AAA,浙江省绍兴市嵊州市下王镇泉岗村,绍兴市,浙江省绍兴市嵊州市十八都江风景旅游区,
浙江省台州市临海市碧水湾景区,旅游景点,浙江省,AA,浙江省台州市临海市小芝镇石桥村,台州市,浙江省台州市临海市碧水湾景区,
浙江省衢州市江山市和睦彩陶旅游区,旅游景点,浙江省,AAA,浙江省衢州市江山市清湖街道和睦村,衢州市,浙江省衢州市江山市和睦彩陶旅游区,13967002159
仙霞关景区,旅游景点,浙江省,AAAA,浙江省衢州市江山市江山市保安乡,衢州市,仙霞关景区,
畲竹社里景区,旅游景点,浙江省,AAA,浙江省衢州市龙游县沐尘畲族乡社里村下社里1号,衢州市,畲竹社里景区,
杉杉普陀天地景区,旅游景点,浙江省,AAA,浙江省舟山市普陀区东港街道海印路850号,舟山市,杉杉普陀天地景区,0580－6878339
港龙世界木屋博览园,旅游景点,浙江省,AA,浙江省嘉兴市桐乡市环城南路558号,嘉兴市,港龙世界木屋博览园,
永安溪漂流,旅游景点,浙江省,AAA,浙江省台州市仙居县仙居县步路乡,台州市,永安溪漂流,
浙江省宁波市鄞州区鄞州四明金融小镇景区,旅游景点,浙江省,AAA,浙江省宁波市鄞州区首南街道,宁波市,浙江省宁波市鄞州区鄞州四明金融小镇景区,89296687
浙江省温州市乐清市雁荡山景区,旅游景点,浙江省,AAAAA,浙江省温州市乐清市雁荡镇,温州市,浙江省温州市乐清市雁荡山景区,
浙江省嘉兴市桐乡市蚕桑产业观光园,旅游景点,浙江省,AA,浙江省嘉兴市桐乡市梧桐街道新玄村冷水湾组,嘉兴市,浙江省嘉兴市桐乡市蚕桑产业观光园,
余杭梦栖小镇,旅游景点,浙江省,AAA,浙江省杭州市余杭区良渚街道3111号,杭州市,余杭梦栖小镇,
浙江省嘉兴市桐乡市君匋艺术院景区,旅游景点,浙江省,AA,浙江省嘉兴市桐乡市庆丰南路59号,嘉兴市,浙江省嘉兴市桐乡市君匋艺术院景区,
浙江省绍兴市柯桥区稽东镇雪窦岭旅游景区,旅游景点,浙江省,AA,浙江省绍兴市柯桥区稽东镇止步坑村,绍兴市,浙江省绍兴市柯桥区稽东镇雪窦岭旅游景区,
杭州千岛湖森林氧吧景区,旅游景点,浙江省,AAA,浙江省杭州市淳安县千岛湖镇淡竹黄智山,杭州市,杭州千岛湖森林氧吧景区,64830808
浙江省丽水市遂昌县神龙谷漂流,旅游景点,浙江省,AA,浙江省丽水市遂昌县垵口乡大山村,丽水市,浙江省丽水市遂昌县神龙谷漂流,
五四（村）景区,旅游景点,浙江省,AAA,浙江省湖州市德清县阜溪街道五四村,湖州市,五四（村）景区,
潘家浜景区,旅游景点,浙江省,AAA,浙江省嘉兴市秀洲区新塍镇潘家浜村,嘉兴市,潘家浜景区,
新泾港景区,旅游景点,浙江省,AAA,浙江省嘉兴市嘉善县干窑镇窑洪路南100米,嘉兴市,新泾港景区,
玉苍山风景区,旅游景点,浙江省,AAA,浙江省温州市苍南县桥墩镇玉苍山国家森林公园,温州市,玉苍山风景区,
庆元国家级森林公园,旅游景点,浙江省,AAA,浙江省丽水市庆元县庆元县屏都镇八都大街18号,丽水市,庆元国家级森林公园,
浙江省丽水市遂昌县红星坪温泉度假村,旅游景点,浙江省,AAA,浙江省丽水市遂昌县湖山乡红星坪村,丽水市,浙江省丽水市遂昌县红星坪温泉度假村,
后坞（村）景区,旅游景点,浙江省,AAA,浙江省湖州市德清县莫干山镇后坞村,湖州市,后坞（村）景区,5728041032
物联网小镇景区,旅游景点,浙江省,AAA,浙江省杭州市滨江区阡陌路482号智慧e谷大楼A楼3楼,杭州市,物联网小镇景区,
浙江省宁波市宁海县许家山历史文化名村,旅游景点,浙江省,AAA,浙江省宁波市宁海县茶院乡许民村民户田52号,宁波市,浙江省宁波市宁海县许家山历史文化名村,57465123956
浙江省杭州市临安区板桥镇文武上田村落景区,旅游景点,浙江省,AAA,浙江省杭州市临安区板桥镇上田村花牌楼18号,杭州市,浙江省杭州市临安区板桥镇文武上田村落景区,
浙江省台州市临海市龙湾海滨景区,旅游景点,浙江省,AAA,浙江省台州市临海市桃渚镇南门坑村,台州市,浙江省台州市临海市龙湾海滨景区,
浙江省湖州市吴兴区移沿山生态景区,旅游景点,浙江省,AAAA,浙江省湖州市吴兴区八里店镇移沿山村锡洪漾,湖州市,浙江省湖州市吴兴区移沿山生态景区,
浙江省绍兴市嵊州市崇仁古镇,旅游景点,浙江省,AA,浙江省绍兴市嵊州市崇仁镇,绍兴市,浙江省绍兴市嵊州市崇仁古镇,
香榧森林公园,旅游景点,浙江省,AAA,浙江省绍兴市诸暨市赵家镇,绍兴市,香榧森林公园,
浙江省温州市瑞安市幸福谷乐园景区,旅游景点,浙江省,AAA,浙江省温州市瑞安市下泽村,温州市,浙江省温州市瑞安市幸福谷乐园景区,
浙江省嘉兴市秀洲区小蓬莱景区,旅游景点,浙江省,AA,浙江省嘉兴市秀洲区新塍镇蓬莱路792号,嘉兴市,浙江省嘉兴市秀洲区小蓬莱景区,
药王山景区,旅游景点,浙江省,AAAA,浙江省衢州市衢江区衢州市衢江区黄坛口乡,衢州市,药王山景区,
浙江省台州市临海市灵湖景区,旅游景点,浙江省,AAAA,浙江省台州市临海市临海大道,台州市,浙江省台州市临海市灵湖景区,
浙江省湖州市吴兴区湖州首创奥特莱斯,旅游景点,浙江省,AAA,浙江省湖州市吴兴区滨湖大道518号,湖州市,浙江省湖州市吴兴区湖州首创奥特莱斯,
浙江省丽水市遂昌县长濂村,旅游景点,浙江省,AAA,浙江省丽水市遂昌县云峰街道长濂村便民服务中心,丽水市,浙江省丽水市遂昌县长濂村,
新昌大佛寺风景旅游发展有限公司,旅游景点,浙江省,AAAA,浙江省绍兴市新昌县环城南路35号,绍兴市,新昌大佛寺风景旅游发展有限公司,
新昌县沃洲湖旅游资源开发有限公司,旅游景点,浙江省,AAA,浙江省绍兴市新昌县大市聚镇君殿,绍兴市,新昌县沃洲湖旅游资源开发有限公司,
嘉兴市清园生态农庄,旅游景点,浙江省,AA,浙江省嘉兴市南湖区新丰镇民丰村,嘉兴市,嘉兴市清园生态农庄,
陆羽茶文化景区,旅游景点,浙江省,AA,浙江省湖州市吴兴区吴兴区妙西镇,湖州市,陆羽茶文化景区,
浙江省嘉兴市秀洲区秀洲光伏小镇景区,旅游景点,浙江省,AAA,浙江省嘉兴市秀洲区高照街道康和路1288号,嘉兴市,浙江省嘉兴市秀洲区秀洲光伏小镇景区,
黄公望隐居地景区,旅游景点,浙江省,AAAA,浙江省杭州市富阳区东洲街道黄公望村,杭州市,黄公望隐居地景区,0571-63167758
浙江省金华市金东区金华花卉生态示范园旅游区,旅游景点,浙江省,AAA,浙江省金华市金东区澧浦镇澧浦村,金华市,浙江省金华市金东区金华花卉生态示范园旅游区,
浙江省金华市金东区岭下镇岭五村坡阳古街景区,旅游景点,浙江省,AAA,浙江省金华市金东区,金华市,浙江省金华市金东区岭下镇岭五村坡阳古街景区,
长屿硐天,旅游景点,浙江省,AAAA,浙江省台州市温岭市新河镇长屿硐天风景区,台州市,长屿硐天,
龙溪动漫花谷景区,旅游景点,浙江省,AAA,浙江省台州市玉环县玉环县龙溪镇山里村,台州市,龙溪动漫花谷景区,
霞山古村景区,旅游景点,浙江省,AAA,浙江省衢州市开化县马金镇霞山村,衢州市,霞山古村景区,13575644668
平水镇同康村绿林竹海景区,旅游景点,浙江省,AAA,浙江省绍兴市柯桥区平水镇同康村,绍兴市,平水镇同康村绿林竹海景区,
浙江省嘉兴市桐乡市华腾猪舍里景区,旅游景点,浙江省,AAA,浙江省嘉兴市桐乡市,嘉兴市,浙江省嘉兴市桐乡市华腾猪舍里景区,
诸葛仙山旅游风景区,旅游景点,浙江省,AA,浙江省绍兴市越城区绍兴县富盛镇诸葛山村,绍兴市,诸葛仙山旅游风景区,
永安溪休闲绿道,旅游景点,浙江省,AAAA,浙江省台州市仙居县,台州市,永安溪休闲绿道,
王羲之故居旅游区,旅游景点,浙江省,AA,浙江省绍兴市嵊州市嵊州市金庭镇羲之村,绍兴市,王羲之故居旅游区,
陈溪风情小镇景区,旅游景点,浙江省,AAA,浙江省绍兴市上虞市上虞区陈溪乡陈溪村大庙建山路1号,绍兴市,陈溪风情小镇景区,
小营江南红巷景区,旅游景点,浙江省,AAA,浙江省杭州市上城区小营巷62号,杭州市,小营江南红巷景区,
石墎景区,旅游景点,浙江省,AAA,浙江省衢州市龙游县溪口镇石角村1号,衢州市,石墎景区,
浙江省宁波市象山县象山影视城景区,旅游景点,浙江省,AAAA,浙江省宁波市象山县新桥镇黄公岙村,宁波市,浙江省宁波市象山县象山影视城景区,
浙江省温州市文成县九溪欢乐谷景区,旅游景点,浙江省,AAA,浙江省温州市文成县峃口镇九山村九溪底,温州市,浙江省温州市文成县九溪欢乐谷景区,
浙江省湖州市长兴县绿野仙踪景区,旅游景点,浙江省,AAA,浙江省湖州市长兴县龙山街道川步村,湖州市,浙江省湖州市长兴县绿野仙踪景区,0572-6670209
白沙景区,旅游景点,浙江省,AAA,浙江省舟山市普陀区白沙岛,舟山市,白沙景区,
茗博园景区,旅游景点,浙江省,AAA,浙江省衢州市开化县马金镇花园村,衢州市,茗博园景区,13587028119
宁波浅水湾乡村欢乐世界,旅游景点,浙江省,AAA,浙江省宁波市鄞州区宁波市鄞州区邱隘镇张家瀛村东外环路8号,宁波市,宁波浅水湾乡村欢乐世界,
德清通航智造小镇景区,旅游景点,浙江省,AAA,浙江省湖州市德清县雷甸镇启航路,湖州市,德清通航智造小镇景区,0572-8487866
婺州古城景区,旅游景点,浙江省,AAAA,浙江省金华市婺城区城东街道鼓楼里78号,金华市,婺州古城景区,
千岛秀丝绸文化园景区,旅游景点,浙江省,AA,浙江省杭州市淳安县鼓山工业园区华盛路99号,杭州市,千岛秀丝绸文化园景区,0571-24816399
绍兴乔波冰雪世界体育发展有限公司,旅游景点,浙江省,AAAA,浙江省绍兴市绍兴县柯岩街道柯南大道2168号,绍兴市,绍兴乔波冰雪世界体育发展有限公司,
林海归真森林公园,旅游景点,浙江省,AA,浙江省杭州市淳安县千岛湖镇富文乡青田,杭州市,林海归真森林公园,
温州瑞安桐溪景区,旅游景点,浙江省,AAA,浙江省温州市瑞安市桐浦镇桐溪村,温州市,温州瑞安桐溪景区,65435001
杭州宋城景区,旅游景点,浙江省,AAAA,浙江省杭州市西湖区之江路148号,杭州市,杭州宋城景区,
浙江省嘉兴市海盐县猪猪星球景区,旅游景点,浙江省,AAA,浙江省嘉兴市海盐县望海街道电庄段1588号,嘉兴市,浙江省嘉兴市海盐县猪猪星球景区,
浙江省宁波市镇海区招宝山旅游风景区,旅游景点,浙江省,AAAA,浙江省宁波市镇海区招宝山街道招宝山路10号,宁波市,浙江省宁波市镇海区招宝山旅游风景区,
浙江省杭州市下城区跨贸小镇,旅游景点,浙江省,AAA,浙江省杭州市下城区费家塘666号,杭州市,浙江省杭州市下城区跨贸小镇,
金塘仙人山风景区,旅游景点,浙江省,AAA,浙江省舟山市定海区金塘镇柳小线,舟山市,金塘仙人山风景区,8342239
濮院?中国毛衫城,旅游景点,浙江省,AA,浙江省嘉兴市桐乡市濮院镇中兴中路388号,嘉兴市,濮院?中国毛衫城,
瑞安雅林现代农业园,旅游景点,浙江省,AAA,浙江省温州市瑞安市飞云甬台温高速出口,温州市,瑞安雅林现代农业园,
东辉公园景区,旅游景点,浙江省,AA,浙江省台州市温岭市太平街道,台州市,东辉公园景区,0576-86101722
横店红色旅游城,旅游景点,浙江省,AAAA,浙江省金华市东阳市横店镇八一村,金华市,横店红色旅游城,
浙江省丽水市缙云县仁岸景区,旅游景点,浙江省,AAA,浙江省丽水市缙云县舒洪镇仁岸村,丽水市,浙江省丽水市缙云县仁岸景区,
浙江省金华市金东区艾青故居景区,旅游景点,浙江省,AAA,浙江省金华市金东区,金华市,浙江省金华市金东区艾青故居景区,
澳多奇农庄景区,旅游景点,浙江省,AAA,浙江省嘉兴市平湖市曹桥街道马厩村澳多奇农庄有限公司,嘉兴市,澳多奇农庄景区,
浙江省温州市文成县百丈漈风景区,旅游景点,浙江省,AAAA,浙江省温州市文成县体育场路898号,温州市,浙江省温州市文成县百丈漈风景区,
绍兴黄酒小镇,旅游景点,浙江省,AAA,浙江省绍兴市越城区东浦镇锡麟路37号,绍兴市,绍兴黄酒小镇,
安吉山水灵峰.横山坞景区,旅游景点,浙江省,AAA,浙江省湖州市安吉县安吉县云鸿西路,湖州市,安吉山水灵峰.横山坞景区,
松阳平田景区,旅游景点,浙江省,AAA,浙江省丽水市松阳县四都乡平田村,丽水市,松阳平田景区,
浙江省嘉兴市海盐县南北湖风景区,旅游景点,浙江省,AAAA,浙江省嘉兴市海盐县南北湖风景区,嘉兴市,浙江省嘉兴市海盐县南北湖风景区,
浙江省绍兴市诸暨市米果果小镇景区,旅游景点,浙江省,AAAA,浙江省绍兴市诸暨市山下湖镇解放村,绍兴市,浙江省绍兴市诸暨市米果果小镇景区,
长兴县吕山荷博园景区,旅游景点,浙江省,AAA,浙江省湖州市长兴县吕山乡杨吴村47号,湖州市,长兴县吕山荷博园景区,5726690171
鞍山书院,旅游景点,浙江省,AAA,浙江省丽水市遂昌县遂昌县云峰镇长濂村,丽水市,鞍山书院,
浙江省绍兴市柯桥区五百岗·雄鹅峰旅游景区,旅游景点,浙江省,AA,浙江省绍兴市柯桥区丹家村,绍兴市,浙江省绍兴市柯桥区五百岗·雄鹅峰旅游景区,
姑蔑城生态园景区,旅游景点,浙江省,AAA,浙江省衢州市龙游县詹家镇浦山村营盘山,衢州市,姑蔑城生态园景区,
浙江省金华市金东区源东乡浙中桃花源景区,旅游景点,浙江省,AAA,浙江省金华市金东区源东乡山下施村,金华市,浙江省金华市金东区源东乡浙中桃花源景区,
浙江省衢州市江山市光谷小镇景区,旅游景点,浙江省,AAA,浙江省衢州市江山市凤林镇凤里村中岗,衢州市,浙江省衢州市江山市光谷小镇景区,18367070190
湖州原乡小镇景区,旅游景点,浙江省,AAAA,浙江省湖州市吴兴区肇村村原乡小镇景区,湖州市,湖州原乡小镇景区,
浙江省宁波市江北区慈城古县城景区,旅游景点,浙江省,AAAA,浙江省宁波市江北区东城沿路88号,宁波市,浙江省宁波市江北区慈城古县城景区,0574-89289604
衢州紫微星谷旅游区,旅游景点,浙江省,AAA,浙江省衢州市衢江区黄坛口乡紫薇村,衢州市,衢州紫微星谷旅游区,0570-2298600
浙江省丽水市莲都区东西岩景区,旅游景点,浙江省,AAAA,浙江省丽水市莲都区东西岩景区,丽水市,浙江省丽水市莲都区东西岩景区,0578-2205330
浙江省湖州市吴兴区吴兴妙山（村）景区,旅游景点,浙江省,AAA,浙江省湖州市吴兴区妙西镇妙山村,湖州市,浙江省湖州市吴兴区吴兴妙山（村）景区,
瑶琳仙境,旅游景点,浙江省,AAAA,浙江省杭州市桐庐县桐庐县瑶琳镇瑶琳南路110号,杭州市,瑶琳仙境,
九峰山景区,旅游景点,浙江省,AAAA,浙江省宁波市北仑区宁波北仑大契街道城联村,宁波市,九峰山景区,
浙江省衢州市常山县彤弓山景区,旅游景点,浙江省,AAA,浙江省衢州市常山县,衢州市,浙江省衢州市常山县彤弓山景区,
四明山主峰.红佛寺景区,旅游景点,浙江省,AA,浙江省绍兴市嵊州市嵊州市黄泽镇,绍兴市,四明山主峰.红佛寺景区,
浙江省台州市天台县寒岩景区,旅游景点,浙江省,AAA,浙江省台州市天台县龙溪乡寒岩村为核心,台州市,浙江省台州市天台县寒岩景区,
浙江省台州市临海市国华珠算博物馆景区,旅游景点,浙江省,AA,浙江省台州市临海市深甫西路117号,台州市,浙江省台州市临海市国华珠算博物馆景区,
浙江省杭州市建德市灵栖洞景区,旅游景点,浙江省,AAAA,浙江省杭州市建德市航头镇石屏村灵栖洞风景区,杭州市,浙江省杭州市建德市灵栖洞景区,58312587
小芝碧水湾,旅游景点,浙江省,AA,浙江省台州市临海市临海小芝镇石溪村,台州市,小芝碧水湾,
青田县太鹤山景区,旅游景点,浙江省,AA,浙江省丽水市青田县青田鹤城镇公园路22号,丽水市,青田县太鹤山景区,
杭州新安江旅业灵栖洞景区,旅游景点,浙江省,AAAA,浙江省杭州市建德市杭州市建德市航头镇,杭州市,杭州新安江旅业灵栖洞景区,
桃渚龙湾海滨,旅游景点,浙江省,AAA,浙江省台州市临海市临海桃渚镇南门坑,台州市,桃渚龙湾海滨,
浙江省杭州市余杭区江南慢村景区,旅游景点,浙江省,AAA,浙江省杭州市余杭区中泰街道中桥村后殿1号,杭州市,浙江省杭州市余杭区江南慢村景区,
虞洽卿故居博物馆,旅游景点,浙江省,AAA,浙江省宁波市慈溪市慈溪市龙山镇山下村虞洽卿路16-18号,宁波市,虞洽卿故居博物馆,
铜铃山国家森林公园,旅游景点,浙江省,AAAA,浙江省温州市文成县叶胜林场,温州市,铜铃山国家森林公园,
庆安会馆景区,旅游景点,浙江省,AAA,浙江省宁波市鄞州区江东北路156号,宁波市,庆安会馆景区,
湘湖景区,旅游景点,浙江省,AAAA,浙江省杭州市萧山区萧山湘湖路132号,杭州市,湘湖景区,
浙江省金华市武义县清水湾景区,旅游景点,浙江省,AAAA,浙江省金华市武义县温泉度假区温泉南路1689号,金华市,浙江省金华市武义县清水湾景区,57987739491
开化秀丽潭头景区,旅游景点,浙江省,AAA,浙江省衢州市开化县池淮镇潭头村,衢州市,开化秀丽潭头景区,
浙江省宁波市宁海县前童古镇旅游区,旅游景点,浙江省,AAAA,浙江省宁波市宁海县前童镇,宁波市,浙江省宁波市宁海县前童古镇旅游区,0574-65372777
日月潭农庄,旅游景点,浙江省,AAA,浙江省温州市苍南县灵溪镇岭前村,温州市,日月潭农庄,
浙江省台州市天台县白鹤国际袜业城旅游景区,旅游景点,浙江省,AAA,浙江省台州市天台县白鹤镇,台州市,浙江省台州市天台县白鹤国际袜业城旅游景区,
杭州临安东天目山旅游有限公司,旅游景点,浙江省,AAAA,浙江省杭州市临安市杭州临安市太湖源镇东天目村、上阳村,杭州市,杭州临安东天目山旅游有限公司,
浙江省台州市路桥区中央山景区,旅游景点,浙江省,AAA,浙江省台州市路桥区,台州市,浙江省台州市路桥区中央山景区,
芹川古村,旅游景点,浙江省,AA,浙江省杭州市淳安县浪川乡芹川村,杭州市,芹川古村,
荻港景区,旅游景点,浙江省,AAAA,浙江省湖州市南浔区湖州市和孚镇荻港村,湖州市,荻港景区,
浙江省金华市金东区傅村镇山头下古村景区,旅游景点,浙江省,AA,浙江省金华市金东区傅村镇山头下村,金华市,浙江省金华市金东区傅村镇山头下古村景区,
浙江省嘉兴市海宁市徐志摩旧居旅游区,旅游景点,浙江省,AA,浙江省嘉兴市海宁市干河街38号,嘉兴市,浙江省嘉兴市海宁市徐志摩旧居旅游区,
宁波博物馆,旅游景点,浙江省,AAAA,浙江省宁波市鄞州区鄞州区首南中路1000号,宁波市,宁波博物馆,
浙江省金华市武义县骆驼九龙黑茶文化园,旅游景点,浙江省,AAA,浙江省金华市武义县王宅江南工业功能区,金华市,浙江省金华市武义县骆驼九龙黑茶文化园,0579-87770028
浙江省湖州市安吉县十里景溪景区,旅游景点,浙江省,AAA,浙江省湖州市安吉县,湖州市,浙江省湖州市安吉县十里景溪景区,
嘉善拳王休闲农庄有限公司,旅游景点,浙江省,AA,浙江省嘉兴市嘉善县大云镇缪家村干泾港88号,嘉兴市,嘉善拳王休闲农庄有限公司,
陈溪风情小镇,旅游景点,浙江省,AAA,浙江省绍兴市上虞区建山路1号,绍兴市,陈溪风情小镇,57582921356
浙东（四明山）抗日根据地旧址群,旅游景点,浙江省,AAA,浙江省宁波市余姚市余姚市梁弄镇横坎头村,宁波市,浙东（四明山）抗日根据地旧址群,
楼山后景区,旅游景点,浙江省,AAA,浙江省衢州市衢江区全旺镇楼山后村,衢州市,楼山后景区,
生仙里景区,旅游景点,浙江省,AAA,浙江省杭州市桐庐县合村乡,杭州市,生仙里景区,
乐清路之遥奥特莱斯时尚广场,旅游景点,浙江省,AAA,浙江省温州市乐清市北白象镇北环南路1号,温州市,乐清路之遥奥特莱斯时尚广场,
浙江省嘉兴市平湖市非物质文化遗产保护管理中心景区,旅游景点,浙江省,AA,浙江省嘉兴市平湖市当湖街道环城北路31弄1号,嘉兴市,浙江省嘉兴市平湖市非物质文化遗产保护管理中心景区,
泰顺氡泉景区,旅游景点,浙江省,AA,浙江省温州市泰顺县温州市泰顺县雅阳镇承天村,温州市,泰顺氡泉景区,
仙岩风景名胜区,旅游景点,浙江省,AAA,浙江省温州市市辖区瓯海区仙岩街道仙北村,温州市,仙岩风景名胜区,
浙江省温州市瓯海区梦多多小镇,旅游景点,浙江省,AAA,浙江省温州市瓯海区新桥街道六虹桥路1189号,温州市,浙江省温州市瓯海区梦多多小镇,0577-88567065
浙江省舟山市定海区新建生态村南洞艺谷景区,旅游景点,浙江省,AAA,浙江省舟山市定海区干览镇新建社区里陈村189号,舟山市,浙江省舟山市定海区新建生态村南洞艺谷景区,
瑶溪风景名胜区,旅游景点,浙江省,AAA,浙江省温州市市辖区温州市龙湾区瑶溪风景名胜区,温州市,瑶溪风景名胜区,
杭州市萧山区少儿公园（杭州极地海洋公园）,旅游景点,浙江省,AAAA,浙江省杭州市萧山区杭州市萧山区湘湖路777号,杭州市,杭州市萧山区少儿公园（杭州极地海洋公园）,
龙泉山度假区,旅游景点,浙江省,AAAA,浙江省丽水市龙泉市龙泉凤阳山,丽水市,龙泉山度假区,
石淙民俗文化园,旅游景点,浙江省,AA,浙江省湖州市南浔区南浔区石淙镇石淙村,湖州市,石淙民俗文化园,
浙江省金华市武义县郭洞景区,旅游景点,浙江省,AAA,浙江省金华市武义县温泉旅游度假区郭洞村综合楼1楼,金华市,浙江省金华市武义县郭洞景区,
嵊州市虎居动物园,旅游景点,浙江省,AA,浙江省绍兴市嵊州市嵊州市剡湖街道城北张墅水库,绍兴市,嵊州市虎居动物园,
浙江省台州市椒江区智能马桶小镇景区,旅游景点,浙江省,AAA,浙江省台州市椒江区海门街道,台州市,浙江省台州市椒江区智能马桶小镇景区,
江心屿景区,旅游景点,浙江省,AAAA,浙江省温州市鹿城区江心屿,温州市,江心屿景区,
浙江省嘉兴市南湖区神润斋景区,旅游景点,浙江省,AAA,浙江省嘉兴市南湖区凤桥镇永红村15组小王圩1号-1,嘉兴市,浙江省嘉兴市南湖区神润斋景区,
浙江省绍兴市诸暨市千柱屋景区,旅游景点,浙江省,AAA,浙江省绍兴市诸暨市,绍兴市,浙江省绍兴市诸暨市千柱屋景区,
开化金溪砸碗花湿地公园,旅游景点,浙江省,AAA,浙江省衢州市开化县马金镇金溪村,衢州市,开化金溪砸碗花湿地公园,
浙江省台州市天台县赤城山景区,旅游景点,浙江省,AA,浙江省台州市天台县,台州市,浙江省台州市天台县赤城山景区,
浙江省杭州市桐庐县范蠡休闲养生村落景区,旅游景点,浙江省,AAA,浙江省杭州市桐庐县新龙村、天英村、里湖村、儒桥村、大路村,杭州市,浙江省杭州市桐庐县范蠡休闲养生村落景区,
江南古村落景区,旅游景点,浙江省,AAAA,浙江省杭州市桐庐县杭州市桐庐县江南镇深澳片,杭州市,江南古村落景区,
清池温泉,旅游景点,浙江省,AA,浙江省嘉兴市秀洲区嘉兴市秀洲区新塍镇嘉湖公路北侧、濮新线西侧,嘉兴市,清池温泉,
大横港祝家庄景区,旅游景点,浙江省,AA,浙江省嘉兴市海盐县嘉兴市海盐县百步镇横港村利群桥,嘉兴市,大横港祝家庄景区,
浙江东方地质博物馆,旅游景点,浙江省,AAA,浙江省嘉兴市南湖区广益路555号国际中港城,嘉兴市,浙江东方地质博物馆,
沟溪休闲农业旅游景区,旅游景点,浙江省,AAA,浙江省衢州市柯城区沟溪乡五十都村76-1号,衢州市,沟溪休闲农业旅游景区,
陶元岭-金鱼湾景区,旅游景点,浙江省,AA,浙江省绍兴市绍兴县平水镇金鱼村,绍兴市,陶元岭-金鱼湾景区,
红杉邨景区,旅游景点,浙江省,AAA,浙江省嘉兴市桐乡市桐乡市龙翔街道杨园村宗扬路78号,嘉兴市,红杉邨景区,
嘉兴云澜湾温泉景区,旅游景点,浙江省,AAAA,浙江省嘉兴市嘉善县大云镇,嘉兴市,嘉兴云澜湾温泉景区,
浙江省丽水市遂昌县遂昌金矿国家矿山公园景区,旅游景点,浙江省,AAAA,浙江省丽水市遂昌县濂竹乡花园岭,丽水市,浙江省丽水市遂昌县遂昌金矿国家矿山公园景区,
淡竹石盟垟旅游精品村,旅游景点,浙江省,AA,浙江省台州市仙居县仙居县淡竹乡,台州市,淡竹石盟垟旅游精品村,
浙江省湖州市安吉县江南天池景区,旅游景点,浙江省,AAAA,浙江省湖州市安吉县天荒坪镇天荒坪电站上库区,湖州市,浙江省湖州市安吉县江南天池景区,0572-5132279
浙江省温州市瑞安市陈岙生态休闲旅游区,旅游景点,浙江省,AAA,浙江省温州市瑞安市塘下镇陈岙村,温州市,浙江省温州市瑞安市陈岙生态休闲旅游区,
方山景区,旅游景点,浙江省,AAAA,浙江省台州市温岭市温岭市大溪镇,台州市,方山景区,
千岛湖乐水小镇.文渊狮城景区,旅游景点,浙江省,AAAA,浙江省杭州市淳安县,杭州市,千岛湖乐水小镇.文渊狮城景区,
浙江省温州市平阳县南麂列岛景区,旅游景点,浙江省,AAAA,浙江省温州市平阳县南麂镇,温州市,浙江省温州市平阳县南麂列岛景区,
浙江省台州市仙居县下各西陆山水休闲特色村,旅游景点,浙江省,AAA,浙江省台州市仙居县西六村,台州市,浙江省台州市仙居县下各西陆山水休闲特色村,
磐安县水下孔景区,旅游景点,浙江省,AAA,浙江省金华市磐安县磐安县胡宅乡水下孔景区,金华市,磐安县水下孔景区,
下叶旅游区,旅游景点,浙江省,AAA,浙江省台州市仙居县淡竹乡下叶村,台州市,下叶旅游区,
建德航空小镇景区,旅游景点,浙江省,AAAA,浙江省杭州市建德市寿昌镇横山路52号,杭州市,建德航空小镇景区,
下渚湖湿地风景区,旅游景点,浙江省,AAAA,浙江省湖州市德清县下渚湖街道下仁公路181号,湖州市,下渚湖湿地风景区,
临海市江南大峡谷景区,旅游景点,浙江省,AAA,浙江省台州市临海市临海市尤溪镇,台州市,临海市江南大峡谷景区,
浙旅院国际教育旅游体验区,旅游景点,浙江省,AAAA,浙江省杭州市萧山区耕文路399号,杭州市,浙旅院国际教育旅游体验区,
五泄风景区,旅游景点,浙江省,AAAA,浙江省绍兴市诸暨市五泄镇五泄路8号,绍兴市,五泄风景区,
温州永昌堡,旅游景点,浙江省,AAA,浙江省温州市龙湾区永中街道新城村,温州市,温州永昌堡,
浙江省宁波市海曙区五龙潭景区,旅游景点,浙江省,AAAA,浙江省宁波市海曙区龙观乡,宁波市,浙江省宁波市海曙区五龙潭景区,88049111
武义清水湾景区,旅游景点,浙江省,AAAA,浙江省金华市武义县温泉南路1689号,金华市,武义清水湾景区,
杨墩休闲农庄,旅游景点,浙江省,AAA,浙江省湖州市德清县雷甸镇杨墩村,湖州市,杨墩休闲农庄,
浙江省绍兴市越城区吼山风景区,旅游景点,浙江省,AAA,浙江省绍兴市越城区皋埠镇吼山风景区,绍兴市,浙江省绍兴市越城区吼山风景区,57588081788
浙江省宁波市杭州湾新区方特东方神画景区,旅游景点,浙江省,AAAA,浙江省宁波市杭州湾新区,宁波市,浙江省宁波市杭州湾新区方特东方神画景区,0574-58585800
浙江省丽水市云和县梯田景区,旅游景点,浙江省,AAAA,浙江省丽水市云和县崇头镇栈云路2号,丽水市,浙江省丽水市云和县梯田景区,
中国博古红木馆,旅游景点,浙江省,AA,浙江省宁波市慈溪市慈溪市天元镇天元大道1000号,宁波市,中国博古红木馆,
响石山景区,旅游景点,浙江省,AAA,浙江省台州市仙居县仙居县横溪镇后山根村,台州市,响石山景区,
瓯海吹台山生态农庄,旅游景点,浙江省,AAA,浙江省温州市瓯海区娄桥街道东耕村吹台山公园,温州市,瓯海吹台山生态农庄,
湖州太湖旅游度假区,旅游景点,浙江省,AAAA,浙江省湖州市吴兴区湖州太湖旅游度假区,湖州市,湖州太湖旅游度假区,
浙江省温州市瓯海区温州动物园,旅游景点,浙江省,AAA,浙江省温州市瓯海区雪山路367号,温州市,浙江省温州市瓯海区温州动物园,0577-88509128
浙江省舟山市定海区马岙祥农采摘园,旅游景点,浙江省,A,浙江省舟山市定海区马岙街道进港路6号,舟山市,浙江省舟山市定海区马岙祥农采摘园,13735002278
素质教育实践基地景区,旅游景点,浙江省,AAA,浙江省台州市温岭市松门镇研学路1号,台州市,素质教育实践基地景区,0576-89977770
嘉善国际木雕文化园景区,旅游景点,浙江省,AAA,浙江省嘉兴市嘉善县木业大道777号,嘉兴市,嘉善国际木雕文化园景区,
永乐人民抗日自卫队游击总队纪念馆,旅游景点,浙江省,AA,浙江省温州市乐清市芙蓉镇泽基村,温州市,永乐人民抗日自卫队游击总队纪念馆,
浙江省金华市浦江县神丽峡景区,旅游景点,浙江省,AAAA,浙江省金华市浦江县浦南街道丽水村,金华市,浙江省金华市浦江县神丽峡景区,
西湖区画外桐坞,旅游景点,浙江省,AAA,浙江省杭州市西湖区转塘街道外桐坞村75号,杭州市,西湖区画外桐坞,
中国扬子鳄村,旅游景点,浙江省,AAAA,浙江省湖州市长兴县泗安镇尹家边村管埭自然村,湖州市,中国扬子鳄村,
浙江省衢州市常山县黄塘旅游景区,旅游景点,浙江省,AAA,浙江省衢州市常山县,衢州市,浙江省衢州市常山县黄塘旅游景区,
寨寮溪风景区,旅游景点,浙江省,AAAA,浙江省温州市瑞安市高楼镇湖石村游客集散中心,温州市,寨寮溪风景区,
玉环大鹿岛旅游开发有限公司,旅游景点,浙江省,AAAA,浙江省台州市玉环县大鹿岛,台州市,玉环大鹿岛旅游开发有限公司,
义乌绿色动力小镇景区,旅游景点,浙江省,AAA,浙江省金华市义乌市赤岸镇青城路1号,金华市,义乌绿色动力小镇景区,
浙江省嘉兴市桐乡市河山镇东浜头村子恺漫画文化园,旅游景点,浙江省,AA,浙江省嘉兴市桐乡市河山镇东浜头村村民委员会,嘉兴市,浙江省嘉兴市桐乡市河山镇东浜头村子恺漫画文化园,
遂昌高坪景区,旅游景点,浙江省,AAA,浙江省丽水市遂昌县遂昌县高坪乡高坪新村,丽水市,遂昌高坪景区,
温岭市东辉公园,旅游景点,浙江省,AA,浙江省台州市温岭市温岭市人民东路东辉公园,台州市,温岭市东辉公园,
浙江省金华市兰溪市游埠古镇景区,旅游景点,浙江省,AAA,浙江省金华市兰溪市游埠镇大街里46号,金华市,浙江省金华市兰溪市游埠古镇景区,
浙江省舟山市定海区古城旅游区,旅游景点,浙江省,A,浙江省舟山市定海区昌国街道中大街66号,舟山市,浙江省舟山市定海区古城旅游区,
浙江省丽水市庆元县百山祖景区,旅游景点,浙江省,AAAA,浙江省丽水市庆元县百山祖镇车根村林学路66号,丽水市,浙江省丽水市庆元县百山祖景区,6133333
杭州?江南慢村,旅游景点,浙江省,AAA,浙江省杭州市余杭区杭州市余杭区中泰街道中桥村,杭州市,杭州?江南慢村,
龙泉市宝剑厂有限公司,旅游景点,浙江省,AAA,浙江省丽水市龙泉市龙泉市宝剑厂（大沙工业园区）,丽水市,龙泉市宝剑厂有限公司,
龙溪寒岩景区,旅游景点,浙江省,AAA,浙江省台州市天台县龙溪乡,台州市,龙溪寒岩景区,
龙麒源景区,旅游景点,浙江省,AAAA,浙江省温州市文成县西坑镇梧溪村,温州市,龙麒源景区,
浙江省温州市苍南县日月潭,旅游景点,浙江省,AAA,浙江省温州市苍南县灵溪镇岭前村,温州市,浙江省温州市苍南县日月潭,
浙江省嘉兴市桐乡市锦绣天地蚕桑博览园景区,旅游景点,浙江省,AA,浙江省嘉兴市桐乡市高桥街道高架路259号,嘉兴市,浙江省嘉兴市桐乡市锦绣天地蚕桑博览园景区,
浙江省湖州市安吉县藏龙百瀑景区,旅游景点,浙江省,AAA,浙江省湖州市安吉县天荒坪镇大溪村,湖州市,浙江省湖州市安吉县藏龙百瀑景区,5725112357
浙江省湖州市南浔区练市镇荃步景区,旅游景点,浙江省,AAA,浙江省湖州市南浔区练市镇荃步村,湖州市,浙江省湖州市南浔区练市镇荃步景区,
大堰五洞桥景区,旅游景点,浙江省,AAA,浙江省宁波市奉化区大堰镇常照-湖边桥村,宁波市,大堰五洞桥景区,
浙江省湖州市吴兴区湖州丝绸小镇景区（西山漾景区）,旅游景点,浙江省,AAAA,浙江省湖州市吴兴区八里店镇西山漾,湖州市,浙江省湖州市吴兴区湖州丝绸小镇景区（西山漾景区）,
浙江省台州市天台县泳溪乡外婆湾景区,旅游景点,浙江省,AAA,浙江省台州市天台县泳溪乡大智村外溪自然村,台州市,浙江省台州市天台县泳溪乡外婆湾景区,13252285565
绍兴市大禹陵景区管理处(浙江省会稽山旅游度假区景区管理处),旅游景点,浙江省,AAAA,浙江省绍兴市市辖区绍兴市大禹陵景区内,绍兴市,绍兴市大禹陵景区管理处(浙江省会稽山旅游度假区景区管理处),
浙江省丽水市缙云县新建镇笕川花海景区,旅游景点,浙江省,AAA,浙江省丽水市缙云县新建镇笕川村笕新路356号,丽水市,浙江省丽水市缙云县新建镇笕川花海景区,
浙江省绍兴市市辖区兰亭景区,旅游景点,浙江省,AAAA,浙江省绍兴市市辖区,绍兴市,浙江省绍兴市市辖区兰亭景区,
中国港口博物馆,旅游景点,浙江省,AAAA,浙江省宁波市北仑区春晓街道港博路6号,宁波市,中国港口博物馆,0574—26912020
宁波镇海招宝山旅游风景区,旅游景点,浙江省,AAAA,浙江省宁波市镇海区宁波镇海区招宝山路10号,宁波市,宁波镇海招宝山旅游风景区,
浙江省绍兴市柯桥区安昌古镇景区,旅游景点,浙江省,AAAA,浙江省绍兴市柯桥区安昌街道,绍兴市,浙江省绍兴市柯桥区安昌古镇景区,
宝石工业园,旅游景点,浙江省,AA,浙江省台州市椒江经济开发区东环大道638号,台州市,宝石工业园,
须江公园景区,旅游景点,浙江省,AA,浙江省衢州市江山市双塔街道江东大道29号,衢州市,须江公园景区,
新昌县七盘仙谷景区,旅游景点,浙江省,AAA,浙江省绍兴市新昌县,绍兴市,新昌县七盘仙谷景区,18857590990
海宁盐官观潮景区,旅游景点,浙江省,AAAA,浙江省嘉兴市海宁市盐官镇古邑路1号,嘉兴市,海宁盐官观潮景区,0573-87615798
畅想园农庄,旅游景点,浙江省,AA,浙江省嘉兴市桐乡市大麻镇海华村坝桥河,嘉兴市,畅想园农庄,
乌镇景区,旅游景点,浙江省,AAAAA,浙江省嘉兴市桐乡市乌镇西大街448-458,嘉兴市,乌镇景区,
福德湾景区,旅游景点,浙江省,AAA,浙江省温州市苍南县矾山镇福德垵116号,温州市,福德湾景区,
义乌市何斯路景区,旅游景点,浙江省,AAA,浙江省金华市义乌市城西街道何斯路村,金华市,义乌市何斯路景区,
嘉善县民防教育体验馆,旅游景点,浙江省,AA,浙江省嘉兴市嘉善县姚庄镇河浜路268号体育馆综合楼四楼,嘉兴市,嘉善县民防教育体验馆,
临海市江南长城景区,旅游景点,浙江省,AAAA,浙江省台州市临海市柏叶西路131号客运中心西大门口（二楼）,台州市,临海市江南长城景区,
锦屏公园景区,旅游景点,浙江省,AAA,浙江省台州市温岭市太平街道人民东路245号,台州市,锦屏公园景区,0576-86158751
嘉兴铁哥们机器人主题公园,旅游景点,浙江省,AA,浙江省嘉兴市南湖区富润路262号,嘉兴市,嘉兴铁哥们机器人主题公园,
渔寮风景区,旅游景点,浙江省,AAA,浙江省温州市苍南县马站镇渔寮社区,温州市,渔寮风景区,
皤滩古镇,旅游景点,浙江省,AAA,浙江省台州市仙居县仙居县皤滩乡,台州市,皤滩古镇,
浙江省温州市苍南县石聚堂景区,旅游景点,浙江省,AA,浙江省温州市苍南县石聚村,温州市,浙江省温州市苍南县石聚堂景区,
新昌县江南名茶市场,旅游景点,浙江省,AAA,浙江省绍兴市新昌县泰坦大道1号,绍兴市,新昌县江南名茶市场,
三门源民俗文化小镇景区,旅游景点,浙江省,AAA,浙江省衢州市龙游县石佛乡三门源村,衢州市,三门源民俗文化小镇景区,
浙江省嘉兴市平湖市广陈镇明月山塘景区,旅游景点,浙江省,AAA,浙江省嘉兴市平湖市广陈镇山塘集镇88号,嘉兴市,浙江省嘉兴市平湖市广陈镇明月山塘景区,
浙江省舟山市普陀区蚂蚁岛旅游区,旅游景点,浙江省,AA,浙江省舟山市普陀区蚂蚁岛创业大道1号,舟山市,浙江省舟山市普陀区蚂蚁岛旅游区,5806666955
宁波东钱湖小普陀景区管理有限公司,旅游景点,浙江省,AAA,浙江省宁波市东钱湖旅游度假区宁波东钱湖陶公村大公小学内,宁波市,宁波东钱湖小普陀景区管理有限公司,
浙江省丽水市松阳县松阳双童山景区,旅游景点,浙江省,AAAA,浙江省丽水市松阳县,丽水市,浙江省丽水市松阳县松阳双童山景区,
浙江省台州市仙居县上横街村景区,旅游景点,浙江省,AAA,浙江省台州市仙居县上横街村,台州市,浙江省台州市仙居县上横街村景区,
桃源七里景区,旅游景点,浙江省,AAAA,浙江省衢州市柯城区衢州市柯城区七里乡大头村,衢州市,桃源七里景区,
永嘉县楠溪江风景区,旅游景点,浙江省,AAAA,浙江省温州市永嘉县楠溪江,温州市,永嘉县楠溪江风景区,
南坞古村景区,旅游景点,浙江省,AAA,浙江省衢州市江山市凤林镇南坞村,衢州市,南坞古村景区,
浙江省衢州市常山县不老泉景区,旅游景点,浙江省,AAA,浙江省衢州市常山县白石镇新塘岭村88号,衢州市,浙江省衢州市常山县不老泉景区,
天宫庄园景区,旅游景点,浙江省,AAAA,浙江省宁波市鄞州区下应街道湾底村,宁波市,天宫庄园景区,
仙人谷漂流景区,旅游景点,浙江省,AAA,浙江省杭州市淳安县千岛湖镇新安大街3号2楼1107室,杭州市,仙人谷漂流景区,
浙江省杭州市余杭区径山景区,旅游景点,浙江省,AAA,浙江省杭州市余杭区径山镇龙皇路12号,杭州市,浙江省杭州市余杭区径山景区,
大岩头农业观光园景区,旅游景点,浙江省,AAA,浙江省台州市温岭市坞根镇蒋山村,台州市,大岩头农业观光园景区,
嵊州市假日丰泥庄园,旅游景点,浙江省,AA,浙江省绍兴市嵊州市嵊州市鹿山街道东大湾村,绍兴市,嵊州市假日丰泥庄园,
浙江省金华市武义县俞源景区,旅游景点,浙江省,AAA,浙江省金华市武义县俞源乡俞源村太极路1号,金华市,浙江省金华市武义县俞源景区,
青田石门洞景区,旅游景点,浙江省,AAAA,浙江省丽水市青田县青田县石门洞,丽水市,青田石门洞景区,
杭州西溪国家湿地公园,旅游景点,浙江省,AAAAA,浙江省杭州市西湖区天目山路518号,杭州市,杭州西溪国家湿地公园,
浙江省舟山市定海区鸦片战争遗址公园（含柳永文化广场）,旅游景点,浙江省,AAA,浙江省舟山市定海区环南街道竹山门路一号,舟山市,浙江省舟山市定海区鸦片战争遗址公园（含柳永文化广场）,0580-2030077
浙江省宁波市北仑区九峰山旅游区,旅游景点,浙江省,AAAA,浙江省宁波市北仑区,宁波市,浙江省宁波市北仑区九峰山旅游区,0574-86786235
水口茶文化旅游景区,旅游景点,浙江省,AAAA,浙江省湖州市长兴县水口乡,湖州市,水口茶文化旅游景区,
方岩风景区,旅游景点,浙江省,AAAA,浙江省金华市永康市永康市方岩镇橙麓村141号,金华市,方岩风景区,
杭州皋亭山景区,旅游景点,浙江省,AAAA,浙江省杭州市江干区杭州市江干区丁兰街道天鹤路789号C幢,杭州市,杭州皋亭山景区,
宁波松兰山旅游度假区,旅游景点,浙江省,AAAA,浙江省宁波市象山县丹东街道宁波松兰山滨海旅游度假区,宁波市,宁波松兰山旅游度假区,
浙江省丽水市莲都区利山景区,旅游景点,浙江省,AAA,浙江省丽水市莲都区大港头镇利山村,丽水市,浙江省丽水市莲都区利山景区,
浙江省杭州市滨江区互联网小镇,旅游景点,浙江省,AAA,浙江省杭州市滨江区创慧街18号北塘河创新中心8号楼,杭州市,浙江省杭州市滨江区互联网小镇,87795828
浙南（平阳）工农红军挺进师纪念园,旅游景点,浙江省,AAA,浙江省温州市平阳县平阳县山门镇亚平酒店旁,温州市,浙南（平阳）工农红军挺进师纪念园,
老外滩景区,旅游景点,浙江省,AAAA,浙江省宁波市江北区中马路,宁波市,老外滩景区,87663040
浙江省台州市天台县白鹤镇龙穿峡风景区,旅游景点,浙江省,AAA,浙江省台州市天台县白鹤镇龙穿峡风景区,台州市,浙江省台州市天台县白鹤镇龙穿峡风景区,
浙江省台州市仙居县花开·东方禾苑,旅游景点,浙江省,AAA,浙江省台州市仙居县水阁村牡丹园,台州市,浙江省台州市仙居县花开·东方禾苑,
浙江省宁波市余姚市天下玉苑风景区,旅游景点,浙江省,AAAA,浙江省宁波市余姚市大隐镇山王北路85号,宁波市,浙江省宁波市余姚市天下玉苑风景区,
九溪龙门景区,旅游景点,浙江省,AAA,浙江省衢州市开化县齐溪镇龙门村,衢州市,九溪龙门景区,
宁波市黄贤森林旅游区,旅游景点,浙江省,AAAA,浙江省宁波市奉化市裘村镇黄贤村,宁波市,宁波市黄贤森林旅游区,
浙江省金华市永康市西溪影视基地,旅游景点,浙江省,AAA,浙江省金华市永康市西溪镇寺口村上街45号卫生室201室,金华市,浙江省金华市永康市西溪影视基地,
浙江省金华市浦江县嵩溪古村旅游景区,旅游景点,浙江省,AAA,浙江省金华市浦江县白马镇嵩溪村,金华市,浙江省金华市浦江县嵩溪古村旅游景区,
浙江省台州市玉环漩门湾湿地景区,旅游景点,浙江省,AAAA,浙江省台州市玉环市玉环经济开发区滨江大道1号,台州市,浙江省台州市玉环漩门湾湿地景区,87121920
安吉清韵汤口旅游景区,旅游景点,浙江省,AAA,浙江省湖州市安吉县报福镇汤口村,湖州市,安吉清韵汤口旅游景区,
福岭山红色旅游景区,旅游景点,浙江省,AAA,浙江省衢州市开化县何田乡柴家村,衢州市,福岭山红色旅游景区,
浙江省杭州市上城区清河坊历史文化街区,旅游景点,浙江省,AAAA,浙江省杭州市上城区高银街113号,杭州市,浙江省杭州市上城区清河坊历史文化街区,
三门源景区,旅游景点,浙江省,AA,浙江省衢州市龙游县石佛乡,衢州市,三门源景区,
浙江省湖州市吴兴区钱山漾景区,旅游景点,浙江省,AAA,湖州市吴兴区八里店镇西南部潞村古村落,湖州市,浙江省湖州市吴兴区钱山漾景区,13757291230
浙江省杭州市西湖区转塘街道画外桐坞景区,旅游景点,浙江省,AAA,浙江省杭州市西湖区转塘街道外桐坞村75号,杭州市,浙江省杭州市西湖区转塘街道画外桐坞景区,
氡泉景区,旅游景点,浙江省,AAAA,浙江省温州市泰顺县雅阳镇承天村1号,温州市,氡泉景区,
鲁迅故里.沈园景区（沈园景区）,旅游景点,浙江省,AAAAA,浙江省绍兴市市辖区绍兴市鲁迅中路318号,绍兴市,鲁迅故里.沈园景区（沈园景区）,
桐乡市崇福中山公园,旅游景点,浙江省,AA,浙江省嘉兴市桐乡市崇福镇崇德东路53号,嘉兴市,桐乡市崇福中山公园,
百山祖景区,旅游景点,浙江省,AAAA,浙江省丽水市庆元县百山祖乡车根村林学路66号,丽水市,百山祖景区,
菊博园,旅游景点,浙江省,AA,浙江省嘉兴市桐乡市桐乡市屠甸镇君匋大道1183号,嘉兴市,菊博园,
缙云机床小镇景区,旅游景点,浙江省,AAA,浙江省丽水市缙云县壶镇镇浙江丽缙五金科技产业园创园路8号,丽水市,缙云机床小镇景区,
龙门秘境,旅游景点,浙江省,AAA,浙江省杭州市临安区高虹镇,杭州市,龙门秘境,
重阳宫,旅游景点,浙江省,AAA,浙江省绍兴市新昌县澄潭镇左于村,绍兴市,重阳宫,
浙江省金华市兰溪市诸葛八卦村景区,旅游景点,浙江省,AAAA,浙江省金华市兰溪市诸葛镇诸葛村,金华市,浙江省金华市兰溪市诸葛八卦村景区,0579-88600026
仙居高迁古民居景区,旅游景点,浙江省,AAA,浙江省台州市仙居县仙居县白塔镇高迁村,台州市,仙居高迁古民居景区,
温州乐园有限公司,旅游景点,浙江省,AAAA,浙江省温州市瓯海区浙江申温州市瓯海区茶山镇,温州市,温州乐园有限公司,
浙江省嘉兴市桐乡市森利园景区,旅游景点,浙江省,AAA,浙江省嘉兴市桐乡市崇福镇东安村鸽子浜,嘉兴市,浙江省嘉兴市桐乡市森利园景区,
浙江省台州市椒江区台州市台绣刺绣博物馆景区,旅游景点,浙江省,AA,浙江省台州市椒江区云西路157-173 号,台州市,浙江省台州市椒江区台州市台绣刺绣博物馆景区,
浙江省湖州市安吉县杭州Hello Kitty乐园,旅游景点,浙江省,AAAA,浙江省湖州市安吉县昌硕街道天使大道1号,湖州市,浙江省湖州市安吉县杭州Hello Kitty乐园,0572-5522559
浙江省金华市磐安县百杖潭景区,旅游景点,浙江省,AAAA,浙江省金华市磐安县仁川镇石下村百杖潭景区,金华市,浙江省金华市磐安县百杖潭景区,0579-84758866
喻斯生态旅游景区,旅游景点,浙江省,AAA,浙江省金华市婺城区安地镇喻斯村,金华市,喻斯生态旅游景区,
庆安会馆,旅游景点,浙江省,AAA,浙江省宁波市江东区宁波市江东北路156号,宁波市,庆安会馆,
浙江省杭州市西湖区兰里景区,旅游景点,浙江省,AAAA,浙江省杭州市西湖区三墩镇,杭州市,浙江省杭州市西湖区兰里景区,
康奈工业园,旅游景点,浙江省,AAA,浙江省温州市鹿城区温州市鹿城区双屿街道双金路6号,温州市,康奈工业园,
浙江省舟山市岱山县秀山岛风景区,旅游景点,浙江省,AAA,浙江省舟山市岱山县秀山乡,舟山市,浙江省舟山市岱山县秀山岛风景区,
文化恒基特色旅游园,旅游景点,浙江省,AA,浙江省嘉兴市桐乡市桐乡市梧桐街道,嘉兴市,文化恒基特色旅游园,
浙江省台州市临海市上江景区,旅游景点,浙江省,AAA,浙江省台州市临海市江南街道上江三村,台州市,浙江省台州市临海市上江景区,
吴兴美妆小镇景区,旅游景点,浙江省,AAA,浙江省湖州市吴兴区埭溪镇上强工业园,湖州市,吴兴美妆小镇景区,
浙江省舟山市普陀区普陀山风景旅游区,旅游景点,浙江省,AAAAA,浙江省舟山市普陀区普陀山镇,舟山市,浙江省舟山市普陀区普陀山风景旅游区,
由由嘉园景区,旅游景点,浙江省,AA,浙江省绍兴市越城区富盛镇倪家溇村,绍兴市,由由嘉园景区,
浙江省金华市金东区横店埠景区,旅游景点,浙江省,AAA,浙江省金华市金东区江东镇横店村,金华市,浙江省金华市金东区横店埠景区,
柳溪江,旅游景点,浙江省,AAAA,浙江省杭州市临安市河桥镇聚秀村,杭州市,柳溪江,
宁波老外滩,旅游景点,浙江省,AAAA,浙江省宁波市江北区中马路157-159号,宁波市,宁波老外滩,
潘家小镇,旅游景点,浙江省,AA,浙江省台州市三门县横渡镇岩下潘村,台州市,潘家小镇,
江南湖羊庄园,旅游景点,浙江省,AA,浙江省嘉兴市桐乡市乌镇镇南王村南王门2号,嘉兴市,江南湖羊庄园,
浙江省丽水市青田县石门洞景区,旅游景点,浙江省,AAAA,浙江省丽水市青田县练岙村练岙公路62-6号,丽水市,浙江省丽水市青田县石门洞景区,
烂柯山,旅游景点,浙江省,AA,浙江省衢州市柯城区柯城区石室乡,衢州市,烂柯山,
浙江省绍兴市嵊州市前岗辉白茶文化旅游景区,旅游景点,浙江省,AA,浙江省绍兴市嵊州市下王镇泉岗村,绍兴市,浙江省绍兴市嵊州市前岗辉白茶文化旅游景区,
浙江省台州市临海市江南长城旅游区,旅游景点,浙江省,AAAA,浙江省台州市临海市北山路,台州市,浙江省台州市临海市江南长城旅游区,
雁荡山筋竹涧生态农业观光园,旅游景点,浙江省,AAA,浙江省温州市乐清市芙蓉镇筋竹村,温州市,雁荡山筋竹涧生态农业观光园,
浙江省台州市临海市黄土岭景区,旅游景点,浙江省,AA,浙江省台州市临海市沿江镇石牛村,台州市,浙江省台州市临海市黄土岭景区,
潜艇观光景区,旅游景点,浙江省,AA,浙江省台州市椒江区工人西路1188号,台州市,潜艇观光景区,
红色千里岗景区,旅游景点,浙江省,AAA,浙江省衢州市衢江区灰坪乡龙山村下龙坪村一号,衢州市,红色千里岗景区,
浙北桃花岛生态旅游有限公司,旅游景点,浙江省,AA,浙江省嘉兴市嘉善县姚庄镇北鹤村,嘉兴市,浙北桃花岛生态旅游有限公司,
江山秀美耕读景区,旅游景点,浙江省,AAA,浙江省衢州市江山市江山市贺村镇耕读村,衢州市,江山秀美耕读景区,
浙江省丽水市龙泉市龙泉凤羽休闲山庄,旅游景点,浙江省,AA,浙江省丽水市龙泉市上兴村西岙,丽水市,浙江省丽水市龙泉市龙泉凤羽休闲山庄,
浙江省舟山市定海区新城喜果家庭农场,旅游景点,浙江省,AA,浙江省舟山市定海区临城街道毛竹山社区深坑路1号,舟山市,浙江省舟山市定海区新城喜果家庭农场,
大云镇拳王休闲农庄旅游区,旅游景点,浙江省,AA,浙江省嘉兴市嘉善县大云镇缪家村干泾港88号,嘉兴市,大云镇拳王休闲农庄旅游区,
浙江省嘉兴市平湖市九里亭红色民间展览馆,旅游景点,浙江省,AA,浙江省嘉兴市平湖市曹桥街道九里亭大道1138号,嘉兴市,浙江省嘉兴市平湖市九里亭红色民间展览馆,
德清仙潭景区,旅游景点,浙江省,AAA,浙江省湖州市德清县莫干山镇仙潭村,湖州市,德清仙潭景区,
浙江省温州市鹿城区双屿街道康奈工业园景区,旅游景点,浙江省,AAA,浙江省温州市鹿城区双屿街道双金路6号,温州市,浙江省温州市鹿城区双屿街道康奈工业园景区,0577-56891888-88111
永康市盘龙谷生态旅游区,旅游景点,浙江省,AAA,浙江省金华市永康市前仓镇塘头村,金华市,永康市盘龙谷生态旅游区,
江滨公园,旅游景点,浙江省,AA,浙江省衢州市江山市江山市双塔街道,衢州市,江滨公园,
浙江省湖州市长兴县新四军苏浙军区旧址群景区,旅游景点,浙江省,AAAA,浙江省湖州市长兴县煤山镇新槐村温塘自然村,湖州市,浙江省湖州市长兴县新四军苏浙军区旧址群景区,0572-6782359
浙江省温州市洞头区鹿西岛景区,旅游景点,浙江省,AAA,浙江省温州市洞头区鹿西岛,温州市,浙江省温州市洞头区鹿西岛景区,
天台县雷峰激情谷景区,旅游景点,浙江省,AAA,浙江省台州市天台县天台县雷峰乡崔三村,台州市,天台县雷峰激情谷景区,
千岛湖龙川湾景区,旅游景点,浙江省,AA,浙江省杭州市淳安县姜家镇西南景区（龙川湾）,杭州市,千岛湖龙川湾景区,
富阳市鹳山风景区,旅游景点,浙江省,AAA,浙江省杭州市富阳市富阳市鹳山路2号,杭州市,富阳市鹳山风景区,
淳安县钓鱼岛景区,旅游景点,浙江省,AAA,浙江省杭州市淳安县千岛湖镇环湖北路1210号,杭州市,淳安县钓鱼岛景区,0571-65092828
夏履镇越王峥景区,旅游景点,浙江省,AA,浙江省绍兴市柯桥区夏履镇越王峥村,绍兴市,夏履镇越王峥景区,
浙江省嘉兴市平湖市金丝娘景区,旅游景点,浙江省,AAA,浙江省嘉兴市平湖市独山港镇衙前村8组,嘉兴市,浙江省嘉兴市平湖市金丝娘景区,
猴王谷景区,旅游景点,浙江省,AAA,浙江省温州市文成县文成县西坑镇石垟林场,温州市,猴王谷景区,
浙江省嘉兴市南湖区南湖基金小镇,旅游景点,浙江省,AAA,浙江省嘉兴市南湖区南江路1856号,嘉兴市,浙江省嘉兴市南湖区南湖基金小镇,82572297
浙江省温州市文成县嘉南美地养生度假区,旅游景点,浙江省,AAA,浙江省温州市文成县,温州市,浙江省温州市文成县嘉南美地养生度假区,
浙江省台州市临海市岭根景区,旅游景点,浙江省,AAA,浙江省台州市临海市东塍镇岭根村,台州市,浙江省台州市临海市岭根景区,
浙江省湖州市安吉县安吉大竹海景区,旅游景点,浙江省,AAA,浙江省湖州市安吉县天荒坪镇五鹤村,湖州市,浙江省湖州市安吉县安吉大竹海景区,
谢氏艺术收藏馆旅游区,旅游景点,浙江省,AAA,浙江省嘉兴市海宁市西山路1000号,嘉兴市,谢氏艺术收藏馆旅游区,
浙江省金华市磐安县水下孔景区,旅游景点,浙江省,AAA,浙江省金华市磐安县尖山镇横路村,金华市,浙江省金华市磐安县水下孔景区,
静脉小镇天子岭景区,旅游景点,浙江省,AAA,浙江省杭州市拱墅区临半路90号,杭州市,静脉小镇天子岭景区,
常山县桃花源景区,旅游景点,浙江省,AAA,浙江省衢州市常山县芳村镇新桥村,衢州市,常山县桃花源景区,
浙江省宁波市慈溪市方家河头古村,旅游景点,浙江省,AAA,浙江省宁波市慈溪市龙山镇方家河头村兴方路6号,宁波市,浙江省宁波市慈溪市方家河头古村,63707843
京杭大运河·杭州景区,旅游景点,浙江省,AAAA,浙江省杭州市市辖区,杭州市,京杭大运河·杭州景区,
杭州西溪国家湿地公园?洪园,旅游景点,浙江省,AAAAA,浙江省杭州市余杭区杭州市余杭区五常街道访溪路洪园游客服务中心,杭州市,杭州西溪国家湿地公园?洪园,
欧乐湾海洋生态养生旅游景区,旅游景点,浙江省,AAA,浙江省温州市苍南县金乡镇石坪社区坑南村,温州市,欧乐湾海洋生态养生旅游景区,0577-59952698
东阳市红栋红木家具珍藏馆,旅游景点,浙江省,AAA,浙江省金华市东阳市横店镇东永路168号,金华市,东阳市红栋红木家具珍藏馆,
浙江省金华市磐安县十八涡景区,旅游景点,浙江省,AAAA,浙江省金华市磐安县尖山镇新宅村十八涡景区,金华市,浙江省金华市磐安县十八涡景区,
湖州德清新市古镇景区,旅游景点,浙江省,AAA,浙江省湖州市德清县新市镇宁夏路34号,湖州市,湖州德清新市古镇景区,
浙江省杭州市建德市好运岛景区,旅游景点,浙江省,AAA,浙江省杭州市建德市新安江好运岛景区,杭州市,浙江省杭州市建德市好运岛景区,58312587
东明湖公园,旅游景点,浙江省,AA,浙江省衢州市常山县常山县天马街道城南小区,衢州市,东明湖公园,
浙江省绍兴市诸暨市裕昌号民间艺术馆景区,旅游景点,浙江省,AAA,浙江省绍兴市诸暨市斯宅村160号,绍兴市,浙江省绍兴市诸暨市裕昌号民间艺术馆景区,
浙江省台州市玉环市东沙渔村景区,旅游景点,浙江省,AAA,浙江省台州市玉环市坎门街道东沙南路2号,台州市,浙江省台州市玉环市东沙渔村景区,57687567588
浙江省绍兴市柯桥区稽东镇红豆仙霞景区,旅游景点,浙江省,AAA,浙江省绍兴市柯桥区稽东镇龙东村,绍兴市,浙江省绍兴市柯桥区稽东镇红豆仙霞景区,
大木山茶园景区,旅游景点,浙江省,AAAA,浙江省丽水市松阳县新兴镇横溪村小集镇69号,丽水市,大木山茶园景区,5788817102
浙江省台州市临海市牛头山景区,旅游景点,浙江省,AAA,浙江省台州市临海市邵家渡街道牛头山村,台州市,浙江省台州市临海市牛头山景区,
绍兴市兰亭景区管理处,旅游景点,浙江省,AAAA,浙江省绍兴市市辖区绍兴县兰亭镇,绍兴市,绍兴市兰亭景区管理处,
城山沟景区,旅游景点,浙江省,AAA,浙江省湖州市长兴县和平镇城山村平桥水库,湖州市,城山沟景区,
浙江省绍兴市诸暨市乐聚·星原力机器人主题馆,旅游景点,浙江省,A,浙江省绍兴市诸暨市浣东街道东二路125号（鸿迪大厦4楼）,绍兴市,浙江省绍兴市诸暨市乐聚·星原力机器人主题馆,
浙江省台州市仙居县永安溪休闲绿道景区,旅游景点,浙江省,AAAA,浙江省台州市仙居县南峰街道晨曦路永安公园,台州市,浙江省台州市仙居县永安溪休闲绿道景区,
钱江源森林公园景区,旅游景点,浙江省,AA,浙江省衢州市开化县齐溪镇西坑口村环湖路33号,衢州市,钱江源森林公园景区,
浙江省金华市永康市大陈村景区,旅游景点,浙江省,AAA,浙江省金华市永康市前仓镇,金华市,浙江省金华市永康市大陈村景区,
湖州含山风景区,旅游景点,浙江省,AA,浙江省湖州市南浔区湖州市善琏镇,湖州市,湖州含山风景区,
浙江省杭州市桐庐县严子陵钓台景区,旅游景点,浙江省,AAAA,浙江省杭州市桐庐县云源路1号,杭州市,浙江省杭州市桐庐县严子陵钓台景区,0571-64651949
浙江省丽水市景宁畲族自治县云中大漈景区,旅游景点,浙江省,AAAA,浙江省丽水市景宁畲族自治县大漈乡,丽水市,浙江省丽水市景宁畲族自治县云中大漈景区,
浙江省温州市文成县刘基故里景区,旅游景点,浙江省,AAA,浙江省温州市文成县体育场路898号,温州市,浙江省温州市文成县刘基故里景区,
许家山历史文化名村,旅游景点,浙江省,AAA,浙江省宁波市宁海县宁海县茶院乡,宁波市,许家山历史文化名村,
浙江省衢州市常山县砚瓦山村,旅游景点,浙江省,AA,浙江省衢州市常山县砚瓦山村,衢州市,浙江省衢州市常山县砚瓦山村,
绍兴市越城区方圆观光农业园,旅游景点,浙江省,AA,浙江省绍兴市越城区皋埠镇吼山村,绍兴市,绍兴市越城区方圆观光农业园,
龙游石窟,旅游景点,浙江省,AAAA,浙江省衢州市龙游县龙游县小南海镇石岩背村,衢州市,龙游石窟,
梁祝文化园,旅游景点,浙江省,AAAA,浙江省宁波市海曙区高桥镇梁祝村梁祝路1号,宁波市,梁祝文化园,
浙江省绍兴市柯桥区巷深竹缘小千养生谷旅游景区,旅游景点,浙江省,AA,浙江省绍兴市柯桥区平水镇下灶村小千自然村,绍兴市,浙江省绍兴市柯桥区巷深竹缘小千养生谷旅游景区,
天下湖品购物景区,旅游景点,浙江省,AA,浙江省湖州市吴兴区湖州市青铜北路菰城景区东大门,湖州市,天下湖品购物景区,
宁海胡陈东山桃园景区,旅游景点,浙江省,AAA,浙江省宁波市宁海县东山村76号,宁波市,宁海胡陈东山桃园景区,15825592225
新市古镇旅业发展有限公司,旅游景点,浙江省,AAA,浙江省湖州市德清县德清县新市镇宁夏路34号,湖州市,新市古镇旅业发展有限公司,
丽水东西岩风景区,旅游景点,浙江省,AAAA,浙江省丽水市莲都区老竹畲族镇东西岩,丽水市,丽水东西岩风景区,
浙江省台州市天台县花漾太空农场景区,旅游景点,浙江省,AAA,浙江省台州市天台县山庵村,台州市,浙江省台州市天台县花漾太空农场景区,
御玺明代贡茶园,旅游景点,浙江省,AAA,浙江省衢州市开化县芹源村,衢州市,御玺明代贡茶园,
象山石浦渔港古城旅游发展有限公司,旅游景点,浙江省,AAAA,浙江省宁波市象山县象山县石浦镇渔港中路58号海峡广场五号楼二楼,宁波市,象山石浦渔港古城旅游发展有限公司,
南浔古镇景区,旅游景点,浙江省,AAAAA,浙江省湖州市南浔区湖州市南浔区南浔镇适园路18号,湖州市,南浔古镇景区,
浙江省丽水市遂昌县汤沐园温泉旅游区,旅游景点,浙江省,AAA,浙江省丽水市遂昌县大柘镇大田村49号,丽水市,浙江省丽水市遂昌县汤沐园温泉旅游区,
东湖景区,旅游景点,浙江省,AAAA,浙江省嘉兴市平湖市环城东路南村书堆,嘉兴市,东湖景区,
浙江省温州市平阳县浙南（平阳）工农红军挺进师纪念园,旅游景点,浙江省,AAA,浙江省温州市平阳县山门镇平西路208号,温州市,浙江省温州市平阳县浙南（平阳）工农红军挺进师纪念园,
海门老街,旅游景点,浙江省,AAA,浙江省台州市椒江区椒江区海门老街,台州市,海门老街,
浙江省绍兴市新昌县丝绸世界旅游区,旅游景点,浙江省,AAAA,浙江省绍兴市新昌县,绍兴市,浙江省绍兴市新昌县丝绸世界旅游区,0575-86288011
千岛湖玖玖花海景区,旅游景点,浙江省,AA,浙江省杭州市淳安县汾口镇二桥头,杭州市,千岛湖玖玖花海景区,
嘉兴秀洲区国际毛衫城,旅游景点,浙江省,AAA,浙江省嘉兴市秀洲区洪合镇嘉洪大道2199号,嘉兴市,嘉兴秀洲区国际毛衫城,
碗窑景区,旅游景点,浙江省,AAA,浙江省温州市苍南县桥墩镇碗窑村,温州市,碗窑景区,
临安市太湖源景区,旅游景点,浙江省,AAAA,浙江省杭州市临安市临安市太湖源镇白沙村,杭州市,临安市太湖源景区,
杭州市清河坊历史文化景区,旅游景点,浙江省,AAAA,浙江省杭州市上城区杭州市上城区河坊街180号,杭州市,杭州市清河坊历史文化景区,
衢州七彩长虹景区,旅游景点,浙江省,AAAA,浙江省衢州市开化县长虹乡,衢州市,衢州七彩长虹景区,
浙江省金华市武义县东垄景区,旅游景点,浙江省,AAA,浙江省金华市武义县桃溪镇东垄村,金华市,浙江省金华市武义县东垄景区,
蘑幻菇林景区,旅游景点,浙江省,AA,浙江省丽水市莲都区碧湖镇采桑路808号,丽水市,蘑幻菇林景区,0578-2990996
绍兴县香雪梅海旅游区,旅游景点,浙江省,AAA,浙江省绍兴市绍兴县王坛镇东村,绍兴市,绍兴县香雪梅海旅游区,
新昌县七盘仙谷风景区,旅游景点,浙江省,AAA,浙江省绍兴市新昌县城南乡潜溪村,绍兴市,新昌县七盘仙谷风景区,
浙江省宁波市宁海县森林温泉景区,旅游景点,浙江省,AAAA,浙江省宁波市宁海县深甽镇南溪村,宁波市,浙江省宁波市宁海县森林温泉景区,
秀美耕读景区,旅游景点,浙江省,AAA,浙江省衢州市江山市贺村镇耕读村大石山底57号,衢州市,秀美耕读景区,
浙江省杭州市拱墅区运河财富小镇景区,旅游景点,浙江省,AAA,浙江省杭州市拱墅区小河街道丽水路101号,杭州市,浙江省杭州市拱墅区运河财富小镇景区,
下姜村景区,旅游景点,浙江省,AAAA,浙江省杭州市淳安县枫树岭镇下姜村,杭州市,下姜村景区,
绍兴市华东国际珠宝城,旅游景点,浙江省,AAAA,浙江省绍兴市诸暨市诸暨市山下湖镇华东国际珠宝城综合楼12层,绍兴市,绍兴市华东国际珠宝城,
海之湾户外大本营,旅游景点,浙江省,AAA,浙江省宁波市象山县晓塘乡西边塘村,宁波市,海之湾户外大本营,0574-65659888
桐乡市博物馆景区,旅游景点,浙江省,AA,浙江省嘉兴市桐乡市振东新区环园路399号,嘉兴市,桐乡市博物馆景区,
钱君匋艺术研究馆,旅游景点,浙江省,AA,浙江省嘉兴市海宁市海宁市西山路493号,嘉兴市,钱君匋艺术研究馆,
九华妙源景区,旅游景点,浙江省,AAA,浙江省衢州市柯城区九华乡妙源村,衢州市,九华妙源景区,
浙江省衢州市柯城区桃源七里景区,旅游景点,浙江省,AAAA,浙江省衢州市柯城区七里乡,衢州市,浙江省衢州市柯城区桃源七里景区,
浙江省温州市乐清市永乐人民抗日自卫游击总队纪念馆,旅游景点,浙江省,AA,浙江省温州市乐清市岭底乡泽基村,温州市,浙江省温州市乐清市永乐人民抗日自卫游击总队纪念馆,
浙江省湖州市安吉县余村景区,旅游景点,浙江省,AAAA,浙江省湖州市安吉县天荒坪镇余村村,湖州市,浙江省湖州市安吉县余村景区,
竹意百丈景区,旅游景点,浙江省,AAA,浙江省杭州市余杭区百丈镇竹城路213号,杭州市,竹意百丈景区,
浙江省台州市三门亭旁红色文化教育基地,旅游景点,浙江省,AAA,浙江省台州市三门县亭旁镇,台州市,浙江省台州市三门亭旁红色文化教育基地,
宁波大桥生态农庄,旅游景点,浙江省,AAAA,浙江省宁波市慈溪市慈溪市杭州湾跨海大桥管理局西侧1公里,宁波市,宁波大桥生态农庄,
盘龙谷生态旅游区,旅游景点,浙江省,AAA,浙江省金华市永康市前仓镇塘头村,金华市,盘龙谷生态旅游区,
嘉兴碧云花园有限公司,旅游景点,浙江省,AAAA,浙江省嘉兴市嘉善县大云镇,嘉兴市,嘉兴碧云花园有限公司,
三山公园,旅游景点,浙江省,AA,浙江省绍兴市越城区府山横街270号,绍兴市,三山公园,
浙江省宁波市江北区慈城镇膜幻动力小镇景区,旅游景点,浙江省,AAA,浙江省宁波市江北区庆丰路799弄,宁波市,浙江省宁波市江北区慈城镇膜幻动力小镇景区,
浙江省金华市金东区澧浦镇琐园国际研学村景区,旅游景点,浙江省,AAA,浙江省金华市金东区澧浦镇琐园村,金华市,浙江省金华市金东区澧浦镇琐园国际研学村景区,
衢州悦龙湾景区,旅游景点,浙江省,AAA,浙江省衢州市衢江区后溪镇撑口水库旁,衢州市,衢州悦龙湾景区,
浙江省丽水市莲都区古堰画乡景区,旅游景点,浙江省,AAAA,浙江省丽水市莲都区大港头镇,丽水市,浙江省丽水市莲都区古堰画乡景区,
杭州双溪漂流景区,旅游景点,浙江省,AAAA,浙江省杭州市余杭区径山镇双溪竹海路7号,杭州市,杭州双溪漂流景区,
浙江省湖州市长兴县水口乡水口茶文化景区,旅游景点,浙江省,AAAA,浙江省湖州市长兴县水口乡水口茶文化景区,湖州市,浙江省湖州市长兴县水口乡水口茶文化景区,
绍兴市吼山旅游发展有限公司,旅游景点,浙江省,AAA,浙江省绍兴市越城区绍兴市越城区皋埠镇吼山,绍兴市,绍兴市吼山旅游发展有限公司,
嘉兴市南湖旅游区,旅游景点,浙江省,AAAAA,浙江省嘉兴市市辖区嘉兴市南溪路1号,嘉兴市,嘉兴市南湖旅游区,
小营·江南红巷景区,旅游景点,浙江省,AAA,浙江省杭州市上城区杭州市上城区小营公园26号,杭州市,小营·江南红巷景区,
安吉高家堂景区,旅游景点,浙江省,AAA,浙江省湖州市安吉县山川乡高家堂村,湖州市,安吉高家堂景区,
遂昌汤沐园森林温泉,旅游景点,浙江省,AA,浙江省丽水市遂昌县大柘镇大田村49号,丽水市,遂昌汤沐园森林温泉,
凤鸣山景区,旅游景点,浙江省,AA,浙江省绍兴市上虞区丰惠镇凤鸣村,绍兴市,凤鸣山景区,
浙江省台州市椒江区海门老街景区,旅游景点,浙江省,AAA,浙江省台州市椒江区人民路（海门老街）,台州市,浙江省台州市椒江区海门老街景区,
浙江省丽水市龙泉市宝溪景区,旅游景点,浙江省,AAAA,浙江省丽水市龙泉市宝溪乡溪头村10号,丽水市,浙江省丽水市龙泉市宝溪景区,
云和县小顺景区,旅游景点,浙江省,AAA,浙江省丽水市云和县石塘镇小顺村,丽水市,云和县小顺景区,
宁海县森林温泉旅游区,旅游景点,浙江省,AAAA,浙江省宁波市宁海县深甽镇南溪温泉,宁波市,宁海县森林温泉旅游区,
浙江省温州市瓯海区茶山镇温州乐园,旅游景点,浙江省,AAAA,浙江省温州市瓯海区霞岙村,温州市,浙江省温州市瓯海区茶山镇温州乐园,86687350
浙江省杭州市余杭区艺尚小镇景区,旅游景点,浙江省,AAA,浙江省杭州市余杭区乔司街道汀兰街游客服务中心,杭州市,浙江省杭州市余杭区艺尚小镇景区,
浙江省杭州市富阳区富春桃源景区,旅游景点,浙江省,AAAA,浙江省杭州市富阳区胥口镇上练村,杭州市,浙江省杭州市富阳区富春桃源景区,63283147
绍兴市东湖景区管理处,旅游景点,浙江省,AAAA,浙江省绍兴市市辖区绍兴市越城区东湖镇,绍兴市,绍兴市东湖景区管理处,
嘉善县孙道临电影艺术馆,旅游景点,浙江省,AA,浙江省嘉兴市嘉善县罗星街道嘉善大道1号,嘉兴市,嘉善县孙道临电影艺术馆,
海宁谢氏艺术收藏馆,旅游景点,浙江省,AAA,浙江省嘉兴市海宁市海宁市西山路1000号,嘉兴市,海宁谢氏艺术收藏馆,
红色茶山景区,旅游景点,浙江省,AAA,浙江省杭州市淳安县中洲镇厦山村1号,杭州市,红色茶山景区,
江郎山-廿八都旅游区,旅游景点,浙江省,AAAAA,浙江省衢州市江山市民声路48号,衢州市,江郎山-廿八都旅游区,
杭州龙门古镇景区,旅游景点,浙江省,AAAA,浙江省杭州市富阳区龙门镇龙门古镇旅游公司,杭州市,杭州龙门古镇景区,
诸暨西施故里旅游管理区,旅游景点,浙江省,AAAA,浙江省绍兴市诸暨市诸暨市浣纱南路123号,绍兴市,诸暨西施故里旅游管理区,
嵊泗东海五渔村,旅游景点,浙江省,AAAA,舟山市嵊泗县五龙乡边礁村朝阳南路，嵊泗县五龙乡会城村朝阳北路,舟山市,嵊泗东海五渔村,
宁波梁皇山景区,旅游景点,浙江省,AAA,浙江省宁波市宁海县前童镇梁皇山景区,宁波市,宁波梁皇山景区,
瑶溪风景区,旅游景点,浙江省,AAA,浙江省温州市龙湾区瑶溪街道瑶溪村,温州市,瑶溪风景区,
良渚.玉文化园,旅游景点,浙江省,AAA,浙江省杭州市余杭区余杭区良渚街道良博路249号,杭州市,良渚.玉文化园,
杭州湾海上花田景区,旅游景点,浙江省,AAAA,浙江省绍兴市上虞区滨海新城花海大道1000号,绍兴市,杭州湾海上花田景区,
浙江省丽水市遂昌县竹炭博物馆,旅游景点,浙江省,AAA,浙江省丽水市遂昌县妙高街道 上江工业园区 炭缘路1号,丽水市,浙江省丽水市遂昌县竹炭博物馆,0578-8185218
海宁市博物馆（徐志摩旧居）,旅游景点,浙江省,AA,浙江省嘉兴市海宁市西山路542号（干河街38号）,嘉兴市,海宁市博物馆（徐志摩旧居）,
中国江南水乡文化博物馆,旅游景点,浙江省,AAA,浙江省杭州市余杭区杭州市临平南大街95号,杭州市,中国江南水乡文化博物馆,
浙江省杭州市余杭区双溪漂流景区,旅游景点,浙江省,AAAA,浙江省杭州市余杭区径山镇双溪竹路7号,杭州市,浙江省杭州市余杭区双溪漂流景区,57188501888
锦林佛手文化园,旅游景点,浙江省,AAAA,浙江省金华市金东区赤松镇山口村,金华市,锦林佛手文化园,
浙江省丽水市缙云县黄龙景区,旅游景点,浙江省,AAAA,浙江省丽水市缙云县五云街道黄龙景区,丽水市,浙江省丽水市缙云县黄龙景区,0578-3128333
三门农博园,旅游景点,浙江省,AAA,浙江省台州市三门县健跳镇六敖北塘,台州市,三门农博园,
金华双龙风景旅游区,旅游景点,浙江省,AAAA,浙江省金华市市辖区罗店镇,金华市,金华双龙风景旅游区,
浙江省宁波市宁海县伍山石窟景区,旅游景点,浙江省,AAAA,浙江省宁波市宁海县长街镇唐岸头村,宁波市,浙江省宁波市宁海县伍山石窟景区,
吴子熊玻璃艺术馆,旅游景点,浙江省,AAA,浙江省台州市市辖区台州市中心大道398号,台州市,吴子熊玻璃艺术馆,
浙江省温州市乐清市乐清智能电气小镇旅游区,旅游景点,浙江省,AAA,浙江省温州市乐清市柳市镇沿江大道500号,温州市,浙江省温州市乐清市乐清智能电气小镇旅游区,
达蓬山旅游度假区,旅游景点,浙江省,AAAA,浙江省宁波市慈溪市慈溪市龙山镇达蓬山旅游度假区,宁波市,达蓬山旅游度假区,
中南百草原景区,旅游景点,浙江省,AAAA,浙江省湖州市安吉县递铺镇三官村,湖州市,中南百草原景区,
浙江省杭州市临安区红叶指南旅游景区,旅游景点,浙江省,AAA,浙江省杭州市临安区太湖源镇指南村,杭州市,浙江省杭州市临安区红叶指南旅游景区,
大佛寺文化旅游区,旅游景点,浙江省,AAAA,浙江省绍兴市新昌县人民西路117号,绍兴市,大佛寺文化旅游区,
浙江省绍兴市上虞区二都杨梅生态园,旅游景点,浙江省,AAA,浙江省绍兴市上虞区驿亭镇,绍兴市,浙江省绍兴市上虞区二都杨梅生态园,
世合理想大地景区,旅游景点,浙江省,AAA,浙江省嘉兴市南湖区余新镇果园路1弄88号,嘉兴市,世合理想大地景区,
嘉兴市莲泗荡风景区,旅游景点,浙江省,AAA,浙江省嘉兴市秀洲区王江泾镇民主村刘王庙35号,嘉兴市,嘉兴市莲泗荡风景区,83721673
浙江省嘉兴市南湖区梅花洲景区,旅游景点,浙江省,AAAA,浙江省嘉兴市南湖区凤桥镇三星路10号,嘉兴市,浙江省嘉兴市南湖区梅花洲景区,
中国轻纺城市场景区,旅游景点,浙江省,AAA,浙江省绍兴市绍兴县绍兴县柯桥金柯桥大道与329国道交叉,绍兴市,中国轻纺城市场景区,
溪口滕头旅游景区,旅游景点,浙江省,AAAAA,浙江省宁波市奉化市奉化市南山路138号,宁波市,溪口滕头旅游景区,
常山黄泥塘金钉子景区,旅游景点,浙江省,AA,浙江省衢州市常山县常山县天马镇周塘村,衢州市,常山黄泥塘金钉子景区,
黄贤森林公园景区,旅游景点,浙江省,AAAA,浙江省宁波市奉化区裘村街道黄贤村,宁波市,黄贤森林公园景区,
浙江省杭州市临安区西径山景区,旅游景点,浙江省,AAA,浙江省杭州市临安区锦北街道集贤村上村56号,杭州市,浙江省杭州市临安区西径山景区,
浙江省丽水市莲都区鱼跃1919文化产业园景区,旅游景点,浙江省,AA,浙江省丽水市莲都区碧湖镇碧云街862号,丽水市,浙江省丽水市莲都区鱼跃1919文化产业园景区,0578-2631919
浙江省杭州市桐庐县浪石金滩景区,旅游景点,浙江省,AAAA,浙江省杭州市桐庐县横村镇浪石村,杭州市,浙江省杭州市桐庐县浪石金滩景区,
温州熊世界,旅游景点,浙江省,AA,浙江省温州市瓯海区瞿溪街道雄中路88号,温州市,温州熊世界,0577-88509369
平湖市国际游购小镇景区,旅游景点,浙江省,AAA,浙江省嘉兴市平湖市新埭镇新南路398号,嘉兴市,平湖市国际游购小镇景区,
东钱湖马山休闲旅游区,旅游景点,浙江省,AAAA,浙江省宁波市东钱湖旅游度假区东钱湖环湖东路,宁波市,东钱湖马山休闲旅游区,
黄岩桐树坑红色景区,旅游景点,浙江省,AAA,浙江省台州市黄岩区平田乡桐树坑村,台州市,黄岩桐树坑红色景区,84972102
绿野山庄,旅游景点,浙江省,AAAA,浙江省宁波市江北区宁波市江北区慈城镇五星村,宁波市,绿野山庄,
浙江省绍兴市诸暨市诸暨国际商贸城景区,旅游景点,浙江省,AAA,浙江省绍兴市诸暨市,绍兴市,浙江省绍兴市诸暨市诸暨国际商贸城景区,0575-89073016
月满新塘风景区,旅游景点,浙江省,AAA,浙江省衢州市江山市江山市新塘边镇日月村,衢州市,月满新塘风景区,
天下玉苑,旅游景点,浙江省,AAAA,浙江省宁波市余姚市大隐镇山王北路85号,宁波市,天下玉苑,
浙江省丽水市松阳县象溪一村景区,旅游景点,浙江省,AAA,浙江省丽水市松阳县象溪镇象溪一村,丽水市,浙江省丽水市松阳县象溪一村景区,
浙江省金华市市辖区金华新能源汽车小镇,旅游景点,浙江省,AAA,浙江省金华市市辖区,金华市,浙江省金华市市辖区金华新能源汽车小镇,
磐安夹溪十八涡景区,旅游景点,浙江省,AAAA,浙江省金华市磐安县磐安县尖山镇十八涡景区,金华市,磐安夹溪十八涡景区,
舟山市定海伊甸园休闲农庄,旅游景点,浙江省,A,浙江省舟山市定海区定海区岑港镇坞坵社区,舟山市,舟山市定海伊甸园休闲农庄,
浙江省台州市三门县三特渔村农家乐园景区,旅游景点,浙江省,AAA,浙江省台州市三门县海润街道鲍家村,台州市,浙江省台州市三门县三特渔村农家乐园景区,
普陀白沙岛景区,旅游景点,浙江省,AAA,浙江省舟山市普陀区白沙岛后沙头68号,舟山市,普陀白沙岛景区,
千岛湖九咆界风景区,旅游景点,浙江省,AAA,浙江省杭州市淳安县屏门乡,杭州市,千岛湖九咆界风景区,
浙江省金华市武义县大红岩景区,旅游景点,浙江省,AAAA,浙江省金华市武义县白姆乡横山村大红岩景区,金华市,浙江省金华市武义县大红岩景区,
坝桥景区,旅游景点,浙江省,AA,浙江省嘉兴市桐乡市洲泉镇德胜西路1118号,嘉兴市,坝桥景区,13967360578
裕昌号民间艺术馆景区,旅游景点,浙江省,AAA,浙江省绍兴市诸暨市东白湖镇斯宅村160号,绍兴市,裕昌号民间艺术馆景区,
上虞覆卮山景区,旅游景点,浙江省,AAA,浙江省绍兴市上虞市上虞区岭南乡东澄村,绍兴市,上虞覆卮山景区,
红里山村景区,旅游景点,浙江省,AAA,浙江省湖州市吴兴区道场乡红里山村,湖州市,红里山村景区,
苍南桥墩五凤茶园旅游景区,旅游景点,浙江省,AAA,浙江省温州市苍南县苍南桥墩五凤,温州市,苍南桥墩五凤茶园旅游景区,
浙江省舟山市定海区海力生工业旅游园,旅游景点,浙江省,AA,浙江省舟山市定海区白泉镇新港十一道62号,舟山市,浙江省舟山市定海区海力生工业旅游园,
浙江省湖州市安吉县中国竹子博览园,旅游景点,浙江省,AAAA,浙江省湖州市安吉县递铺镇灵峰街道竹博园1号,湖州市,浙江省湖州市安吉县中国竹子博览园,0572-5338988
浙江省杭州市桐庐县横村镇白云间休闲旅游度假区景区,旅游景点,浙江省,AAA,浙江省杭州市桐庐县横村镇白云村,杭州市,浙江省杭州市桐庐县横村镇白云间休闲旅游度假区景区,
浙江省台州市玉环市干江镇白马岙景区,旅游景点,浙江省,AAA,浙江省台州市玉环市干江镇,台州市,浙江省台州市玉环市干江镇白马岙景区,
浙江省金华市磐安县乌石村景区,旅游景点,浙江省,AAA,浙江省金华市磐安县尖山镇乌石村管头诚信街33号,金华市,浙江省金华市磐安县乌石村景区,
鲁迅故里.沈园景区(鲁迅故里）,旅游景点,浙江省,AAAAA,浙江省绍兴市市辖区鲁迅中路235号,绍兴市,鲁迅故里.沈园景区(鲁迅故里）,
天池荷花景区,旅游景点,浙江省,AAA,浙江省衢州市龙游县横山镇天池村,衢州市,天池荷花景区,
浙江省舟山市定海区万花谷旅游景区,旅游景点,浙江省,AA,浙江省舟山市定海区岑港街道司前社区老塘山杨家,舟山市,浙江省舟山市定海区万花谷旅游景区,5808380888
湖州市德清莫干山风景区,旅游景点,浙江省,AAAA,浙江省湖州市德清县莫干山景区97号,湖州市,湖州市德清莫干山风景区,0572-8033308
毛泽东同志新仓经验批示展示馆,旅游景点,浙江省,AA,浙江省嘉兴市平湖市新仓镇朝阳路158号,嘉兴市,毛泽东同志新仓经验批示展示馆,
浙江省绍兴市柯桥区印山越国王陵景区,旅游景点,浙江省,AA,浙江省绍兴市柯桥区兰亭镇里木栅村,绍兴市,浙江省绍兴市柯桥区印山越国王陵景区,
小沙旅游区,旅游景点,浙江省,A,浙江省舟山市定海区定海小沙镇庙桥社区陈家60号,舟山市,小沙旅游区,
诸暨市斗岩风景区,旅游景点,浙江省,AA,浙江省绍兴市诸暨市诸暨市牌头镇斗岩风景区,绍兴市,诸暨市斗岩风景区,
浙江省宁波市象山县石浦中国渔村景区,旅游景点,浙江省,AAAA,浙江省宁波市象山县,宁波市,浙江省宁波市象山县石浦中国渔村景区,
浙江省台州市临海市江南大峡谷景区,旅游景点,浙江省,AAA,浙江省台州市临海市尤溪镇,台州市,浙江省台州市临海市江南大峡谷景区,
金华万象花卉田园休闲俱乐部,旅游景点,浙江省,AA,浙江省金华市开发区金华市定业新村石门农垦场内,金华市,金华万象花卉田园休闲俱乐部,
湖州市南浔古镇景区,旅游景点,浙江省,AAAAA,浙江省湖州市南浔区南浔镇人瑞路51号,湖州市,湖州市南浔古镇景区,3018005
桐乡市君匋艺术院,旅游景点,浙江省,AA,浙江省嘉兴市桐乡市桐乡市梧桐街道庆丰南路59号,嘉兴市,桐乡市君匋艺术院,
仙山湖国家湿地公园,旅游景点,浙江省,AAAA,浙江省湖州市长兴县泗安镇泗安村,湖州市,仙山湖国家湿地公园,
瓯歌农林观光园景区,旅游景点,浙江省,AAA,浙江省温州市瓯海区娄桥街道岭头山,温州市,瓯歌农林观光园景区,
石浦渔港古城景区,旅游景点,浙江省,AAAA,浙江省宁波市象山县石浦镇渔港中路58号,宁波市,石浦渔港古城景区,65982221
杭州梦想小镇景区,旅游景点,浙江省,AAAA,浙江省杭州市余杭区良睦路1399号,杭州市,杭州梦想小镇景区,13732267140
桐乡市森利园景区,旅游景点,浙江省,AA,浙江省嘉兴市桐乡市桐乡市崇福镇东安村鸽子浜,嘉兴市,桐乡市森利园景区,
诸暨国际商贸城·一期市场,旅游景点,浙江省,AA,浙江省绍兴市诸暨市暨阳街道暨南路9号,绍兴市,诸暨国际商贸城·一期市场,
楠溪江风景名胜区,旅游景点,浙江省,AAAA,浙江省温州市永嘉县永嘉县县前路94号,温州市,楠溪江风景名胜区,
浙江省台州市天台县安科景区,旅游景点,浙江省,AAA,浙江省台州市天台县始丰街道安科新村,台州市,浙江省台州市天台县安科景区,
浙江省湖州市吴兴区金盖山景区,旅游景点,浙江省,AAA,浙江省湖州市吴兴区道场乡,湖州市,浙江省湖州市吴兴区金盖山景区,
玉环漩门湾观光农业开发有限公司,旅游景点,浙江省,AAAA,浙江省台州市玉环县玉环县楚南塘,台州市,玉环漩门湾观光农业开发有限公司,
义乌中国国际商贸城购物旅游景区,旅游景点,浙江省,AAAA,浙江省金华市义乌市义乌市银海路国际商贸城3号门4楼,金华市,义乌中国国际商贸城购物旅游景区,
石崆寺景区,旅游景点,浙江省,AA,浙江省衢州市常山县常山县天马街道西峰村,衢州市,石崆寺景区,
浙江省杭州市西湖区灵山景区,旅游景点,浙江省,AAA,浙江省杭州市西湖区双浦镇双灵村185号,杭州市,浙江省杭州市西湖区灵山景区,0571-88263967
浙江省绍兴市越城区中国黄酒博物馆,旅游景点,浙江省,AAA,浙江省绍兴市越城区,绍兴市,浙江省绍兴市越城区中国黄酒博物馆,
常山奇石馆,旅游景点,浙江省,AAA,浙江省衢州市常山县金川街道竹亭路1号,衢州市,常山奇石馆,
松阴溪景区,旅游景点,浙江省,AAAA,浙江省丽水市松阳县江南公路独山驿站,丽水市,松阴溪景区,5788817102
温州市雁荡山风景旅游管委会,旅游景点,浙江省,AAAAA,浙江省温州市乐清市雁荡镇雁山路88号,温州市,温州市雁荡山风景旅游管委会,
舟山桃花岛风景旅游区,旅游景点,浙江省,AAAA,浙江省舟山市普陀区桃花镇,舟山市,舟山桃花岛风景旅游区,
顺溪古镇,旅游景点,浙江省,AAA,浙江省温州市平阳县顺溪镇益民路15号,温州市,顺溪古镇,
浙江省杭州市江干区丁兰智慧小镇景区,旅游景点,浙江省,AAA,浙江省杭州市江干区临丁路699号1号楼,杭州市,浙江省杭州市江干区丁兰智慧小镇景区,
二都（村）景区,旅游景点,浙江省,AAA,浙江省湖州市德清县二都村,湖州市,二都（村）景区,
浙江省温州市平阳县黄汤茶博园,旅游景点,浙江省,AAA,浙江省温州市平阳县水头镇朝阳社区新联村,温州市,浙江省温州市平阳县黄汤茶博园,
嵊州市瞻山风景旅游区,旅游景点,浙江省,AA,浙江省绍兴市嵊州市嵊州市崇仁镇廿八都村,绍兴市,嵊州市瞻山风景旅游区,
会稽山千年香榧林,旅游景点,浙江省,AAA,浙江省绍兴市绍兴县稽东镇占岙村,绍兴市,会稽山千年香榧林,
大奇山国家森林公园,旅游景点,浙江省,AAA,浙江省杭州市桐庐县桐庐县城南街道大奇山林场,杭州市,大奇山国家森林公园,
浙江省湖州市安吉县浙北大峡谷景区,旅游景点,浙江省,AAAA,浙江省湖州市安吉县报福镇石岭村沙坡坎自然村25号,湖州市,浙江省湖州市安吉县浙北大峡谷景区,0572-5612111
浙江省衢州市江山市张村乡太阳山景区,旅游景点,浙江省,AAA,浙江省衢州市江山市张村乡太阳山村雨坛自然村,衢州市,浙江省衢州市江山市张村乡太阳山景区,
浙江省嘉兴市嘉善县嘉善国际木雕文化园景区,旅游景点,浙江省,AAA,浙江省嘉兴市嘉善县木业大道777号,嘉兴市,浙江省嘉兴市嘉善县嘉善国际木雕文化园景区,
横溪风景旅游区,旅游景点,浙江省,AAA,浙江省宁波市鄞州区横溪镇,宁波市,横溪风景旅游区,
浙江省宁波市江北区慈城镇五星村绿野山居,旅游景点,浙江省,AAAA,浙江省宁波市江北区慈城五星村绿野山居,宁波市,浙江省宁波市江北区慈城镇五星村绿野山居,
稻乡人家景区,旅游景点,浙江省,AA,浙江省嘉兴市桐乡市桐乡市洲泉镇道村村,嘉兴市,稻乡人家景区,
青田县阜山清真禅寺旅游区,旅游景点,浙江省,AAA,浙江省丽水市青田县青田阜山清真禅寺,丽水市,青田县阜山清真禅寺旅游区,
浙江省金华市金东区蒲塘古村,旅游景点,浙江省,AAA,浙江省金华市金东区澧浦镇蒲塘村,金华市,浙江省金华市金东区蒲塘古村,
浙江省杭州市桐庐县武盛古街景区,旅游景点,浙江省,AAA,浙江省杭州市桐庐县武盛村,杭州市,浙江省杭州市桐庐县武盛古街景区,
浙江省温州市瑞安市玉海楼景区,旅游景点,浙江省,AAA,浙江省温州市瑞安市玉海街道道院前街5号,温州市,浙江省温州市瑞安市玉海楼景区,
宁皮市保国寺古建筑博物馆,旅游景点,浙江省,AAAA,浙江省宁波市江北区洪塘街道,宁波市,宁皮市保国寺古建筑博物馆,
浙江省湖州市安吉县九龙峡景区,旅游景点,浙江省,AAA,浙江省湖州市安吉县天荒坪镇大溪村,湖州市,浙江省湖州市安吉县九龙峡景区,5112999
紫微星谷,旅游景点,浙江省,AAA,浙江省衢州市衢江区衢州市衢江区黄坛口乡,衢州市,紫微星谷,
同康酱酒园景区,旅游景点,浙江省,AA,浙江省台州市椒江区东海大道东段989号,台州市,同康酱酒园景区,89062521
善琏湖笔文化园,旅游景点,浙江省,AA,浙江省湖州市南浔区善琏镇湖笔街158号,湖州市,善琏湖笔文化园,
浙江台州黄岩布袋山旅游开发有限公司,旅游景点,浙江省,AAA,浙江省台州市黄岩区台州市黄岩区屿头乡布袋坑村,台州市,浙江台州黄岩布袋山旅游开发有限公司,
东浜头村漫画文化园,旅游景点,浙江省,AA,浙江省嘉兴市桐乡市河山镇东浜头村,嘉兴市,东浜头村漫画文化园,
桐乡市博物馆,旅游景点,浙江省,AA,浙江省嘉兴市桐乡市文化中心内,嘉兴市,桐乡市博物馆,
浙江省嘉兴市桐乡市乌镇景区,旅游景点,浙江省,AAAAA,浙江省嘉兴市桐乡市乌镇西大街448-458号,嘉兴市,浙江省嘉兴市桐乡市乌镇景区,
瑞安侨贸小镇,旅游景点,浙江省,AAA,浙江省温州市瑞安市飞云街道物流大厦,温州市,瑞安侨贸小镇,
四明山国家森林公园,旅游景点,浙江省,AAA,浙江省宁波市余姚市四明山镇,宁波市,四明山国家森林公园,
兰溪六洞山风景区,旅游景点,浙江省,AAA,浙江省金华市兰溪市灵洞乡洞源村,金华市,兰溪六洞山风景区,
杭州山沟沟旅游景区,旅游景点,浙江省,AAAA,浙江省杭州市余杭区鸬鸟镇山沟沟村下余65号,杭州市,杭州山沟沟旅游景区,
浙江省金华市金东区锦林佛手文化园景区,旅游景点,浙江省,AAAA,浙江省金华市金东区赤松镇山口村金鹤畈,金华市,浙江省金华市金东区锦林佛手文化园景区,0579-82090888
富阳市天钟山景区,旅游景点,浙江省,AAA,浙江省杭州市富阳市富阳市春江街道太平村（天钟山）,杭州市,富阳市天钟山景区,
松阳李坑村旅游景区,旅游景点,浙江省,AAA,浙江省丽水市松阳县松阳县安民乡李坑村,丽水市,松阳李坑村旅游景区,
绍兴县羊山石佛风景区,旅游景点,浙江省,AA,浙江省绍兴市柯桥区齐贤镇羊大地1号,绍兴市,绍兴县羊山石佛风景区,
杭州野生动物世界,旅游景点,浙江省,AAAA,浙江省杭州市富阳区杭富路九龙大道1号,杭州市,杭州野生动物世界,
碧云花海·十里水乡景区,旅游景点,浙江省,AAAA,浙江省嘉兴市嘉善县大云镇缪家村碧云路1号,嘉兴市,碧云花海·十里水乡景区,
李坑村景区,旅游景点,浙江省,AAA,浙江省丽水市松阳县安民乡李坑村沿溪路16号,丽水市,李坑村景区,0578－8091668
武义寿仙谷景区,旅游景点,浙江省,AAA,浙江省金华市武义县王宅镇石井里村,金华市,武义寿仙谷景区,
浙江省台州市椒江区绿色药都小镇,旅游景点,浙江省,AAA,浙江省台州市椒江区海门街道东丰村,台州市,浙江省台州市椒江区绿色药都小镇,57688535731
云和湖仙宫景区,旅游景点,浙江省,AAAA,浙江省丽水市云和县云和县紧水滩镇,丽水市,云和湖仙宫景区,
浙江省舟山市普陀区朱家尖旅游景区,旅游景点,浙江省,AAAA,浙江省舟山市普陀区朱家尖岛,舟山市,浙江省舟山市普陀区朱家尖旅游景区,
浙江蛇蟠岛旅游开发有限公司,旅游景点,浙江省,AAAA,浙江省台州市三门县蛇蟠乡,台州市,浙江蛇蟠岛旅游开发有限公司,
浙江省绍兴市嵊州市王羲之故居旅游区,旅游景点,浙江省,AA,浙江省绍兴市嵊州市金庭镇羲之村,绍兴市,浙江省绍兴市嵊州市王羲之故居旅游区,
舟山市徐正国博物馆景区,旅游景点,浙江省,AA,浙江省舟山市定海区环城南路453号,舟山市,舟山市徐正国博物馆景区,2116582
蚂蚁岛旅游景区,旅游景点,浙江省,AA,浙江省舟山市普陀区普陀区蚂蚁岛,舟山市,蚂蚁岛旅游景区,
浙江省湖州市长兴县太湖演艺小镇（太湖图影生态湿地文化园）景区,旅游景点,浙江省,AAAA,浙江省湖州市长兴县太湖图影旅游度假区图影大道与横山路交叉口,湖州市,浙江省湖州市长兴县太湖演艺小镇（太湖图影生态湿地文化园）景区,0572-6666382
平阳禅寺旅游景区,旅游景点,浙江省,AA,浙江省绍兴市绍兴县平水镇平阳村,绍兴市,平阳禅寺旅游景区,
月满新塘景区,旅游景点,浙江省,AAA,浙江省衢州市江山市新塘边镇日月村勤俭村爱丰村,衢州市,月满新塘景区,
浙江省杭州市萧山区萧山信息港小镇,旅游景点,浙江省,AAA,浙江省杭州市萧山经济技术开发区启迪路198号,杭州市,浙江省杭州市萧山区萧山信息港小镇,
申浩科技农场（召林）景区,旅游景点,浙江省,AA,浙江省湖州市南浔区练市镇召林村,湖州市,申浩科技农场（召林）景区,
七彩北汤景区,旅游景点,浙江省,AAA,浙江省湖州市长兴县林城镇北汤村,湖州市,七彩北汤景区,15905721336
民居苑景区,旅游景点,浙江省,AAAA,浙江省衢州市龙游县东华街道宝塔路46号,衢州市,民居苑景区,0570-7053008
长兴县新四军苏浙军区旧址群景区,旅游景点,浙江省,AAAA,浙江省湖州市长兴县槐坎乡温塘村,湖州市,长兴县新四军苏浙军区旧址群景区,
龙泉青瓷宝剑苑,旅游景点,浙江省,AAA,浙江省丽水市龙泉市龙泉市剑池西路,丽水市,龙泉青瓷宝剑苑,
浙江省宁波市镇海区宁波帮博物馆景区,旅游景点,浙江省,AAAA,浙江省宁波市镇海区庄市街道思源路255号,宁波市,浙江省宁波市镇海区宁波帮博物馆景区,57456800673
宁波浙东大竹海景区,旅游景点,浙江省,AAA,浙江省宁波市海曙区横街镇大雷村浙东大竹海景区,宁波市,宁波浙东大竹海景区,
宁波九龙湖旅游度假区,旅游景点,浙江省,AAAA,浙江省宁波市镇海区宁波市镇海区九龙湖镇环湖路168号,宁波市,宁波九龙湖旅游度假区,
大明山,旅游景点,浙江省,AAAA,浙江省杭州市临安市清凉峰镇白果村,杭州市,大明山,
嵊州市南山风景名胜区,旅游景点,浙江省,AAA,浙江省绍兴市嵊州市长乐镇南山水库,绍兴市,嵊州市南山风景名胜区,
诸暨汤江岩风景区,旅游景点,浙江省,AAA,浙江省绍兴市诸暨市诸暨市同山镇汤江岩风景区,绍兴市,诸暨汤江岩风景区,
浙江省衢州市江山市长寿兴墩景区,旅游景点,浙江省,AAA,浙江省衢州市江山市廿八都镇兴墩村,衢州市,浙江省衢州市江山市长寿兴墩景区,
仙居大庄九都风情休闲旅游区,旅游景点,浙江省,AAA,浙江省台州市仙居县仙居县埠头镇大庄村,台州市,仙居大庄九都风情休闲旅游区,
浙江省湖州市南浔区石淙民俗文化园景区,旅游景点,浙江省,AAA,浙江省湖州市南浔区石淙镇石淙村,湖州市,浙江省湖州市南浔区石淙民俗文化园景区,
浙江省宁波市杭州湾新区海皮岛景区,旅游景点,浙江省,AAAA,浙江省宁波市杭州湾新区,宁波市,浙江省宁波市杭州湾新区海皮岛景区,
浙江省绍兴市越城区富盛镇上旺-岩里乡村休闲旅游区,旅游景点,浙江省,AA,浙江省绍兴市越城区富盛镇上旺村,绍兴市,浙江省绍兴市越城区富盛镇上旺-岩里乡村休闲旅游区,
浙江省衢州市常山县常山奇石馆景区,旅游景点,浙江省,AAA,浙江省衢州市常山县金川街道竹亭路1号,衢州市,浙江省衢州市常山县常山奇石馆景区,
浪石金滩,旅游景点,浙江省,AAAA,浙江省杭州市桐庐县横村镇浪石村,杭州市,浪石金滩,
草鱼塘森林公园旅游区,旅游景点,浙江省,AA,浙江省丽水市景宁畲族自治县东坑镇草鱼塘森林公园,丽水市,草鱼塘森林公园旅游区,
嘉善县吴镇纪念馆,旅游景点,浙江省,AA,浙江省嘉兴市嘉善县魏塘街道花园路178号,嘉兴市,嘉善县吴镇纪念馆,
龙天红木小镇景区,旅游景点,浙江省,AAAA,浙江省衢州市龙游县曹垄村,衢州市,龙天红木小镇景区,
浙江省嘉兴市桐乡市畅想园景区,旅游景点,浙江省,AA,浙江省嘉兴市桐乡市,嘉兴市,浙江省嘉兴市桐乡市畅想园景区,
上虞e游小镇景区,旅游景点,浙江省,AAA,浙江省绍兴市上虞区虞舜大道777号,绍兴市,上虞e游小镇景区,
嵊州剡溪渔业园（蕴秀山庄）,旅游景点,浙江省,AA,浙江省绍兴市嵊州市嵊州市甘霖镇,绍兴市,嵊州剡溪渔业园（蕴秀山庄）,
浙江省温州市苍南县渔寮景区,旅游景点,浙江省,AAA,浙江省温州市苍南县马站镇渔寮湾社区,温州市,浙江省温州市苍南县渔寮景区,0577-64690260
江郎山景区,旅游景点,浙江省,AAAA,浙江省衢州市江山市江山石门镇,衢州市,江郎山景区,
浙江省台州市天台县雷峰激情谷景区,旅游景点,浙江省,AAA,浙江省台州市天台县雷峰乡黄家塘村,台州市,浙江省台州市天台县雷峰激情谷景区,
嘉兴湘家荡环湖景区,旅游景点,浙江省,AAAA,浙江省嘉兴市南湖区嘉兴市南湖区七星街道灵湖路,嘉兴市,嘉兴湘家荡环湖景区,
浙江省丽水市遂昌县独山村,旅游景点,浙江省,AAA,浙江省丽水市遂昌县焦滩乡独山村,丽水市,浙江省丽水市遂昌县独山村,
云中大漈,旅游景点,浙江省,AAAA,浙江省丽水市景宁畲族自治县景宁畲族自治县大漈乡,丽水市,云中大漈,
浙江遂昌大山旅游开发有限公司,旅游景点,浙江省,AA,浙江省丽水市遂昌县遂昌县垵口乡大山村,丽水市,浙江遂昌大山旅游开发有限公司,
浙江省湖州市吴兴区织里镇义皋古村景区,旅游景点,浙江省,AAA,浙江省湖州市吴兴区织里镇漾西办事处义皋村,湖州市,浙江省湖州市吴兴区织里镇义皋古村景区,
秀丽潭头景区,旅游景点,浙江省,AAA,浙江省衢州市开化县池淮镇潭头村,衢州市,秀丽潭头景区,13967022529
泛亚虫草博物馆,旅游景点,浙江省,AAA,浙江省嘉兴市平湖市新群路1938号,嘉兴市,泛亚虫草博物馆,
五磊山风景区,旅游景点,浙江省,AAA,浙江省宁波市慈溪市观海卫镇禹皇路999号,宁波市,五磊山风景区,
宁海梁皇山景区,旅游景点,浙江省,AAA,浙江省宁波市宁海县宁海前童镇梁皇山,宁波市,宁海梁皇山景区,
浙江省台州市天台县后岸乡居旅游,旅游景点,浙江省,AAAA,浙江省台州市天台县街头镇后岸村,台州市,浙江省台州市天台县后岸乡居旅游,57683033999
浙江省湖州市安吉县山水灵峰.田园嘉乐比乐园景区,旅游景点,浙江省,AAAA,浙江省湖州市安吉县灵峰街道,湖州市,浙江省湖州市安吉县山水灵峰.田园嘉乐比乐园景区,
浙江省宁波市余姚市浙东”四明山“抗日根据地旧址群景区,旅游景点,浙江省,AAAA,浙江省宁波市余姚市横坎头村,宁波市,浙江省宁波市余姚市浙东”四明山“抗日根据地旧址群景区,
三叠岩景区,旅游景点,浙江省,AA,浙江省衢州市龙游县龙游县湖镇镇三叠岩,衢州市,三叠岩景区,
红色千里岗旅游景区,旅游景点,浙江省,AAA,浙江省衢州市衢江区灰坪乡上坪田村,衢州市,红色千里岗旅游景区,
浙江省宁波市余姚市浙东小九寨景区,旅游景点,浙江省,AAA,浙江省宁波市余姚市大隐镇芝林村,宁波市,浙江省宁波市余姚市浙东小九寨景区,
横店华夏文化园,旅游景点,浙江省,AAAA,浙江省金华市东阳市横店镇华夏大道566号,金华市,横店华夏文化园,
浙江省温州市鹿城区温州南塘文化旅游区,旅游景点,浙江省,AAAA,浙江省温州市鹿城区南塘街,温州市,浙江省温州市鹿城区温州南塘文化旅游区,
文成七星武阳乡村旅游景区,旅游景点,浙江省,AAA,浙江省温州市文成县南田镇武阳村,温州市,文成七星武阳乡村旅游景区,
浙江省丽水市云和县长汀沙滩景区,旅游景点,浙江省,AAA,浙江省丽水市云和县,丽水市,浙江省丽水市云和县长汀沙滩景区,13967041715
浙江省温州市文成县南田镇武阳村,旅游景点,浙江省,AAA,浙江省温州市文成县南田镇武阳村,温州市,浙江省温州市文成县南田镇武阳村,
防风古国文化园,旅游景点,浙江省,AAA,浙江省湖州市德清县德清县三合乡二都集镇,湖州市,防风古国文化园,
浙江省绍兴市嵊州市四明山主峰.红佛寺景区,旅游景点,浙江省,AA,浙江省绍兴市嵊州市黄泽镇,绍兴市,浙江省绍兴市嵊州市四明山主峰.红佛寺景区,
浙江省温州市鹿城区江心屿景区,旅游景点,浙江省,AAAA,浙江省温州市鹿城区望江东路江心屿景区,温州市,浙江省温州市鹿城区江心屿景区,88208182
泰顺乌岩岭景区,旅游景点,浙江省,AAA,浙江省温州市泰顺县泰顺县罗阳镇爱民路108号,温州市,泰顺乌岩岭景区,
浙江省舟山市定海区舟山名人馆,旅游景点,浙江省,A,浙江省舟山市定海区昌国街道132号,舟山市,浙江省舟山市定海区舟山名人馆,
丹山赤水,旅游景点,浙江省,AAAA,浙江省宁波市余姚市大岚镇,宁波市,丹山赤水,
绍兴县安昌古镇,旅游景点,浙江省,AAA,浙江省绍兴市绍兴县安昌镇东市,绍兴市,绍兴县安昌古镇,
长屿硐天旅游区,旅游景点,浙江省,AAAA,浙江省台州市温岭市新河镇,台州市,长屿硐天旅游区,0576-86598152
安吉浪漫山川景区,旅游景点,浙江省,AAAA,浙江省湖州市安吉县山川乡,湖州市,安吉浪漫山川景区,
地理信息小镇景区,旅游景点,浙江省,AAAA,浙江省湖州市德清县塔山街901号,湖州市,地理信息小镇景区,
浙江省台州市仙居县永安溪漂流景区,旅游景点,浙江省,AAA,浙江省台州市仙居县步路乡西门村,台州市,浙江省台州市仙居县永安溪漂流景区,
浙江省舟山市定海区小沙文化旅游,旅游景点,浙江省,A,浙江省舟山市定海区小沙街道庙桥社区陈家村60,舟山市,浙江省舟山市定海区小沙文化旅游,
浙江省丽水市龙泉市住龙景区,旅游景点,浙江省,AAA,浙江省丽水市龙泉市住龙镇住溪村,丽水市,浙江省丽水市龙泉市住龙景区,
浙江省温州市文成县仙人居生态农庄,旅游景点,浙江省,AAA,浙江省温州市文成县黄坦镇富岙,温州市,浙江省温州市文成县仙人居生态农庄,
三门县沈园农庄,旅游景点,浙江省,AA,浙江省台州市三门县三门县浦坝港镇小湾渡,台州市,三门县沈园农庄,
古镇西塘景区,旅游景点,浙江省,AAAA,浙江省嘉兴市嘉善县嘉善县西塘镇南苑路258号,嘉兴市,古镇西塘景区,
武义十里荷花—江下畲乡景区,旅游景点,浙江省,AAA,浙江省金华市武义县武义县柳城畲族镇祝村,金华市,武义十里荷花—江下畲乡景区,
凤凰山海港乐园,旅游景点,浙江省,AAAA,浙江省宁波市北仑区辽河路728号,宁波市,凤凰山海港乐园,
浙江省湖州市安吉县报福镇中张村畲寨旅游景区,旅游景点,浙江省,AAA,浙江省湖州市安吉县,湖州市,浙江省湖州市安吉县报福镇中张村畲寨旅游景区,5600270
义乌国际商贸城购物旅游区,旅游景点,浙江省,AAAA,浙江省金华市义乌市福田街道国际商贸城四区南3号门,金华市,义乌国际商贸城购物旅游区,
浙江省嘉兴市海宁市阳光科技小镇景区,旅游景点,浙江省,AAA,浙江省嘉兴市海宁市袁花镇储唐路49号（暂定路名及门牌号）,嘉兴市,浙江省嘉兴市海宁市阳光科技小镇景区,
新沙岛景区,旅游景点,浙江省,AAAA,浙江省杭州市富阳市杭州富阳市新沙村,杭州市,新沙岛景区,
浙江省丽水市云和县小顺村,旅游景点,浙江省,AAA,浙江省丽水市云和县小顺村,丽水市,浙江省丽水市云和县小顺村,
浙江省嘉兴市桐乡市植物园景区,旅游景点,浙江省,AA,浙江省嘉兴市桐乡市环园路209号,嘉兴市,浙江省嘉兴市桐乡市植物园景区,0573-88138887
安吉藏龙百瀑景区,旅游景点,浙江省,AA,浙江省湖州市安吉县天荒坪镇大溪村,湖州市,安吉藏龙百瀑景区,
浙江省温州市瑞安市小王子主题农庄景区,旅游景点,浙江省,AAA,浙江省温州市瑞安市湖岭镇潮基社区贾岙村马头山,温州市,浙江省温州市瑞安市小王子主题农庄景区,
磐安灵江源森林公园,旅游景点,浙江省,AAA,浙江省金华市磐安县维新乡马家坑村,金华市,磐安灵江源森林公园,
千岛湖鱼街景区,旅游景点,浙江省,AAA,浙江省杭州市淳安县千岛湖镇南景路鱼街,杭州市,千岛湖鱼街景区,
夏履鎮越王峥景区,旅游景点,浙江省,AA,浙江省绍兴市柯桥区夏履镇越王峥村,绍兴市,夏履鎮越王峥景区,
浙江省丽水市龙泉市博物馆,旅游景点,浙江省,AAA,浙江省丽水市龙泉市剑川大道258号,丽水市,浙江省丽水市龙泉市博物馆,
西溪湿地公园景区,旅游景点,浙江省,AAAAA,浙江省杭州市西湖区,杭州市,西溪湿地公园景区,88106657
永康大陈景区,旅游景点,浙江省,AAA,浙江省金华市永康市前仓镇大陈村,金华市,永康大陈景区,
中医博物馆景区,旅游景点,浙江省,AA,浙江省杭州市淳安县临岐镇望溪路136号,杭州市,中医博物馆景区,
蓝美庄园,旅游景点,浙江省,AAA,浙江省台州市黄岩区前蒋村,台州市,蓝美庄园,
诸暨千柱屋景区,旅游景点,浙江省,AAA,浙江省绍兴市诸暨市诸暨市陈蔡镇斯宅村,绍兴市,诸暨千柱屋景区,
浙江省绍兴市柯桥区羊山风景区,旅游景点,浙江省,AA,浙江省绍兴市柯桥区齐贤街道羊大地1号,绍兴市,浙江省绍兴市柯桥区羊山风景区,
石聚堂风景区,旅游景点,浙江省,AA,浙江省温州市苍南县灵溪镇蒲亭社区,温州市,石聚堂风景区,
黄檀洞景区,旅游景点,浙江省,AA,浙江省温州市乐清市乐成街道双雁路117号,温州市,黄檀洞景区,
刘基故里景区,旅游景点,浙江省,AAA,浙江省温州市文成县南田镇,温州市,刘基故里景区,
浙江省嘉兴市海盐县三毛乐园景区,旅游景点,浙江省,AAA,浙江省嘉兴市海盐县武原街道百尺北路118号,嘉兴市,浙江省嘉兴市海盐县三毛乐园景区,86125550
浙江省温州市泰顺县乌岩岭景区,旅游景点,浙江省,AAAA,浙江省温州市泰顺县司前畲族镇乌岩岭自然保护区双坑口保护站,温州市,浙江省温州市泰顺县乌岩岭景区,67587805
浙江省绍兴市柯桥区陶宴岭.新联溪旅游景区,旅游景点,浙江省,AA,浙江省绍兴市柯桥区王坛镇新联村,绍兴市,浙江省绍兴市柯桥区陶宴岭.新联溪旅游景区,
浙江省绍兴市诸暨市西施故里旅游区,旅游景点,浙江省,AAAA,浙江省绍兴市诸暨市苎萝东路2号,绍兴市,浙江省绍兴市诸暨市西施故里旅游区,
陶宴岭:新联溪旅游景区,旅游景点,浙江省,AA,浙江省绍兴市柯桥区王坛镇新联村,绍兴市,陶宴岭:新联溪旅游景区,
浙江省台州市黄岩区中国柑橘博览园景区,旅游景点,浙江省,AAA,浙江省台州市黄岩区澄江街道凤洋村,台州市,浙江省台州市黄岩区中国柑橘博览园景区,
浙江省台州市天台县山头下旅游区,旅游景点,浙江省,AAA,浙江省台州市天台县街头镇步头村山头下自然村,台州市,浙江省台州市天台县山头下旅游区,
遂昌金矿矿山公园有限公司,旅游景点,浙江省,AAAA,浙江省丽水市遂昌县濂竹乡花园岭,丽水市,遂昌金矿矿山公园有限公司,
浙江省嘉兴市桐乡市丰子恺纪念馆景区,旅游景点,浙江省,AA,浙江省嘉兴市桐乡市石门镇大井路1号,嘉兴市,浙江省嘉兴市桐乡市丰子恺纪念馆景区,
浙江省温州市苍南县炎亭景区,旅游景点,浙江省,AAA,浙江省温州市苍南县炎亭镇金沙滩路188号,温州市,浙江省温州市苍南县炎亭景区,
浙江省金华市东阳市横店镇明清民居博览城,旅游景点,浙江省,AAAA,浙江省金华市东阳市,金华市,浙江省金华市东阳市横店镇明清民居博览城,13967430338
浙江省丽水市大山峰森林公园,旅游景点,浙江省,AA,浙江省丽水市莲都区丽水市莲都区北苑路198号财富大厦4楼B座,丽水市,浙江省丽水市大山峰森林公园,
浙江省台州市黄岩区布袋山风景区,旅游景点,浙江省,AAA,浙江省台州市黄岩区屿头乡布袋山村,台州市,浙江省台州市黄岩区布袋山风景区,
金华动物园,旅游景点,浙江省,AAA,浙江省金华市婺城区金华市婺城区双龙南街延长线（安地镇）,金华市,金华动物园,
浙江省舟山市定海区传奇庄园景区,旅游景点,浙江省,AA,浙江省舟山市定海区白泉镇柯梅社区林家岙弄46号,舟山市,浙江省舟山市定海区传奇庄园景区,
浙江省嘉兴市嘉善县嘉善归谷智造小镇,旅游景点,浙江省,AAA,浙江省嘉兴市嘉善县罗星街道世纪大道3888号,嘉兴市,浙江省嘉兴市嘉善县嘉善归谷智造小镇,
根宫佛国文化旅游区,旅游景点,浙江省,AAAAA,浙江省衢州市开化县芹阳办事处根博路1号,衢州市,根宫佛国文化旅游区,
浙江省丽水市松阳县古驿界首旅游区,旅游景点,浙江省,AAA,浙江省丽水市松阳县界首村,丽水市,浙江省丽水市松阳县古驿界首旅游区,
浙江省舟山市定海区远洋渔业小镇景区,旅游景点,浙江省,AAA,浙江省舟山市定海区干览镇西码头,舟山市,浙江省舟山市定海区远洋渔业小镇景区,8236725
浦江县白马镇嵩溪古村,旅游景点,浙江省,AAA,浙江省金华市浦江县浦江县白马镇嵩溪村,金华市,浦江县白马镇嵩溪古村,
蠡山（村）景区,旅游景点,浙江省,AAA,浙江省湖州市德清县蠡山村,湖州市,蠡山（村）景区,
浙江龙泉中国青瓷小镇.披云青瓷文化园景区,旅游景点,浙江省,AAAA,浙江省丽水市龙泉市,丽水市,浙江龙泉中国青瓷小镇.披云青瓷文化园景区,0578-7322000
黄岩九峰人民公园,旅游景点,浙江省,AA,浙江省台州市黄岩区黄岩九峰路243号,台州市,黄岩九峰人民公园,
千年曙光园,旅游景点,浙江省,AAA,浙江省台州市温岭市石塘镇元龙岙,台州市,千年曙光园,
岩头古村景区,旅游景点,浙江省,AAA,浙江省宁波市奉化市奉化市溪口镇岩头村,宁波市,岩头古村景区,
宁波帮博物馆,旅游景点,浙江省,AAAA,浙江省宁波市镇海区宁波市镇海区庄市街道思源路255号,宁波市,宁波帮博物馆,
浙江省嘉兴市桐乡市康馨文化园景区,旅游景点,浙江省,AAA,浙江省嘉兴市桐乡市屠甸镇汇丰村周家浜1号,嘉兴市,浙江省嘉兴市桐乡市康馨文化园景区,
湖州市菰城景区,旅游景点,浙江省,AAAA,浙江省湖州市吴兴区龙王山路仁皇山南大门游客中心,湖州市,湖州市菰城景区,
魅力永兴景区,旅游景点,浙江省,AAA,浙江省衢州市江山市魅力永兴景区永兴坞村莲花路63号,衢州市,魅力永兴景区,4770365
王店圣莱特农庄,旅游景点,浙江省,AA,浙江省嘉兴市秀洲区王店镇,嘉兴市,王店圣莱特农庄,
浙江省丽水市松阳上梅畲寨旅游区,旅游景点,浙江省,AAA,浙江省丽水市松阳县象溪镇上梅村,丽水市,浙江省丽水市松阳上梅畲寨旅游区,
富阳区药谷小镇景区,旅游景点,浙江省,AAA,浙江省杭州市富阳区胥口镇下练村,杭州市,富阳区药谷小镇景区,
横店明清民居博览城,旅游景点,浙江省,AAAA,浙江省金华市东阳市东阳市横店镇康庄南路188号,金华市,横店明清民居博览城,
余姚四明山地质公园,旅游景点,浙江省,AAA,浙江省宁波市余姚市俞家桥路16-1号,宁波市,余姚四明山地质公园,
德清下渚湖湿地风景区,旅游景点,浙江省,AAAA,浙江省湖州市德清县德清县三合乡二都集镇,湖州市,德清下渚湖湿地风景区,
浙江省舟山市岱山县鹿栏晴沙旅游景区,旅游景点,浙江省,AAA,浙江省舟山市岱山县岱东镇沙洋村,舟山市,浙江省舟山市岱山县鹿栏晴沙旅游景区,7667687
缙云县大龙门景区,旅游景点,浙江省,AAA,浙江省丽水市缙云县缙云县壶镇镇龙门坑,丽水市,缙云县大龙门景区,
浙江省绍兴市嵊州市马寅初故居,旅游景点,浙江省,AA,浙江省绍兴市嵊州市经济开发区（浦口街道）名人路74号,绍兴市,浙江省绍兴市嵊州市马寅初故居,
衢州市烂柯山风景区,旅游景点,浙江省,AA,浙江省衢州市柯城区石室村东面320县道向西50米,衢州市,衢州市烂柯山风景区,
浙江省杭州市临安区浙西大峡谷景区,旅游景点,浙江省,AAAA,浙江省杭州市临安区龙岗镇浙西大峡谷游客中心,杭州市,浙江省杭州市临安区浙西大峡谷景区,
南雁荡山,旅游景点,浙江省,AAAA,浙江省温州市平阳县南雁荡山风景名胜区,温州市,南雁荡山,
浙江省舟山市岱山县东沙古渔镇景区,旅游景点,浙江省,AAA,浙江省舟山市岱山县东沙镇东沙社区,舟山市,浙江省舟山市岱山县东沙古渔镇景区,
上荷塘寨春农场--青蛙乐园,旅游景点,浙江省,AAA,浙江省金华市金东区金华市金东区傅村镇上荷塘寨春农场,金华市,上荷塘寨春农场--青蛙乐园,
临安市浙西大龙湾景区,旅游景点,浙江省,AAA,浙江省杭州市临安市临安市龙岗镇龙井村,杭州市,临安市浙西大龙湾景区,
浙江省绍兴市上虞区覆卮山景区,旅游景点,浙江省,AAAA,浙江省绍兴市上虞区岭南乡,绍兴市,浙江省绍兴市上虞区覆卮山景区,
浙江省杭州市萧山区楼塔古镇景区,旅游景点,浙江省,AAA,浙江省杭州市萧山区楼塔镇楼家塔村,杭州市,浙江省杭州市萧山区楼塔古镇景区,
浙江省湖州市南浔区和孚镇民当景区,旅游景点,浙江省,AAA,浙江省湖州市南浔区,湖州市,浙江省湖州市南浔区和孚镇民当景区,5723731366
浙江省湖州市长兴县新能源小镇景区,旅游景点,浙江省,AAA,浙江省湖州市长兴县画溪街道,湖州市,浙江省湖州市长兴县新能源小镇景区,
浙江省衢州市衢江区天脊龙门景区,旅游景点,浙江省,AAAA,浙江省衢州市衢江区黄坛口乡下呈村,衢州市,浙江省衢州市衢江区天脊龙门景区,
金溪桃韵景区,旅游景点,浙江省,AAA,浙江省衢州市开化县音坑乡下淤村方池路300号,衢州市,金溪桃韵景区,
浙江省温州市乐清市雁荡山筋竹涧生态农业观光园,旅游景点,浙江省,AAA,浙江省温州市乐清市,温州市,浙江省温州市乐清市雁荡山筋竹涧生态农业观光园,
仙居下各西陆山水休闲特色村,旅游景点,浙江省,AAA,浙江省台州市仙居县仙居县下各镇,台州市,仙居下各西陆山水休闲特色村,
浙江省温州市苍南县五凤茶园景区,旅游景点,浙江省,AAA,浙江省温州市苍南县桥墩镇八亩后村,温州市,浙江省温州市苍南县五凤茶园景区,
浙江省金华市金东区曹宅镇大佛寺景区,旅游景点,浙江省,AAA,浙江省金华市金东区曹宅镇,金华市,浙江省金华市金东区曹宅镇大佛寺景区,13857919119
冠素堂食品文化体验园景区,旅游景点,浙江省,AAA,浙江省舟山市普陀区东港街道新驰路36号,舟山市,冠素堂食品文化体验园景区,6877618
飞跃工业城,旅游景点,浙江省,AA,浙江省台州市椒江区椒江区机场中路109号,台州市,飞跃工业城,
仙山湖景区,旅游景点,浙江省,AAAA,浙江省湖州市长兴县泗安镇仙山村,湖州市,仙山湖景区,
宁波雅戈尔动物园,旅游景点,浙江省,AAAA,浙江省宁波市东钱湖旅游度假区宁波东钱湖旅游度假区高钱,宁波市,宁波雅戈尔动物园,
浙江省杭州市桐庐县天子地生态风景区,旅游景点,浙江省,AAAA,浙江省杭州市桐庐县百江镇罗山村388号,杭州市,浙江省杭州市桐庐县天子地生态风景区,0571—64352881
垂云通天河,旅游景点,浙江省,AAAA,浙江省杭州市桐庐县瑶琳镇东琳村,杭州市,垂云通天河,
浙江省杭州市萧山区杭州长乔极地海洋公园景区,旅游景点,浙江省,AAAA,浙江省杭州市萧山区,杭州市,浙江省杭州市萧山区杭州长乔极地海洋公园景区,0571-83860185
杭州新安江旅业大慈岩景区,旅游景点,浙江省,AAAA,浙江省杭州市建德市杭州市建德市大慈岩镇,杭州市,杭州新安江旅业大慈岩景区,
莲都区诗画利山景区,旅游景点,浙江省,AAA,浙江省丽水市莲都区莲都区大港头镇利山村,丽水市,莲都区诗画利山景区,
浙江省丽水市景宁畲族自治县畲乡之窗景区,旅游景点,浙江省,AAAA,浙江省丽水市景宁畲族自治县大均乡,丽水市,浙江省丽水市景宁畲族自治县畲乡之窗景区,0578-5087311
浙江省金华市武义县寿仙谷景区,旅游景点,浙江省,AAA,浙江省金华市武义县王宅镇石井里村,金华市,浙江省金华市武义县寿仙谷景区,
莫氏庄园,旅游景点,浙江省,AAA,浙江省嘉兴市平湖市平湖市当湖街道人民西路39号,嘉兴市,莫氏庄园,
桐乡世贸中心旅游综合体,旅游景点,浙江省,AAA,浙江省嘉兴市桐乡市世纪大道235号,嘉兴市,桐乡世贸中心旅游综合体,
小王子主题农庄,旅游景点,浙江省,AAA,浙江省温州市瑞安市瑞安市湖岭镇潮基社区贾岙村,温州市,小王子主题农庄,
浙江省绍兴市嵊州市瞻山风景旅游区,旅游景点,浙江省,AA,浙江省绍兴市嵊州市崇仁镇廿八都村,绍兴市,浙江省绍兴市嵊州市瞻山风景旅游区,
浙江省丽水市龙泉市龙泉山旅游度假景区,旅游景点,浙江省,AAAA,浙江省丽水市龙泉市兰巨乡官埔垟粗坑村龙泉山,丽水市,浙江省丽水市龙泉市龙泉山旅游度假景区,
钱江源国家森林公园,旅游景点,浙江省,AA,浙江省衢州市开化县开化县齐溪镇钱江源国家森林公园管理处,衢州市,钱江源国家森林公园,
宁波天宫庄园休闲旅游区,旅游景点,浙江省,AAAA,浙江省宁波市鄞州区下应街道湾底村,宁波市,宁波天宫庄园休闲旅游区,
浙江省台州市玉环市大鹿岛景区,旅游景点,浙江省,AAAA,浙江省台州市玉环市鸡山乡大鹿岛,台州市,浙江省台州市玉环市大鹿岛景区,
宁波雅戈尔动物园景区,旅游景点,浙江省,AAAA,浙江省宁波市东钱湖旅游度假区,宁波市,宁波雅戈尔动物园景区,
浙江柯岩风景区开发股份有限公司,旅游景点,浙江省,AAAA,浙江省绍兴市绍兴县绍兴县柯岩大道558号,绍兴市,浙江柯岩风景区开发股份有限公司,
鸡山岛景区,旅游景点,浙江省,AAA,浙江省台州市玉环县鸡山乡,台州市,鸡山岛景区,
太湖首创奥特莱斯,旅游景点,浙江省,AAA,浙江省湖州市吴兴区太湖旅游度假区滨湖大道西段518号,湖州市,太湖首创奥特莱斯,
农夫乐园,旅游景点,浙江省,AAA,浙江省杭州市余杭区杭州市余杭区良渚街道农夫乐园,杭州市,农夫乐园,
浙江省杭州市桐庐县大奇山森林公园景区,旅游景点,浙江省,AAA,浙江省杭州市桐庐县大奇山林场,杭州市,浙江省杭州市桐庐县大奇山森林公园景区,0571-64241358
良渚博物院,旅游景点,浙江省,AAAA,浙江省杭州市余杭区良渚街道美丽洲路1号,杭州市,良渚博物院,
浙江省嘉兴市南湖区湘家荡环湖景区,旅游景点,浙江省,AAAA,浙江省嘉兴市南湖区七星街道,嘉兴市,浙江省嘉兴市南湖区湘家荡环湖景区,
浙江省台州市玉环市龙溪动漫花谷景区,旅游景点,浙江省,AAA,浙江省台州市玉环市龙溪镇山里村,台州市,浙江省台州市玉环市龙溪动漫花谷景区,
浙江省嘉兴市海宁市海宁皮革时尚小镇景区,旅游景点,浙江省,AAA,浙江省嘉兴市海宁市海州西路201号,嘉兴市,浙江省嘉兴市海宁市海宁皮革时尚小镇景区,
下各古渡新路,旅游景点,浙江省,AA,浙江省台州市仙居县下各镇新路村,台州市,下各古渡新路,
浙江省金华市磐安县湖上村景区,旅游景点,浙江省,AAA,浙江省金华市磐安县尖山镇湖上村,金华市,浙江省金华市磐安县湖上村景区,
浙江省嘉兴市平湖市景区名称嘉兴百玫生态农业园,旅游景点,浙江省,AA,浙江省嘉兴市平湖市广陈镇港中村13组,嘉兴市,浙江省嘉兴市平湖市景区名称嘉兴百玫生态农业园,13586351937
衢州市飞鸿滑草场,旅游景点,浙江省,AAA,浙江省衢州市衢江区绿色产业集聚区野鸭垄路5号,衢州市,衢州市飞鸿滑草场,
德清三林景区,旅游景点,浙江省,AAA,浙江省湖州市德清县禹越镇三林村,湖州市,德清三林景区,
浙江省绍兴市东湖景区,旅游景点,浙江省,AAAA,浙江省绍兴市越城区皋埠镇云东路东湖风景区,绍兴市,浙江省绍兴市东湖景区,88650626
浙江省温州市平阳县苏步青故居文化旅游区,旅游景点,浙江省,AAA,浙江省温州市平阳县腾蛟镇腾带村,温州市,浙江省温州市平阳县苏步青故居文化旅游区,
浙江省宁波市镇海区澥浦镇郑氏十七房景区,旅游景点,浙江省,AAAA,浙江省宁波市镇海区澥浦镇十七房村开源路777好,宁波市,浙江省宁波市镇海区澥浦镇郑氏十七房景区,
浙江省金华市武义县十里荷花-江下畲乡景区,旅游景点,浙江省,AAA,浙江省金华市武义县柳城畲族镇祝村,金华市,浙江省金华市武义县十里荷花-江下畲乡景区,
浙江省绍兴市越城区府山公园,旅游景点,浙江省,AA,浙江省绍兴市越城区府山横街270号,绍兴市,浙江省绍兴市越城区府山公园,
浙江省绍兴市越城区方圆观光农业园,旅游景点,浙江省,AA,浙江省绍兴市越城区皋埠镇吼山村,绍兴市,浙江省绍兴市越城区方圆观光农业园,
杭州千岛湖下姜村景区,旅游景点,浙江省,AAA,浙江省杭州市淳安县淳安县枫树岭镇下姜村,杭州市,杭州千岛湖下姜村景区,
千岛湖甲鱼文化创意园,旅游景点,浙江省,AA,浙江省杭州市淳安县汾口镇汾口大道西100米,杭州市,千岛湖甲鱼文化创意园,64851641
浙江省台州市临海市下涨景区,旅游景点,浙江省,AAA,浙江省台州市临海市尤溪镇下涨村,台州市,浙江省台州市临海市下涨景区,
浙江巨龙温泉旅游度假村景区,旅游景点,浙江省,AAA,浙江省金华市婺城区安地镇金安公路51号,金华市,浙江巨龙温泉旅游度假村景区,
石浦中国渔村景区,旅游景点,浙江省,AAAA,浙江省宁波市象山县石浦镇皇城沙滩,宁波市,石浦中国渔村景区,
浙江省湖州市南浔区旧馆镇港廊古村落景区,旅游景点,浙江省,AAA,浙江省湖州市南浔区旧馆镇港胡村新兴港村,湖州市,浙江省湖州市南浔区旧馆镇港廊古村落景区,
浙江省台州市玉环市玉环时尚家居小镇,旅游景点,浙江省,AAA,浙江省台州市玉环市玉环时尚家居小镇客厅,台州市,浙江省台州市玉环市玉环时尚家居小镇,
临安河桥古镇旅游区,旅游景点,浙江省,AAAA,浙江省杭州市临安市河桥镇河桥村,杭州市,临安河桥古镇旅游区,
浙江省绍兴市诸暨市汤江岩风景区,旅游景点,浙江省,AAA,浙江省绍兴市诸暨市同山镇汤江岩风景区,绍兴市,浙江省绍兴市诸暨市汤江岩风景区,
龙坞茶镇景区,旅游景点,浙江省,AAAA,浙江省杭州市西湖区龙坞茶镇,杭州市,龙坞茶镇景区,58112858
尚书休闲文化村,旅游景点,浙江省,AAA,浙江省湖州市安吉县孝源街道尚书干村,湖州市,尚书休闲文化村,
浙江省嘉兴市桐乡市红杉邨景区,旅游景点,浙江省,AAA,浙江省嘉兴市桐乡市乌镇镇宗扬路78号,嘉兴市,浙江省嘉兴市桐乡市红杉邨景区,
台州市博物馆景区,旅游景点,浙江省,AAA,浙江省台州市椒江区爱华路168号,台州市,台州市博物馆景区,57688869153
临海市羊岩山茶文化园有限公司,旅游景点,浙江省,AAA,浙江省台州市临海市临海市河头镇羊岩山茶场,台州市,临海市羊岩山茶文化园有限公司,
梅树底景区,旅游景点,浙江省,AAAA,浙江省衢州市常山县东案乡梅树底村,衢州市,梅树底景区,
西城美食广场,旅游景点,浙江省,AAA,浙江省丽水市莲都区学院路36号,丽水市,西城美食广场,
义乌开心谷景区,旅游景点,浙江省,AAA,浙江省金华市义乌市义乌佛堂镇,金华市,义乌开心谷景区,
浙江省温州市平阳县怀溪穹岭景区,旅游景点,浙江省,AAA,浙江省温州市平阳县怀溪镇水口村,温州市,浙江省温州市平阳县怀溪穹岭景区,
马岙旅游区,旅游景点,浙江省,AA,浙江省舟山市定海区舟山市定海区马岙镇,舟山市,马岙旅游区,
浙江省绍兴市柯桥区平水镇同康村绿林竹海景区,旅游景点,浙江省,AAA,浙江省绍兴市柯桥区平水镇同康村,绍兴市,浙江省绍兴市柯桥区平水镇同康村绿林竹海景区,
浙江省金华市武义县璟园景区,旅游景点,浙江省,AAAA,浙江省金华市武义县温泉南路1533号,金华市,浙江省金华市武义县璟园景区,
浙江省绍兴市柯桥区舜王庙景区,旅游景点,浙江省,AAA,浙江省绍兴市柯桥区王坛镇,绍兴市,浙江省绍兴市柯桥区舜王庙景区,0575-85282951
浙江省杭州市桐庐县莪山遇见山哈景区,旅游景点,浙江省,AAA,浙江省杭州市桐庐县莪山畲族乡,杭州市,浙江省杭州市桐庐县莪山遇见山哈景区,
千岛湖森林氧吧,旅游景点,浙江省,AAA,浙江省杭州市淳安县千岛湖镇淡竹黄智山,杭州市,千岛湖森林氧吧,
东山尖运动森林公园景区,旅游景点,浙江省,AA,浙江省杭州市淳安县威坪镇埠坑坞,杭州市,东山尖运动森林公园景区,
浙江省绍兴市上虞区中华孝德园,旅游景点,浙江省,AAAA,浙江省绍兴市上虞区曹娥街道舜耕大道528号,绍兴市,浙江省绍兴市上虞区中华孝德园,0575-82508321
盛世莲花休闲农业观光园,旅游景点,浙江省,AAAA,浙江省衢州市衢江区衢州市莲花镇西山下村,衢州市,盛世莲花休闲农业观光园,
浙江省杭州市桐庐县旧县街道富春大岭图景区,旅游景点,浙江省,AAA,浙江省杭州市桐庐县旧县街道合岭村游客接待中心,杭州市,浙江省杭州市桐庐县旧县街道富春大岭图景区,
绍兴东方山水乐园,旅游景点,浙江省,AAAA,浙江省绍兴市柯桥区鉴水路118号,绍兴市,绍兴东方山水乐园,0575-85320305
绍兴县大香林乡村休闲旅游区,旅游景点,浙江省,AAAA,浙江省绍兴市绍兴县绍兴县湖塘街道型塘岭下村,绍兴市,绍兴县大香林乡村休闲旅游区,
浙江省嘉兴市桐乡市稻乡人家景区,旅游景点,浙江省,AAA,浙江省嘉兴市桐乡市洲泉镇道村村北湾,嘉兴市,浙江省嘉兴市桐乡市稻乡人家景区,
浙江省宁波市宁海县宁海湾横山岛景区,旅游景点,浙江省,AAA,浙江省宁波市宁海县强蛟镇振兴东路85号,宁波市,浙江省宁波市宁海县宁海湾横山岛景区,57459956868
浙江省金华市东阳市横店镇华夏文化园景区,旅游景点,浙江省,AAAA,浙江省金华市东阳市横店国际商贸城,金华市,浙江省金华市东阳市横店镇华夏文化园景区,13967430338
杭州浙西大峡谷旅游股份有限公司,旅游景点,浙江省,AAAA,浙江省杭州市临安市龙岗镇,杭州市,杭州浙西大峡谷旅游股份有限公司,
中国（浙江）自贸区·国际进口商品城,旅游景点,浙江省,AAA,浙江省舟山市定海区白泉镇北蝉乡新港大道87号,舟山市,中国（浙江）自贸区·国际进口商品城,15257080827
龙泉凤羽休闲山庄,旅游景点,浙江省,AA,浙江省丽水市龙泉市龙泉市龙南乡西岙,丽水市,龙泉凤羽休闲山庄,
浙江省杭州市余杭区中国江南水乡文化博物馆,旅游景点,浙江省,AAA,浙江省杭州市余杭区临平南大街95号,杭州市,浙江省杭州市余杭区中国江南水乡文化博物馆,
浙江省台州市椒江区吴子熊玻璃艺术馆,旅游景点,浙江省,AAA,浙江省台州市椒江区中心大道398号,台州市,浙江省台州市椒江区吴子熊玻璃艺术馆,
清漾景区,旅游景点,浙江省,AAAA,浙江省衢州市江山市石门镇清漾村,衢州市,清漾景区,
浙江省台州市三门县沈园农庄,旅游景点,浙江省,AA,浙江省台州市三门县浦坝港镇小湾渡村,台州市,浙江省台州市三门县沈园农庄,
杭州西湖灵山景区,旅游景点,浙江省,AAA,浙江省杭州市西湖区双浦镇灵山村,杭州市,杭州西湖灵山景区,
浙江省嘉兴市秀洲区清池温泉景区,旅游景点,浙江省,AA,浙江省嘉兴市秀洲区新塍纵二路西侧、嘉湖公路北侧,嘉兴市,浙江省嘉兴市秀洲区清池温泉景区,
浙江省台州市天台县花海茅垟旅游区,旅游景点,浙江省,AAA,浙江省台州市天台县茅垟村,台州市,浙江省台州市天台县花海茅垟旅游区,
南尖岩景区,旅游景点,浙江省,AAAA,浙江省丽水市遂昌县,丽水市,南尖岩景区,
浙江省衢州市衢江区隐柿东坪景区,旅游景点,浙江省,AAA,浙江省衢州市衢江区峡川镇东坪村,衢州市,浙江省衢州市衢江区隐柿东坪景区,
浙江省宁波市江北区宁波市保国寺古建筑博物馆（景区）,旅游景点,浙江省,AAAA,浙江省宁波市江北区洪塘街道鞍山村安东49号,宁波市,浙江省宁波市江北区宁波市保国寺古建筑博物馆（景区）,0574-55121578
浙江省台州市临海市羊岩山茶文化园景区,旅游景点,浙江省,AAA,浙江省台州市临海市河头镇羊岩茶场内,台州市,浙江省台州市临海市羊岩山茶文化园景区,
寨寮溪风景名胜区,旅游景点,浙江省,AAAA,浙江省温州市瑞安市瑞安市高楼镇寨寮溪游客集散中心,温州市,寨寮溪风景名胜区,
浙江省湖州市南浔区南浔镇息塘景区,旅游景点,浙江省,AAA,浙江省湖州市南浔区南浔镇息塘村,湖州市,浙江省湖州市南浔区南浔镇息塘景区,13705722089
温州南塘文化旅游区,旅游景点,浙江省,AAAA,浙江省温州市鹿城区温州市锦绣路与飞霞南路交汇处,温州市,温州南塘文化旅游区,
浙江省绍兴市柯桥区大香林景区,旅游景点,浙江省,AAAA,浙江省绍兴市柯桥区湖塘街道岭下村大香林风景区内,绍兴市,浙江省绍兴市柯桥区大香林景区,
莫干山风景名胜区,旅游景点,浙江省,AAAA,浙江省湖州市德清县莫干山风景区97号,湖州市,莫干山风景名胜区,
移沿山生态农庄,旅游景点,浙江省,AAA,浙江省湖州市吴兴区湖州市吴兴区八里店镇移沿山村,湖州市,移沿山生态农庄,
浙江省温州市瓯海区眼镜小镇,旅游景点,浙江省,AAA,浙江省温州市瓯海区集光路301号,温州市,浙江省温州市瓯海区眼镜小镇,
浙江省台州市临海市丁公园景区,旅游景点,浙江省,AAA,浙江省台州市临海市白水洋镇丁公园村,台州市,浙江省台州市临海市丁公园景区,
运河·塘栖古镇景区,旅游景点,浙江省,AAAA,浙江省杭州市余杭区塘栖镇,杭州市,运河·塘栖古镇景区,
开化九溪龙门景区,旅游景点,浙江省,AAA,浙江省衢州市开化县开化县齐溪镇龙门村村委会,衢州市,开化九溪龙门景区,
浙江省金华市浦江县上山考古遗址景区,旅游景点,浙江省,AAA,浙江省金华市浦江县渠南村,金华市,浙江省金华市浦江县上山考古遗址景区,
浙江秀山岛景区,旅游景点,浙江省,AAA,浙江省舟山市岱山县秀山乡,舟山市,浙江秀山岛景区,
大冲村景区,旅游景点,浙江省,AAA,浙江省湖州市吴兴区,湖州市,大冲村景区,
浙江省温州市乐清市中雁荡山旅游区,旅游景点,浙江省,AAAA,浙江省温州市乐清市白石街道玉虹北路,温州市,浙江省温州市乐清市中雁荡山旅游区,
台州海洋世界,旅游景点,浙江省,AAAA,浙江省台州市市辖区台州市广场中路38号,台州市,台州海洋世界,
宁波伍山石窟景区,旅游景点,浙江省,AAAA,浙江省宁波市宁海县宁海县长街镇伍山石窟风景区,宁波市,宁波伍山石窟景区,
廿八都景区,旅游景点,浙江省,AAAA,浙江省衢州市江山市廿八都镇浔里村,衢州市,廿八都景区,
淳安县九咆界风景区,旅游景点,浙江省,AAA,浙江省杭州市淳安县屏门乡秋源村,杭州市,淳安县九咆界风景区,0571-64995588
绍兴南岸旅游景区,旅游景点,浙江省,AA,浙江省绍兴市绍兴县柯桥区王坛镇南岸村民委员会,绍兴市,绍兴南岸旅游景区,
景宁畲族自治县畲族博物馆,旅游景点,浙江省,AAA,浙江省丽水市景宁畲族自治县景宁县人民南路350号,丽水市,景宁畲族自治县畲族博物馆,
杭州市千岛湖景区,旅游景点,浙江省,AAAAA,浙江省杭州市淳安县千岛湖镇排岭南路32号,杭州市,杭州市千岛湖景区,0571-60120581
浙江省丽水市缙云县大龙门景区,旅游景点,浙江省,AAA,浙江省丽水市缙云县壶镇镇石赤旧龙门坑,丽水市,浙江省丽水市缙云县大龙门景区,0578-3550302
侏罗纪香榧森林公园景区,旅游景点,浙江省,AAA,浙江省绍兴市诸暨市宣家山村,绍兴市,侏罗纪香榧森林公园景区,
松阳象溪一村旅游景区,旅游景点,浙江省,AAA,浙江省丽水市松阳县象溪镇象溪一村,丽水市,松阳象溪一村旅游景区,
浙江省金华市兰溪市黄大仙赤松园景区,旅游景点,浙江省,AA,浙江省金华市兰溪市云山街道中徐村,金华市,浙江省金华市兰溪市黄大仙赤松园景区,
浙江省衢州市常山县东方巨石阵景区,旅游景点,浙江省,AAA,浙江省衢州市常山县青石镇水南村底铺157号,衢州市,浙江省衢州市常山县东方巨石阵景区,
浙江省温州市文成县仙果庄园,旅游景点,浙江省,AAA,浙江省温州市文成县,温州市,浙江省温州市文成县仙果庄园,
杭州湘湖跨湖桥景区,旅游景点,浙江省,AAAA,浙江省杭州市萧山区闻堰街道湘湖路132号,杭州市,杭州湘湖跨湖桥景区,82361618
浙江省杭州市建德市大慈岩景区,旅游景点,浙江省,AAAA,浙江省杭州市建德市大慈岩村大慈岩风景区,杭州市,浙江省杭州市建德市大慈岩景区,58312587
海宁市西山公园,旅游景点,浙江省,AA,浙江省嘉兴市海宁市公园路17号,嘉兴市,海宁市西山公园,
三衢石林风景区,旅游景点,浙江省,AAAA,浙江省衢州市常山县辉埠镇路里坑村,衢州市,三衢石林风景区,0570-5199218
浙江省台州市仙居县安岭乡灵江之源景区,旅游景点,浙江省,AAA,浙江省台州市仙居县安岭乡石舍村,台州市,浙江省台州市仙居县安岭乡灵江之源景区,
大明山景区,旅游景点,浙江省,AAAA,浙江省杭州市临安区清凉峰镇大明山景区,杭州市,大明山景区,
七彩长虹景区,旅游景点,浙江省,AAAA,浙江省衢州市开化县长虹乡,衢州市,七彩长虹景区,0570-6521766
浙江伊利乳业景区,旅游景点,浙江省,AA,浙江省金华市市辖区金西开发区北区6号,金华市,浙江伊利乳业景区,57989173668
浙江省金华市浦江县冷坞花谷旅游景区,旅游景点,浙江省,AAA,浙江省金华市浦江县中余乡冷坞村,金华市,浙江省金华市浦江县冷坞花谷旅游景区,
龙游民居苑,旅游景点,浙江省,AAAA,浙江省衢州市龙游县宝塔路,衢州市,龙游民居苑,
浙江省湖州市长兴县城山沟景区,旅游景点,浙江省,AAA,浙江省湖州市长兴县和平镇城山沟桃源山庄,湖州市,浙江省湖州市长兴县城山沟景区,
浙江省嘉兴市嘉善县浙北桃花岛农业生态旅游区,旅游景点,浙江省,AA,浙江省嘉兴市嘉善县姚庄镇北鹤村,嘉兴市,浙江省嘉兴市嘉善县浙北桃花岛农业生态旅游区,
白塔湖湿地公园景区,旅游景点,浙江省,AAA,浙江省绍兴市诸暨市店口镇朱家站村原白塔湖鱼场内,绍兴市,白塔湖湿地公园景区,
富阳富春桃源风景旅游开发有限公司,旅游景点,浙江省,AAAA,浙江省杭州市富阳市富阳市胥口镇上练村,杭州市,富阳富春桃源风景旅游开发有限公司,
千草素文化观光园景区,旅游景点,浙江省,AA,浙江省杭州市淳安县千岛湖镇坪山路89号,杭州市,千草素文化观光园景区,13732278779
浙江省温州市泰顺县畲乡竹里景区,旅游景点,浙江省,AAA,浙江省温州市泰顺县竹里畲族乡竹里村,温州市,浙江省温州市泰顺县畲乡竹里景区,59280552
中国青瓷小镇·披云青瓷文化园,旅游景点,浙江省,AAAA,浙江省丽水市龙泉市浙江龙泉上垟镇,丽水市,中国青瓷小镇·披云青瓷文化园,
平湖市澳多奇农庄有限公司,旅游景点,浙江省,AAA,浙江省嘉兴市平湖市曹桥街道马厩村,嘉兴市,平湖市澳多奇农庄有限公司,
浙江省丽水市遂昌县高坪新村,旅游景点,浙江省,AAA,浙江省丽水市遂昌县高坪乡高坪新村,丽水市,浙江省丽水市遂昌县高坪新村,0578-8306004
黄塘景区,旅游景点,浙江省,AAA,浙江省衢州市常山县常山县新昌乡黄塘村,衢州市,黄塘景区,
草鱼塘森林公园,旅游景点,浙江省,AA,浙江省丽水市景宁畲族自治县景宁畲族自治县东坑镇,丽水市,草鱼塘森林公园,
舟山市定海区钓琅湾休闲农庄,旅游景点,浙江省,A,浙江省舟山市定海区舟山定海区北蝉乡钓琅湾休闲农庄,舟山市,舟山市定海区钓琅湾休闲农庄,
浙江省衢州市衢江区药王山景区,旅游景点,浙江省,AAAA,浙江省衢州市衢江区黄坛口乡黄泥岭村,衢州市,浙江省衢州市衢江区药王山景区,
洞头景区,旅游景点,浙江省,AAAA,浙江省温州市洞头县洞头县新城区望海路103弄32号,温州市,洞头景区,
浙江省台州市玉环市漩门湾观光农业园景区,旅游景点,浙江省,AAAA,浙江省台州市玉环市清港镇迎宾西路末端,台州市,浙江省台州市玉环市漩门湾观光农业园景区,87121920
浙江省温州市平阳县龙王峡谷景区,旅游景点,浙江省,AAA,浙江省温州市平阳县鳌江梅溪社区联丰村,温州市,浙江省温州市平阳县龙王峡谷景区,
金华动物园景区,旅游景点,浙江省,AAA,浙江省金华市婺城区安地镇金安大道1号,金华市,金华动物园景区,89104500
牛头山国家森林公园,旅游景点,浙江省,AAAA,浙江省金华市武义县西联乡牛头山景区,金华市,牛头山国家森林公园,
淳安县千岛湖风景区,旅游景点,浙江省,AAAAA,浙江省杭州市淳安县杭州市淳安县千岛湖镇排岭南路32号,杭州市,淳安县千岛湖风景区,
浙江省嘉兴市桐乡市锦绣大地石斛园,旅游景点,浙江省,AA,浙江省嘉兴市桐乡市,嘉兴市,浙江省嘉兴市桐乡市锦绣大地石斛园,
浙江省金华市磐安县灵江源森林公园,旅游景点,浙江省,AAA,浙江省金华市磐安县盘峰乡灵江源村,金华市,浙江省金华市磐安县灵江源森林公园,57984622228
浙江省丽水市龙泉市兰巨现代农业观光园,旅游景点,浙江省,AAA,浙江省丽水市龙泉市兰巨乡独田村,丽水市,浙江省丽水市龙泉市兰巨现代农业观光园,
浙江省绍兴市上虞区桃花源生态旅游区,旅游景点,浙江省,AAAA,浙江省绍兴市上虞区桃园村,绍兴市,浙江省绍兴市上虞区桃花源生态旅游区,
绍兴鲁迅故里·沈园景区,旅游景点,浙江省,AAAAA,浙江省绍兴市市辖区鲁迅中路241号,绍兴市,绍兴鲁迅故里·沈园景区,
浙江省杭州市萧山区杭州乐园景区,旅游景点,浙江省,AAAA,浙江省杭州市萧山区城厢街道休博园中心区43号,杭州市,浙江省杭州市萧山区杭州乐园景区,0571-83866821
浙江省绍兴市新昌县十九峰景区,旅游景点,浙江省,AAAA,浙江省绍兴市新昌县澄潭镇左于村重阳宫门口,绍兴市,浙江省绍兴市新昌县十九峰景区,86332189
浙江省杭州市桐庐县瑶琳仙境景区,旅游景点,浙江省,AAAA,浙江省杭州市桐庐县瑶琳镇瑶琳路40号,杭州市,浙江省杭州市桐庐县瑶琳仙境景区,
缙云县仙都黄龙景区开发有限公司,旅游景点,浙江省,AAAA,浙江省丽水市缙云县五云街道黄龙景区,丽水市,缙云县仙都黄龙景区开发有限公司,
浙江省湖州市吴兴区芳山村景区,旅游景点,浙江省,AAA,浙江省湖州市吴兴区埭溪镇芳山村,湖州市,浙江省湖州市吴兴区芳山村景区,
杭州新安江旅业好运岛\情人谷景区,旅游景点,浙江省,AAA,浙江省杭州市建德市杭州市建德市新安江镇,杭州市,杭州新安江旅业好运岛\情人谷景区,
浙江省台州市椒江区台州海洋世界,旅游景点,浙江省,AAAA,浙江省台州市椒江区,台州市,浙江省台州市椒江区台州海洋世界,0576-88818518
桃花源生态旅游区,旅游景点,浙江省,AAA,浙江省绍兴市上虞市上虞市长塘镇长塘村,绍兴市,桃花源生态旅游区,
金华农耕文化园景区,旅游景点,浙江省,AAA,浙江省金华市婺城区白龙桥镇高桥村西北方,金华市,金华农耕文化园景区,
兰纳休闲观光园景区,旅游景点,浙江省,AA,浙江省杭州市淳安县大墅镇桃源凌家村,杭州市,兰纳休闲观光园景区,
浙江省玉苍山森林公园,旅游景点,浙江省,AAAA,浙江省温州市苍南县,温州市,浙江省玉苍山森林公园,
浙江省温州市鹿城区浙农生态农庄景区,旅游景点,浙江省,AAA,浙江省温州市鹿城区雅岭路杏澎地段8号,温州市,浙江省温州市鹿城区浙农生态农庄景区,85955510
浙江省绍兴市柯桥区平水镇平阳禅寺旅游景区,旅游景点,浙江省,AA,浙江省绍兴市柯桥区平水镇平阳村,绍兴市,浙江省绍兴市柯桥区平水镇平阳禅寺旅游景区,
云和梯田景区,旅游景点,浙江省,AAAA,浙江省丽水市云和县云和县崇头镇,丽水市,云和梯田景区,
浙江省金华市兰溪市芝堰古村景区,旅游景点,浙江省,AAA,浙江省金华市兰溪市黄店镇芝堰村,金华市,浙江省金华市兰溪市芝堰古村景区,
浙江省宁波市鄞州区宁波海洋世界,旅游景点,浙江省,AAAA,浙江省宁波市鄞州区桑田路936号,宁波市,浙江省宁波市鄞州区宁波海洋世界,
安吉县大竹海旅游有限公司,旅游景点,浙江省,AAA,浙江省湖州市安吉县安吉县天荒坪镇五鹤村,湖州市,安吉县大竹海旅游有限公司,
峡谷景廊,旅游景点,浙江省,AAA,浙江省温州市文成县文成县大峃镇吴样村,温州市,峡谷景廊,
浙江省绍兴市上虞区盖北野藤葡萄公园,旅游景点,浙江省,AAA,浙江省绍兴市上虞区盖北镇丰富村,绍兴市,浙江省绍兴市上虞区盖北野藤葡萄公园,
绍兴县香湖生态旅游度假有限公司,旅游景点,浙江省,AA,浙江省绍兴市绍兴县湖塘街道夏泽村,绍兴市,绍兴县香湖生态旅游度假有限公司,
浙江省嘉兴市海宁市 海宁市博物馆旅游区,旅游景点,浙江省,AA,浙江省嘉兴市海宁市硖石街道西山路542号,嘉兴市,浙江省嘉兴市海宁市 海宁市博物馆旅游区,
玉皇山南基金小镇景区,旅游景点,浙江省,AAAA,浙江省杭州市上城区南星街道目术塘创意园2号楼,杭州市,玉皇山南基金小镇景区,85029255
国华珠算博物院,旅游景点,浙江省,AA,浙江省台州市临海市临海市洋甫路117号,台州市,国华珠算博物院,
浙江省温州市市辖区仙岩景区,旅游景点,浙江省,AAA,浙江省温州市市辖区仙岩街道仙竹路2号,温州市,浙江省温州市市辖区仙岩景区,
浙江省绍兴市嵊州市虎居动物园,旅游景点,浙江省,AA,嵊州市剡湖街道城北张墅水库,绍兴市,浙江省绍兴市嵊州市虎居动物园,
浙江省金华市浦江县红色塘波景区,旅游景点,浙江省,AAA,浙江省金华市浦江县,金华市,浙江省金华市浦江县红色塘波景区,
岩下石头村景区,旅游景点,浙江省,AAA,浙江省丽水市缙云县壶镇镇岩下村双龙路1号,丽水市,岩下石头村景区,
浙江省湖州市南浔区福荫童心小镇景区,旅游景点,浙江省,AAA,浙江省湖州市南浔区千金镇商墓村,湖州市,浙江省湖州市南浔区福荫童心小镇景区,3361483
前童古镇,旅游景点,浙江省,AAAA,浙江省宁波市宁海县前童镇,宁波市,前童古镇,
浙江省杭州市余杭区遇见鸬鸟景区,旅游景点,浙江省,AAA,浙江省杭州市余杭区鸬鸟镇鸬鸟大道,杭州市,浙江省杭州市余杭区遇见鸬鸟景区,
龙游花海景区,旅游景点,浙江省,AAA,浙江省衢州市龙游县詹家镇蒲山村虎塔嘴38号,衢州市,龙游花海景区,
浙江省杭州市桐庐县桐庐垂云通天河景区,旅游景点,浙江省,AAAA,浙江省杭州市桐庐县瑶琳镇东琳村,杭州市,浙江省杭州市桐庐县桐庐垂云通天河景区,
温州动物园,旅游景点,浙江省,AAA,浙江省温州市瓯海区温州市雪山路367号,温州市,温州动物园,
浙江省宁波市余姚市丹山赤水景区,旅游景点,浙江省,AAAA,浙江省宁波市余姚市大岚镇柿林村,宁波市,浙江省宁波市余姚市丹山赤水景区,
浙江省台州市天台县古韵张思景区,旅游景点,浙江省,AAA,浙江省台州市天台县平桥镇张思村,台州市,浙江省台州市天台县古韵张思景区,
浙江省金华市武义县秘境.梁家山景区,旅游景点,浙江省,AAA,浙江省金华市武义县柳城镇梁家山村,金华市,浙江省金华市武义县秘境.梁家山景区,
浙江省宁波市慈溪市虞氏旧宅,旅游景点,浙江省,AAA,浙江省宁波市慈溪市龙山镇山下村洽卿路18号,宁波市,浙江省宁波市慈溪市虞氏旧宅,
浙江省温州市文成县龙麒源景区,旅游景点,浙江省,AAAA,浙江省温州市文成县西坑镇梧溪村,温州市,浙江省温州市文成县龙麒源景区,
浙江省宁波市慈溪市龙山镇达蓬山景区,旅游景点,浙江省,AAAA,浙江省宁波市慈溪市龙山镇达蓬山度假区,宁波市,浙江省宁波市慈溪市龙山镇达蓬山景区,
长兴金钉子远古世界景区,旅游景点,浙江省,AAAA,浙江省湖州市长兴县槐坎葆青山麓,湖州市,长兴金钉子远古世界景区,
浙江省温州市文成县山一角景区,旅游景点,浙江省,AAA,浙江省温州市文成县玉壶镇角山村,温州市,浙江省温州市文成县山一角景区,
舜王庙,旅游景点,浙江省,AAA,浙江省绍兴市绍兴县柯桥区王坛镇,绍兴市,舜王庙,
福严寺景区,旅游景点,浙江省,AAA,浙江省嘉兴市桐乡市合星村福严寺路口,嘉兴市,福严寺景区,
浙江省湖州市吴兴区黄金湖岸景区,旅游景点,浙江省,AAAA,浙江省湖州市吴兴区滨湖街道黄金湖岸(雷迪森酒店后面太湖大堤上),湖州市,浙江省湖州市吴兴区黄金湖岸景区,13732398727
杭州东方文化园,旅游景点,浙江省,AAAA,浙江省杭州市萧山区萧山区义桥镇湘东（建新）村,杭州市,杭州东方文化园,
浙江省丽水市遂昌县南尖岩景区,旅游景点,浙江省,AAAA,浙江省丽水市遂昌县王村口镇石笋头村,丽水市,浙江省丽水市遂昌县南尖岩景区,
磐安百杖潭景区,旅游景点,浙江省,AAAA,浙江省金华市磐安县磐安县仁川镇石下村,金华市,磐安百杖潭景区,
桐乡毛衫时尚小镇景区,旅游景点,浙江省,AAA,浙江省嘉兴市桐乡市濮院镇广场路1号,嘉兴市,桐乡毛衫时尚小镇景区,88827083
诗画小舟山景区,旅游景点,浙江省,AA,浙江省丽水市青田县小舟山乡小舟山村,丽水市,诗画小舟山景区,
衢州九龙湖,旅游景点,浙江省,AA,浙江省衢州市衢江区,衢州市,衢州九龙湖,
龙泉市博物馆,旅游景点,浙江省,AA,浙江省丽水市龙泉市剑川大道258号,丽水市,龙泉市博物馆,
浙江省丽水市遂昌县千佛山景区,旅游景点,浙江省,AAAA,浙江省丽水市遂昌县石练镇飞石岭,丽水市,浙江省丽水市遂昌县千佛山景区,
浙江省丽水市龙泉市龙泉宝剑厂景区,旅游景点,浙江省,AAA,浙江省丽水市龙泉市剑池街道大沙工业区,丽水市,浙江省丽水市龙泉市龙泉宝剑厂景区,
浙江省金华市磐安县舞龙峡景区,旅游景点,浙江省,AAAA,浙江省金华市磐安县尖山镇楼下宅村,金华市,浙江省金华市磐安县舞龙峡景区,0579-84795555
茅洋蟹钳港景区,旅游景点,浙江省,AAA,浙江省宁波市象山县茅洋乡白岩下村游客服务中心,宁波市,茅洋蟹钳港景区,
浙江省台州市临海市黄石坦景区,旅游景点,浙江省,AAA,浙江省台州市临海市括苍镇九台沟黄石坦自然村,台州市,浙江省台州市临海市黄石坦景区,
杭州山沟沟旅游度假有限公司,旅游景点,浙江省,AAA,浙江省杭州市余杭区杭州市余杭区鸬鸟镇山沟沟村,杭州市,杭州山沟沟旅游度假有限公司,
浙江省台州市黄岩智能模具小镇景区,旅游景点,浙江省,AAA,浙江省台州市黄岩区新前街道爱宾路166号,台州市,浙江省台州市黄岩智能模具小镇景区,
仙华山景区,旅游景点,浙江省,AAAA,浙江省金华市浦江县仙华街道仙华山村,金华市,仙华山景区,
嘉兴市圆通古寺,旅游景点,浙江省,AAA,浙江省嘉兴市经开区昌盛东路1666号,嘉兴市,嘉兴市圆通古寺,
浙江省嘉兴市海宁市宽塘景区,旅游景点,浙江省,AAA,浙江省嘉兴市海宁市,嘉兴市,浙江省嘉兴市海宁市宽塘景区,
大尖山景区,旅游景点,浙江省,AAA,浙江省嘉兴市海宁市黄湾镇尖山村,嘉兴市,大尖山景区,13511283033
浙江省杭州市萧山区杭州东方文化园景区,旅游景点,浙江省,AAAA,浙江省杭州市萧山区义桥镇杭州东方文化园,杭州市,浙江省杭州市萧山区杭州东方文化园景区,82336868-5811
方家河头村,旅游景点,浙江省,AAA,浙江省宁波市慈溪市龙山镇方家河头村,宁波市,方家河头村,
浙江省台州市天台县南屏乡旅游景区,旅游景点,浙江省,AAAA,浙江省台州市天台县,台州市,浙江省台州市天台县南屏乡旅游景区,
浙江省嘉兴市桐乡市乌镇互联网特色小镇景区,旅游景点,浙江省,AAA,浙江省嘉兴市桐乡市乌镇镇,嘉兴市,浙江省嘉兴市桐乡市乌镇互联网特色小镇景区,
浙江省绍兴市柯桥区王化日铸岭旅游景区,旅游景点,浙江省,AA,浙江省绍兴市柯桥区王化村,绍兴市,浙江省绍兴市柯桥区王化日铸岭旅游景区,
十里金滩特色小镇景区,旅游景点,浙江省,AAA,浙江省舟山市嵊泗县菜园镇基湖村兴基路38号,舟山市,十里金滩特色小镇景区,
千岛秘境景区,旅游景点,浙江省,AA,浙江省杭州市淳安县富文乡青田村,杭州市,千岛秘境景区,
箬寮原始林景区,旅游景点,浙江省,AAAA,浙江省丽水市松阳县安民乡李坑村,丽水市,箬寮原始林景区,
浙江省杭州市桐庐县江南古村落景区,旅游景点,浙江省,AAAA,浙江省杭州市桐庐县深澳村,杭州市,浙江省杭州市桐庐县江南古村落景区,
宁波科学探索中心,旅游景点,浙江省,AAA,浙江省宁波市江东区宁穿路1800号,宁波市,宁波科学探索中心,
歌斐颂巧克力小镇,旅游景点,浙江省,AAAA,浙江省嘉兴市嘉善县大云镇巧克力大道1号,嘉兴市,歌斐颂巧克力小镇,
浙东小九寨旅游风景区,旅游景点,浙江省,AAA,浙江省宁波市余姚市大隐镇芝林村,宁波市,浙东小九寨旅游风景区,
浙江省丽水市庆元县月山景区,旅游景点,浙江省,AAA,浙江省丽水市庆元县举水乡月山村,丽水市,浙江省丽水市庆元县月山景区,
鸣山古村,旅游景点,浙江省,AAA,浙江省温州市平阳县鸣山村村委会大楼,温州市,鸣山古村,
衢州江南儒城·水亭门景区,旅游景点,浙江省,AAAA,浙江省衢州市柯城区县西街153号,衢州市,衢州江南儒城·水亭门景区,
宁波科学探索中心景区,旅游景点,浙江省,AAAA,浙江省宁波市鄞州区,宁波市,宁波科学探索中心景区,
富阳市龙门古镇,旅游景点,浙江省,AAAA,浙江省杭州市富阳市龙门镇,杭州市,富阳市龙门古镇,
浙江省金华市永康市虎踞峡景区,旅游景点,浙江省,AAA,浙江省金华市永康市前仓镇,金华市,浙江省金华市永康市虎踞峡景区,
贤德状元里景区,旅游景点,浙江省,AAA,浙江省杭州市富阳区洞桥镇,杭州市,贤德状元里景区,
浙江聚优品石斛文化园,旅游景点,浙江省,AAA,浙江省温州市乐清市大荆镇下山头村,温州市,浙江聚优品石斛文化园,
中国畲乡之窗,旅游景点,浙江省,AAAA,浙江省丽水市景宁畲族自治县景宁畲族自治县大均乡,丽水市,中国畲乡之窗,
浙江省嘉兴市海盐县绮园景区,旅游景点,浙江省,AAAA,浙江省嘉兴市海盐县武原街道海滨东路37号9室,嘉兴市,浙江省嘉兴市海盐县绮园景区,0573-86860183
宁波五龙潭风景名胜区,旅游景点,浙江省,AAAA,浙江省宁波市鄞州区宁波市鄞州区龙观乡,宁波市,宁波五龙潭风景名胜区,
浙江省金华市磐安县江南药镇景区,旅游景点,浙江省,AAA,浙江省金华市磐安县新渥街道,金华市,浙江省金华市磐安县江南药镇景区,
浙江省台州市奥特莱斯风情小镇景区,旅游景点,浙江省,AAA,浙江省台州市黄岩区院桥镇兴华路211号,台州市,浙江省台州市奥特莱斯风情小镇景区,
温岭市素质教育实践基地,旅游景点,浙江省,AAA,浙江省台州市温岭市温岭市松门镇神址塘1号,台州市,温岭市素质教育实践基地,
泽雅风景名胜区,旅游景点,浙江省,AAA,浙江省温州市瓯海区泽雅镇下庵村,温州市,泽雅风景名胜区,
浙江省丽水市遂昌县神龙飞瀑景区,旅游景点,浙江省,AAAA,浙江省丽水市遂昌县安口乡桂洋林场内,丽水市,浙江省丽水市遂昌县神龙飞瀑景区,
上虞市东山湖休闲旅游区,旅游景点,浙江省,AA,浙江省绍兴市上虞市上虞市上浦镇东山湖景区,绍兴市,上虞市东山湖休闲旅游区,
浙江省嘉兴市秀洲区嘉欣丝绸园(嘉兴市丝绸博物馆)景区,旅游景点,浙江省,AAA,浙江省嘉兴市秀洲区中山西路2710号嘉欣丝绸园,嘉兴市,浙江省嘉兴市秀洲区嘉欣丝绸园(嘉兴市丝绸博物馆)景区,57382790831
兰溪黄大仙赤松园,旅游景点,浙江省,AA,浙江省金华市兰溪市云山街道中徐村,金华市,兰溪黄大仙赤松园,
洞头半屏山-仙叠岩（同心小镇）,旅游景点,浙江省,AAAA,浙江省温州市洞头区北岙街道望海路103弄32号,温州市,洞头半屏山-仙叠岩（同心小镇）,
余姚化安山阳明温泉旅游景区,旅游景点,浙江省,AAA,浙江省宁波市余姚市陆埠镇温泉路8号,宁波市,余姚化安山阳明温泉旅游景区,62399999转6518
浙江省金华市浦江县诗人小镇景区,旅游景点,浙江省,AAA,浙江省金华市浦江县大畈乡上河村,金华市,浙江省金华市浦江县诗人小镇景区,
宁波郑氏十七房景区,旅游景点,浙江省,AAAA,浙江省宁波市镇海区镇海区澥浦镇开源路,宁波市,宁波郑氏十七房景区,
浙江省湖州市长兴县方一村景区,旅游景点,浙江省,AAA,浙江省湖州市长兴县小浦镇方一村,湖州市,浙江省湖州市长兴县方一村景区,
浙江省宁波市余姚市四明山省级地质公园,旅游景点,浙江省,AAA,浙江省宁波市余姚市四明山镇大山村地质公园,宁波市,浙江省宁波市余姚市四明山省级地质公园,0574-62346222
浙江省台州市仙居县皤滩古镇景区,旅游景点,浙江省,AAA,浙江省台州市仙居县皤滩乡上街村,台州市,浙江省台州市仙居县皤滩古镇景区,87961661
杭州乐园有限公司,旅游景点,浙江省,AAAA,浙江省杭州市萧山区萧山区城厢街道休博园中心区43号,杭州市,杭州乐园有限公司,
啤酒小镇,旅游景点,浙江省,AAA,浙江省杭州市淳安县千岛湖镇睦州大道659号,杭州市,啤酒小镇,65031299
龙泉唯珍堂铁皮石斛生态博览园景区,旅游景点,浙江省,AAA,浙江省丽水市龙泉市周村,丽水市,龙泉唯珍堂铁皮石斛生态博览园景区,
浙江省金华市永康市塘里景区,旅游景点,浙江省,AAA,浙江省金华市永康市塘里村,金华市,浙江省金华市永康市塘里景区,
浙江省湖州市南浔区善琏湖笔文化旅游景区,旅游景点,浙江省,AAA,浙江省湖州市南浔区善琏镇展望路368号,湖州市,浙江省湖州市南浔区善琏湖笔文化旅游景区,0572-3633895
桐乡市蚕桑产业观光园,旅游景点,浙江省,AA,浙江省嘉兴市桐乡市梧桐街道新玄村,嘉兴市,桐乡市蚕桑产业观光园,
浙北大峡谷景区,旅游景点,浙江省,AAAA,浙江省湖州市安吉县安吉县报福镇石岭村,湖州市,浙北大峡谷景区,
浙江省杭州市江干区皋亭山景区,旅游景点,浙江省,AAAA,浙江省杭州市江干区丁兰街道天鹤路789号,杭州市,浙江省杭州市江干区皋亭山景区,
瓯江漂流景区,旅游景点,浙江省,AA,浙江省丽水市莲都区碧湖镇白口村,丽水市,瓯江漂流景区,
京杭大运河·杭州,旅游景点,浙江省,AAAA,浙江省杭州市市辖区杭州市湖墅南路198号,杭州市,京杭大运河·杭州,
浙江省绍兴市柯桥区香湖山庄景区,旅游景点,浙江省,AA,浙江省绍兴市柯桥区湖塘街道夏泽村,绍兴市,浙江省绍兴市柯桥区香湖山庄景区,
浙江省台州市玉环市鸡山岛景区,旅游景点,浙江省,AAA,浙江省台州市玉环市鸡山乡乐宾路126号,台州市,浙江省台州市玉环市鸡山岛景区,
浙江省嘉兴市桐乡市石门镇桂花村景区,旅游景点,浙江省,AA,浙江省嘉兴市桐乡市石门镇桂花村,嘉兴市,浙江省嘉兴市桐乡市石门镇桂花村景区,13806718658
龙游石窟旅游区,旅游景点,浙江省,AAAA,浙江省衢州市龙游县小南海镇周红畈村,衢州市,龙游石窟旅游区,0570-7053567
浙江省宁波市江北前洋E商小镇景区,旅游景点,浙江省,AAA,浙江省宁波市江北区前洋E商小镇,宁波市,浙江省宁波市江北前洋E商小镇景区,0574-88228240
舟山市月亮湾风景区,旅游景点,浙江省,AA,浙江省舟山市定海区岑港街道南岙社区门岙涂,舟山市,舟山市月亮湾风景区,
浙江省宁波市镇海区九龙湖旅游区,旅游景点,浙江省,AAAA,浙江省宁波市镇海区九龙湖镇环湖路168号,宁波市,浙江省宁波市镇海区九龙湖旅游区,
沈家门渔港小镇景区,旅游景点,浙江省,AAAA,浙江省舟山市普陀区沈家门街道,舟山市,沈家门渔港小镇景区,
浙江省台州市天台山景区,旅游景点,浙江省,AAAAA,浙江省台州市天台县和合街1号,台州市,浙江省台州市天台山景区,
浙江省宁波市余姚市王阳明故居,旅游景点,浙江省,AAA,浙江省宁波市余姚市阳明街道阳明西路36号,宁波市,浙江省宁波市余姚市王阳明故居,0574-62634028
桂花村景区,旅游景点,浙江省,AA,浙江省嘉兴市桐乡市桐乡市石门镇子恺路26号,嘉兴市,桂花村景区,
峡风瓷韵景区,旅游景点,浙江省,AAA,浙江省衢州市江山市峡口镇枫石村莲花山村部,衢州市,峡风瓷韵景区,
浙江省嘉兴市秀洲区圆通古寺,旅游景点,浙江省,AAA,浙江省嘉兴市秀洲区昌盛东路1666号,嘉兴市,浙江省嘉兴市秀洲区圆通古寺,0573-82336680
浙江省绍兴市柯桥区香雪梅海景区,旅游景点,浙江省,AAA,浙江省绍兴市柯桥区王坛镇东村村,绍兴市,浙江省绍兴市柯桥区香雪梅海景区,
浙江省丽水市庆元县巾子峰景区,旅游景点,浙江省,AAAA,浙江省丽水市庆元县松源街道,丽水市,浙江省丽水市庆元县巾子峰景区,
开化金溪桃韵景区,旅游景点,浙江省,AAA,浙江省衢州市开化县开化县芹阳办事处桃溪村村委会,衢州市,开化金溪桃韵景区,
浙江省杭州市西湖区云栖小镇景区,旅游景点,浙江省,AAA,杭州市西湖区河山路333号云栖小镇国际会展中心二期5号门三楼,杭州市,浙江省杭州市西湖区云栖小镇景区,87323638
浙江省杭州市临安区古韵河桥景区,旅游景点,浙江省,AAA,浙江省杭州市临安区河桥镇柳溪街19号,杭州市,浙江省杭州市临安区古韵河桥景区,
丰子恺纪念馆,旅游景点,浙江省,AA,浙江省嘉兴市桐乡市石门镇大井路1号,嘉兴市,丰子恺纪念馆,
龙游天池荷花景区,旅游景点,浙江省,AAA,浙江省衢州市龙游县龙游县横山镇天池村,衢州市,龙游天池荷花景区,
海宁中国皮革城,旅游景点,浙江省,AAAA,浙江省嘉兴市海宁市海州西路201号,嘉兴市,海宁中国皮革城,
浙江省金华市永康市舟山古民居,旅游景点,浙江省,AAA,浙江省金华市永康市舟山镇舟二村鱼池街南二弄61号,金华市,浙江省金华市永康市舟山古民居,
浙江省湖州市安吉县尚书休闲文化村,旅游景点,浙江省,AAA,浙江省湖州市安吉县孝源街道尚书干村,湖州市,浙江省湖州市安吉县尚书休闲文化村,
浙江省台州市仙居县响石山景区,旅游景点,浙江省,AAA,浙江省台州市仙居县横溪镇后山根村,台州市,浙江省台州市仙居县响石山景区,
中雁风景旅游管理委员会,旅游景点,浙江省,AAAA,浙江省温州市乐清市乐清市白石镇玉虹北路,温州市,中雁风景旅游管理委员会,
浙江省嘉兴市桐乡市崇福镇店街塘景区,旅游景点,浙江省,AA,浙江省嘉兴市桐乡市崇福镇店街塘村南官楼,嘉兴市,浙江省嘉兴市桐乡市崇福镇店街塘景区,
白玉湾生态农业观光园,旅游景点,浙江省,AAA,浙江省宁波市象山县白玉湾生态农业观光园,宁波市,白玉湾生态农业观光园,
武义郭洞景区,旅游景点,浙江省,AAA,浙江省金华市武义县武义郭下村,金华市,武义郭洞景区,
白塔湖国家湿地公园,旅游景点,浙江省,AAA,浙江省绍兴市诸暨市店口镇朱家站村,绍兴市,白塔湖国家湿地公园,
金丝娘农庄,旅游景点,浙江省,AA,浙江省嘉兴市平湖市平湖市独山港镇建中村8组,嘉兴市,金丝娘农庄,
六横旅游景区,旅游景点,浙江省,AA,浙江省舟山市普陀区普陀区六横岛,舟山市,六横旅游景区,
浙江省温州市文成县铜铃山镇,旅游景点,浙江省,AAAA,浙江省温州市文成县铜铃山镇,温州市,浙江省温州市文成县铜铃山镇,
浙江省丽水市云和县梅湾3A景区,旅游景点,浙江省,AAA,浙江省丽水市云和县元和街道梅湾村,丽水市,浙江省丽水市云和县梅湾3A景区,
浙江省温州市泰顺县南浦溪景区,旅游景点,浙江省,AAA,浙江省温州市泰顺县南浦溪镇孙坪木湾自然村,温州市,浙江省温州市泰顺县南浦溪景区,
浙江省台州市三门县蛇蟠岛景区,旅游景点,浙江省,AAAA,浙江省台州市三门县蛇蟠乡,台州市,浙江省台州市三门县蛇蟠岛景区,
鄣吴昌硕故里景区,旅游景点,浙江省,AAA,浙江省湖州市安吉县鄣吴镇鄣吴村,湖州市,鄣吴昌硕故里景区,0572-5105883
浙江省金华市磐安县花溪风景区,旅游景点,浙江省,AAA,浙江省金华市磐安县安文街道花溪村,金华市,浙江省金华市磐安县花溪风景区,0579-84698095
千年曙光园景区,旅游景点,浙江省,AAA,浙江省台州市温岭市石塘镇,台州市,千年曙光园景区,0576－86715996
浙江省温州市平阳县中共浙江省一大纪念园,旅游景点,浙江省,AAA,浙江省温州市平阳县凤卧镇,温州市,浙江省温州市平阳县中共浙江省一大纪念园,
浙江省金华市武义县坛头景区,旅游景点,浙江省,AAA,浙江省金华市武义县履坦镇坛头村,金华市,浙江省金华市武义县坛头景区,
浙江省温州市文成县猴王谷景区,旅游景点,浙江省,AAA,浙江省温州市文成县铜铃山镇石垟林场境内,温州市,浙江省温州市文成县猴王谷景区,
菰城村景区,旅游景点,浙江省,AAA,浙江省湖州市吴兴区道场乡菰城村,湖州市,菰城村景区,
桐乡市崇福镇店街塘景区,旅游景点,浙江省,AA,浙江省嘉兴市桐乡市桐乡市崇福镇店街塘村,嘉兴市,桐乡市崇福镇店街塘景区,
玉海楼,旅游景点,浙江省,AAA,浙江省温州市瑞安市瑞安市玉海街道道院前街5号,温州市,玉海楼,
砚瓦山景区,旅游景点,浙江省,AA,浙江省衢州市常山县常山县青石镇砚瓦山村,衢州市,砚瓦山景区,
桐乡恒基文化博览园景区,旅游景点,浙江省,AAA,浙江省嘉兴市桐乡市梧桐街道齐福路398号,嘉兴市,桐乡恒基文化博览园景区,
桃花岛旅游景区,旅游景点,浙江省,AAAA,浙江省舟山市普陀区普陀区桃花岛,舟山市,桃花岛旅游景区,
万象花卉多肉多花园,旅游景点,浙江省,AA,浙江省金华市市辖区,金华市,万象花卉多肉多花园,
浙江省绍兴市诸暨市大唐街道袜艺小镇景区,旅游景点,浙江省,AAA,浙江省绍兴市诸暨市大唐街道永新路535号,绍兴市,浙江省绍兴市诸暨市大唐街道袜艺小镇景区,87735688
浙江省丽水市松阳县七沐山景区,旅游景点,浙江省,AAA,浙江省丽水市松阳县象溪镇南坑口村七莫山岗1号,丽水市,浙江省丽水市松阳县七沐山景区,
芹川古村景区,旅游景点,浙江省,AAA,浙江省杭州市淳安县浪川乡芹川村,杭州市,芹川古村景区,
浙江省杭州市富阳区鹳山风景区,旅游景点,浙江省,AAA,浙江省杭州市富阳区,杭州市,浙江省杭州市富阳区鹳山风景区,
隆山,旅游景点,浙江省,AA,浙江省温州市瑞安市安阳街道隆山路123号,温州市,隆山,
浙江省杭州市临安区天目月乡景区,旅游景点,浙江省,AAA,浙江省杭州市临安区天目山镇月亮桥村,杭州市,浙江省杭州市临安区天目月乡景区,0571—63852993
浙江省绍兴市越城区富盛镇诸葛仙山景区,旅游景点,浙江省,AAA,浙江省绍兴市越城区诸葛山村,绍兴市,浙江省绍兴市越城区富盛镇诸葛仙山景区,
严子陵钓台,旅游景点,浙江省,AAAA,浙江省杭州市桐庐县富春江镇云源路1号,杭州市,严子陵钓台,
五泄风景管理处,旅游景点,浙江省,AAAA,浙江省绍兴市诸暨市五泄镇,绍兴市,五泄风景管理处,
浙江省绍兴市越城区镜湖湿地公园旅游景区,旅游景点,浙江省,AAA,浙江省绍兴市越城区灵芝街道,绍兴市,浙江省绍兴市越城区镜湖湿地公园旅游景区,88243777
遂昌竹炭博物馆,旅游景点,浙江省,AAA,浙江省丽水市遂昌县遂昌县上江工业园区飞龙路58号,丽水市,遂昌竹炭博物馆,
浙江伊利乳业有限公司,旅游景点,浙江省,AA,浙江省金华市婺城区金西开发区北区6号,金华市,浙江伊利乳业有限公司,
温州瓯海泽雅景区,旅游景点,浙江省,AAAA,浙江省温州市瓯海区泽雅镇,温州市,温州瓯海泽雅景区,
浙江省台州市三门县潘家小镇风景旅游区,旅游景点,浙江省,AAA,浙江省台州市三门县横渡镇潘家小镇,台州市,浙江省台州市三门县潘家小镇风景旅游区,
